cityName	searchPhrase	resultNum	ypchsite	name	address1	address2	phone	website
st. gallen	hotel	N/A	http://yellow.local.ch/en/d/St-Gallen/9014/Hotel/Hotel-Sporting-S8WI0rJ0Nh3ppSOT6-s8kQ?dwhat=hotel&dwhere=st.+gallen	Hotel Sporting	Straubenzellstrasse 19	 9014 St. Gallen	071 272 30 30	www.hotel-sporting.ch	
st. gallen	hotel	N/A	http://yellow.local.ch/en/d/St-Gallen/9000/Hotel/Hotel-Metropol-Z5BxRnHNf5pFKbRG2A2sAA?dwhat=hotel&dwhere=st.+gallen	Hotel Metropol	Bahnhofplatz 3	 9000 St. Gallen	071 228 32 32	www.hotel-metropol.ch	
st. gallen	hotel	N/A	http://yellow.local.ch/en/d/St-Gallen/9000/Restaurant/Am-Spisertor-2ucFB671UfV0C-Tpl9uQxg?dwhat=hotel&dwhere=st.+gallen	Am Spisertor	Moosbruggstrasse 1	 9000 St. Gallen	071 228 82 83	www.spisertor.ch	
st. gallen	hotel	N/A	http://yellow.local.ch/en/d/St-Gallen/9000/Hotel/Dom-OlKgWnGObHoDEmK7TrfIDg?dwhat=hotel&dwhere=st.+gallen	Dom	Webergasse 22	 9000 St. Gallen	071 227 71 71	www.hoteldom.ch	
st. gallen	hotel	N/A	http://yellow.local.ch/en/d/St-Gallen/9000/Hotel/Schwanen-dwET6GfSXiWf5wPhlyD7CQ?dwhat=hotel&dwhere=st.+gallen	Schwanen	Webergasse 23	 9000 St. Gallen	071 222 65 62		
st. gallen	hotel	N/A	http://yellow.local.ch/en/d/St-Gallen/9000/Hotel/Elite-Garni-HTwknc7KQX7sj72k0vuSBg?dwhat=hotel&dwhere=st.+gallen	Elite Garni	Metzgergasse 9-11	 9000 St. Gallen	071 227 99 33	www.hotel-elite.ch	
st. gallen	hotel	N/A	http://yellow.local.ch/en/d/St-Gallen/9015/Hotel/Hotel-one66-AG-Rwe6g5qFviFauFhfORpwxA?dwhat=hotel&dwhere=st.+gallen	Hotel one66 AG	Alte Bildstrasse 6	 9015 St. Gallen	071 314 71 71	www.one66.ch	
st. gallen	hotel	N/A	http://yellow.local.ch/en/d/St-Gallen/9000/Hotel/Gallo-zBJuKr-yvfK4vvEkf4WTnQ?dwhat=hotel&dwhere=st.+gallen	Gallo	St. Jakob-Strasse 62	 9000 St. Gallen	071 242 71 71	www.hotel-gallo.ch	
st. gallen	hotel	N/A	http://yellow.local.ch/en/d/St-Gallen/9000/Hotel/Weisses-Kreuz-BknGBAd0AImruHojSUKo_A?dwhat=hotel&dwhere=st.+gallen	Weisses Kreuz	Engelgasse 9	 9000 St. Gallen	071 223 28 43	www.weisseskreuz-sg.ch	
st. gallen	hotel	N/A	http://yellow.local.ch/en/d/St-Gallen/9000/Hotel/Einstein-Congress-Hotel-Spa-2tqJuozJ6934EjFmgT25Hg?dwhat=hotel&dwhere=st.+gallen	Einstein Congress Hotel Spa	Berneggstrasse 2	 9000 St. Gallen	071 227 55 55		
st. gallen	hotel	N/A	http://yellow.local.ch/en/d/St-Gallen/9008/Hotel/Hotel-Eastside-cbB-GSBKYaMec9ZGuy6JPw?dwhat=hotel&dwhere=st.+gallen	Hotel Eastside	Langgasse 151	 9008 St. Gallen	071 511 31 21		
st. gallen	hotel	N/A	http://yellow.local.ch/en/d/St-Gallen/9015/Hotel/Hotel-Newstar-Z3WULv4aRYpr-Gnr5Op4YQ?dwhat=hotel&dwhere=st.+gallen	Hotel Newstar	Breitfeldstrasse 9	 9015 St. Gallen	071 230 20 20		
st. gallen	hotel	N/A	http://yellow.local.ch/en/d/St-Gallen/9000/Hotel/Am-Ring-Y1K7fvaHUGpsxt30clqUGQ?dwhat=hotel&dwhere=st.+gallen	Am Ring	Unterer Graben 9	 9000 St. Gallen	071 223 27 47		
st. gallen	hotel	N/A	http://yellow.local.ch/en/d/St-Gallen/9000/Hotel/Best-Western-Hotel-Walhalla-X7rNRJzkN4GsQkDX3kToEA?dwhat=hotel&dwhere=st.+gallen	Best Western Hotel Walhalla	Bahnhofplatz, Poststrasse 27	 9000 St. Gallen	071 228 28 00		
st. gallen	hotel	N/A	http://yellow.local.ch/en/d/St-Gallen/9000/Hotel/Hotel-Bar-Kranzlin-cBoyHTGc3HyoWE3Ow5N7yA?dwhat=hotel&dwhere=st.+gallen	Hotel Bar Kränzlin	Augustinergasse 1	 9000 St. Gallen	071 534 84 14		
st. gallen	hotel	N/A	http://yellow.local.ch/en/d/St-Gallen/9000/Hotel/Hotel-Vadian-Garni-UBeO3TluMuxhQMrj_sghBg?dwhat=hotel&dwhere=st.+gallen	Hotel Vadian Garni	Gallusstrasse 36	 9000 St. Gallen	071 228 18 78		
st. gallen	hotel	N/A	http://yellow.local.ch/en/d/St-Gallen/9000/Hotel/Radisson-Blu-Hotel-CcNAsd87MYnRMGnRwyD9bg?dwhat=hotel&dwhere=st.+gallen	Radisson Blu Hotel	St. Jakob-Strasse 55	 9000 St. Gallen	071 242 12 12		
st. gallen	hotel	N/A	http://yellow.local.ch/en/d/St-Gallen/9000/Apartment-hotel/Sorell-Hotel-City-Weissenstein-AmL8RkB3a7qhEXXaIEQseQ?dwhat=hotel&dwhere=st.+gallen	Sorell Hotel City Weissenstein	Davidstrasse 22	 9000 St. Gallen	071 228 06 28		
st. gallen	hotel	N/A	http://yellow.local.ch/en/d/St-Gallen/9000/Hotel/Walhalla-Best-Western-60I-tRVOe2NLrpMBKSTCWA?dwhat=hotel&dwhere=st.+gallen	Walhalla (Best Western)	Bahnhofplatz, Poststrasse 27	 9000 St. Gallen	071 228 28 00		
st. gallen	hotel	N/A	http://yellow.local.ch/en/d/St-Gallen/9000/Restaurant/O-Premier-Hotel-Metropol-dexPmBcTGzjmThgIC2MMsg?dwhat=hotel&dwhere=st.+gallen	O Premier Hotel Metropol	Bahnhofplatz 3	 9000 St. Gallen	071 228 32 32	www.hotel-metropol.ch	
st. gallen	hotel	N/A	http://yellow.local.ch/en/d/St-Gallen/9000/Restaurant/Brasserie-Hotel-Walhalla-GcN1XqSUwt76yDx2KwOYUw?dwhat=hotel&dwhere=st.+gallen	Brasserie, Hotel Walhalla	Bahnhofplatz, Poststrasse 27	 9000 St. Gallen	071 228 28 08		
st. gallen	hotel	N/A	http://yellow.local.ch/en/d/St-Gallen/9000/Restaurant/Restaurant-Hotel-Friedburg-izB1WqNDcMIalhbNWH4-qw?dwhat=hotel&dwhere=st.+gallen	Restaurant Hotel Friedburg	Burgstrasse 72	 9000 St. Gallen	071 277 10 93		
st. gallen	hotel	N/A	http://yellow.local.ch/en/d/St-Gallen/9016/Guesthouse-furnishing/Kreis-AG-Gastro-und-Hotelbedarf-fJ1YHaMG9aP2g-BWCU9X0g?dwhat=hotel&dwhere=st.+gallen	Kreis AG Gastro- und Hotelbedarf	Schachenstrasse 9	 9016 St. Gallen	071 288 03 13	www.kreisgastro.ch	
st. gallen	hotel	N/A	http://yellow.local.ch/en/d/St-Gallen/9000/Restaurant/Walhalla-Hotel-Walhalla-vJgkhAln6OwOwYYM9iImKQ?dwhat=hotel&dwhere=st.+gallen	Walhalla, Hotel Walhalla	Bahnhofplatz, Poststrasse 27	 9000 St. Gallen	071 228 28 18		
st. gallen	hotel	N/A	http://yellow.local.ch/en/d/St-Gallen/9015/Hollywood-Bar-und-Hotel-SmVx1OJC0pfTnDnVwYFNzg?dwhat=hotel&dwhere=st.+gallen	Hollywood Bar und Hotel	Herisauer Strasse 65	 9015 St. Gallen	071 310 20 04		
st. gallen	hotel	N/A	http://yellow.local.ch/en/d/St-Gallen/9000/Laundry-service/Hotel-Dom-wrv73OwNEXF8nSJ2ehCXfQ?dwhat=hotel&dwhere=st.+gallen	Hotel Dom	Webergasse 22	 9000 St. Gallen	071 227 71 71		
st. gallen	hotel	N/A	http://yellow.local.ch/en/d/St-Gallen/9000/Hotel-Gastro-formation-SG-AR-AI-FL-bivTkNYsiDkJad26U6uwXg?dwhat=hotel&dwhere=st.+gallen	Hotel & Gastro formation SG AR AI FL	Fürstenlandstrasse 45	 9000 St. Gallen	071 272 66 33		
st. gallen	hotel	N/A	http://yellow.local.ch/en/d/St-Gallen/9000/Hotel-Rossli-v0tqVa1i_v8S6KUE5YKV8g?dwhat=hotel&dwhere=st.+gallen	Hotel Rössli	Zürcher Strasse 62	 9000 St. Gallen	079 841 85 07		
st. gallen	hotel	N/A	http://yellow.local.ch/en/d/Buhler/9055/Hotel/Landgasthof-Sternen-gTznYKBKakjt_QMqys0bBQ?dwhat=hotel&dwhere=st.+gallen	Landgasthof Sternen	Dorfstrasse 97	 9055 Bühler	071 793 17 58	www.sternen-appenzellerland.ch	
st. gallen	hotel	N/A	http://yellow.local.ch/en/d/Wittenbach/9300/Hotel/Hotel-Garni-Rossli-xqU0AQawKhRdixou0aJOUw?dwhat=hotel&dwhere=st.+gallen	Hotel Garni Rössli	Romanshornerstrasse 10	 9300 Wittenbach	071 298 40 30	www.hotelroessliwittenbach.ch	
st. gallen	hotel	N/A	http://yellow.local.ch/en/d/St-Gallen/9012/Pesticides/Kreienbuhl-Schadlingsbekampfung-VVbWXtHKz0reKK5o4YAK5g?dwhat=hotel&dwhere=st.+gallen	Kreienbühl - Schädlingsbekämpfung	Oberhofstettenstrasse 10A	 9012 St. Gallen	071 278 56 48	Go to website	
st. gallen	hotel	N/A	http://yellow.local.ch/en/d/St-Gallen/9015/Heating-systems/TCA-Thermoclima-AG-T2b6pPq2AtFuGXdLJUUW5g?dwhat=hotel&dwhere=st.+gallen	TCA Thermoclima AG	Piccardstrasse 13	 9015 St. Gallen	071 313 99 22	www.tca.ch	
st. gallen	hotel	N/A	http://yellow.local.ch/en/d/St-Gallen/9000/Electronic-games/BavariaTech-AG-AoR9JkSlRE47NAWkq6GN1g?dwhat=hotel&dwhere=st.+gallen	BavariaTech AG	Speicherstrasse 60	 9000 St. Gallen	071 244 41 41	www.bavariatech.ch	
st. gallen	hotel	N/A	http://yellow.local.ch/en/d/St-Gallen/9000/Travel-agency/Hotelplan-MTCH-AG-xEwrrG2PF6JU5d0XgP3ifg?dwhat=hotel&dwhere=st.+gallen	Hotelplan, MTCH AG	Poststrasse 12	 9000 St. Gallen	071 228 58 00		
st. gallen	hotel	N/A	http://yellow.local.ch/en/d/St-Gallen/9000/Home/Kursana-AG-LDKonWubYlaoagNkzlRkRw?dwhat=hotel&dwhere=st.+gallen	Kursana AG	Moosbruggstrasse 1	 9000 St. Gallen	071 228 82 82	www.spisertor.ch	
st. gallen	hotel	N/A	http://yellow.local.ch/en/d/St-Gallen/9000/Draperies-drapery-service/Vorhangatelier-Katja-Schwyter-FBImHxUNP3_wK0YMzLZRNg?dwhat=hotel&dwhere=st.+gallen	Vorhangatelier Katja Schwyter	Rorschacher Strasse 173	 9000 St. Gallen	071 244 60 45	www.vorhangatelier-katja.ch	
st. gallen	hotel	N/A	http://yellow.local.ch/en/d/St-Gallen/9000/Lighting-planning/Domus-Leuchten-und-Mobel-AG--gxJoF3jGy14raKkKZEf6A?dwhat=hotel&dwhere=st.+gallen	Domus Leuchten und Möbel AG	Davidstrasse 24	 9000 St. Gallen	071 228 20 60		
st. gallen	hotel	N/A	http://yellow.local.ch/en/d/St-Gallen/9000/Temporary-and-permanent-employment/Adecco-Human-Resources-AG-hP8QnD4TUzFb8mvDZHTRLA?dwhat=hotel&dwhere=st.+gallen	Adecco Human Resources AG	Poststrasse 15	 9000 St. Gallen	058 233 39 80		
st. gallen	hotel	N/A	http://yellow.local.ch/en/d/St-Gallen/9000/forderraum-bT9VX-k6t7c7U2GivamK4A?dwhat=hotel&dwhere=st.+gallen	förderraum	Poststrasse 15	 9000 St. Gallen	071 227 14 50		
st. gallen	hotel	N/A	http://yellow.local.ch/en/d/St-Gallen/9000/Il-Castello-SA-3HQThK8RIkYiVOn0GTg?dwhat=hotel&dwhere=st.+gallen	Il Castello	Burgstrasse 26	 9000 St. Gallen	071 534 40 11		
st. gallen	hotel	N/A	http://yellow.local.ch/en/d/St-Gallen/9000/Kloster-Bistro-ambeez1j1TyAcM0IEtl1NA?dwhat=hotel&dwhere=st.+gallen	Kloster-Bistro	Klosterhof 6e	 9000 St. Gallen	071 222 21 12		
st. gallen	hotel	N/A	http://yellow.local.ch/en/d/Schonengrund/9105/Conference-Hotels/Chaseren-mI5ekdduk2ZfJcrvDKSnHA?dwhat=hotel&dwhere=st.+gallen	Chäseren	Chäserenstrasse 327	 9105 Schönengrund	071 361 17 51	www.chaeseren.ch	
st. gallen	hotel	N/A	http://yellow.local.ch/en/d/Abtwil-SG/9030/Travel-agency/Hotelplan-MTCH-AG--EEx874jHuRozjS2S07U_g?dwhat=hotel&dwhere=st.+gallen	Hotelplan, MTCH AG	Wiesenbachstrasse 7	 9030 Abtwil SG	071 314 70 70		
st. gallen	hotel	N/A	http://yellow.local.ch/en/d/Rorschacherberg/9404/Naturopathy/QuantiSana-Gesundheitszentrum-AG-kmiJ_n9moJjF8hro-ZRU-w?dwhat=hotel&dwhere=st.+gallen	QuantiSana Gesundheitszentrum AG	Wartensee 2	 9404 Rorschacherberg	071 544 95 62	www.quantisana.ch	
st. gallen	hotel	N/A	http://yellow.local.ch/en/d/Altstatten-SG/9450/Secondhand-goods/Heilsarmee-brockich-Altstatten-X421dDzx_JNtbNtPPq-0Kw?dwhat=hotel&dwhere=st.+gallen	Heilsarmee brocki.ch/Altstätten	Kriessernstrasse 23	 9450 Altstätten SG	071 722 35 90	www.brocki.ch	
st. gallen	hotel	N/A	http://yellow.local.ch/en/d/Gossau-SG/9200/Secondhand-goods/Heilsarmee-brockich-Gossau-StGallen-RNa84HqRUiKfHDXfdRvuDA?dwhat=hotel&dwhere=st.+gallen	Heilsarmee brocki.ch/Gossau-St.Gallen	Industriestrasse 135	 9200 Gossau SG	071 277 77 61	www.brocki.ch	
st. gallen	hotel	N/A	http://yellow.local.ch/en/d/Abtwil-SG/9030/Medbase-yVEu11WSt0GOgedF3WDJ3Q?dwhat=hotel&dwhere=st.+gallen	Medbase	Wiesenbachstrasse 5	 9030 Abtwil SG	071 313 70 20		
