cityName	searchPhrase	resultNum	ypchsite	name	address1	address2	phone	website
st. gallen	florist	N/A	http://yellow.local.ch/en/d/St-Gallen/9000/Florist/Bluten-und-Blatt-GmbH-kppxwPRlGdO5GnV3a5o6Nw?dwhat=florist&dwhere=st.+gallen	Blüten und Blatt GmbH	Schmiedgasse 26	 9000 St. Gallen	071 223 66 70	www.bluetenundblatt.ch	
st. gallen	florist	N/A	http://yellow.local.ch/en/d/St-Gallen/9000/Florist/Kronis-Blumen-und-Prasente-CHsNmgnrvVmcowT0Nh3p2g?dwhat=florist&dwhere=st.+gallen	Kröni's Blumen und Präsente	Spitalgasse 8	 9000 St. Gallen	071 222 86 10	www.kroenisblumen.ch	
st. gallen	florist	N/A	http://yellow.local.ch/en/d/St-Gallen/9000/Nursery/Blumen-Tschopp-AG-WDeXCC1JeztZ1ZxJP1I4uw?dwhat=florist&dwhere=st.+gallen	Blumen Tschopp AG	Feldlistrasse 11	 9000 St. Gallen	071 277 59 27	www.blumen-tschopp.ch	
st. gallen	florist	N/A	http://yellow.local.ch/en/d/St-Gallen/9000/Floral-arrangements/Blumen-Pfister-VjYfnqVGPY8xQTqYv6TeNQ?dwhat=florist&dwhere=st.+gallen	Blumen Pfister	Röschstrasse 17a	 9000 St. Gallen	071 244 57 31	www.blumenpfister.ch	
st. gallen	florist	N/A	http://yellow.local.ch/en/d/St-Gallen/9000/Florist/Blumen-Lachen-Smi8SE7EA0hURmofVUR9_w?dwhat=florist&dwhere=st.+gallen	Blumen Lachen	Zürcher Strasse 33	 9000 St. Gallen	071 278 66 56	www.blumenlachen.ch	
st. gallen	florist	N/A	http://yellow.local.ch/en/d/St-Gallen/9010/Florist/Blumen-Ginkgo-El3N_qsNdCAjsN5f3WHzLQ?dwhat=florist&dwhere=st.+gallen	Blumen Ginkgo	Guisanstrasse 93	 9010 St. Gallen	071 244 13 13	www.ginkgoblumen.ch	
st. gallen	florist	N/A	http://yellow.local.ch/en/d/St-Gallen/9000/Florist/Creativ-Floristik-1_JUCJz-MrETJ4jpe2Wt9A?dwhat=florist&dwhere=st.+gallen	Creativ Floristik	Davidstrasse 18	 9000 St. Gallen	071 222 11 89	www.creativ-floristik.ch	
st. gallen	florist	N/A	http://yellow.local.ch/en/d/St-Gallen/9016/Florist/Blumen-Viola-XpagUuGhT1ZhcsHxatPqYw?dwhat=florist&dwhere=st.+gallen	Blumen Viola	Kesselhaldenstrasse 23	 9016 St. Gallen	071 503 23 23	www.violaflowers.ch	
st. gallen	florist	N/A	http://yellow.local.ch/en/d/St-Gallen/9000/Florist/Blumen-Diener-HNw8zaLDTAC442Y-dc61ew?dwhat=florist&dwhere=st.+gallen	Blumen Diener	Burggraben 16	 9000 St. Gallen	071 222 55 11		
st. gallen	florist	N/A	http://yellow.local.ch/en/d/St-Gallen/9008/Wedding/Bijou-Fleur-k-x3gRasAdy4qssO7y-Q2g?dwhat=florist&dwhere=st.+gallen	Bijou-Fleur	Langgasse 16	 9008 St. Gallen	071 244 85 75		
st. gallen	florist	N/A	http://yellow.local.ch/en/d/St-Gallen/9000/Florist/Blume-3000-AG-fKQxoLAaIBK_99jkiZSoVA?dwhat=florist&dwhere=st.+gallen	Blume 3000 AG	Bahnhofplatz	 9000 St. Gallen	071 222 46 54		
st. gallen	florist	N/A	http://yellow.local.ch/en/d/St-Gallen/9000/Florist/Blumen-Irene-1J81KMGZTD1ukhveTq1L1g?dwhat=florist&dwhere=st.+gallen	Blumen Irène	St. Georgen-Strasse 42	 9000 St. Gallen	071 222 76 22		
st. gallen	florist	N/A	http://yellow.local.ch/en/d/St-Gallen/9014/Florist/Blumen-vom-Lerchenfeld-xYGKBeFJK_qzIgC82aEZGw?dwhat=florist&dwhere=st.+gallen	Blumen vom Lerchenfeld	Zürcher Strasse 204	 9014 St. Gallen	071 277 72 77		
st. gallen	florist	N/A	http://yellow.local.ch/en/d/St-Gallen/9014/Florist/Blumenatelier-Moni-Koster-1Vh5jcULCJEKk_sT_OYp6A?dwhat=florist&dwhere=st.+gallen	Blumenatelier Moni Koster	Bernhardswiesstrasse 20	 9014 St. Gallen	071 535 36 00		
st. gallen	florist	N/A	http://yellow.local.ch/en/d/St-Gallen/9000/Florist/Ginger-Flower-by-Lars-Brunner-K3Ls580aBtjRuYLYBZLu5w?dwhat=florist&dwhere=st.+gallen	Ginger Flower by Lars Brunner	Grossacker-Zentrum, Rorschacher Strasse 152	 9000 St. Gallen	071 245 13 13		
st. gallen	florist	N/A	http://yellow.local.ch/en/d/St-Gallen/9000/Events/yeoon-grunesatelier-33RKxPEm1_UVpeWSGIEASw?dwhat=florist&dwhere=st.+gallen	yeoon grünesatelier	Davidstrasse 46	 9000 St. Gallen	078 848 27 26		
st. gallen	florist	N/A	http://yellow.local.ch/en/d/Teufen-AR/9053/Florist/Blumen-Aphrodisia-Blutendufte-und-Erdenzauber-eIG07Sh_V2d3I-y7bX6QMQ?dwhat=florist&dwhere=st.+gallen	Blumen Aphrodisia Blütendüfte und Erdenzauber	Hauptstrasse 21	 9053 Teufen AR	071 333 52 53		
st. gallen	florist	N/A	http://yellow.local.ch/en/d/Herisau/9100/Florist/BLUMEN-GALERIE-XVYlGWQIELsz8CTZvroqgA?dwhat=florist&dwhere=st.+gallen	BLUMEN GALERIE	Platz 12	 9100 Herisau	071 351 77 07		
st. gallen	florist	N/A	http://yellow.local.ch/en/d/Gais/9056/Florist/Blumentrog-wdEM7170aGLLAtCIgdDOKQ?dwhat=florist&dwhere=st.+gallen	Blumentrog	Rotbach 4	 9056 Gais	071 344 30 88		
st. gallen	florist	N/A	http://yellow.local.ch/en/d/Andwil-SG/9204/Florist/Brandle-Gartenbau-AG-Brandle-Blumen-GmbH-v4mor0uYNWf4xZr-dXiUlw?dwhat=florist&dwhere=st.+gallen	Brändle Gartenbau AG & Brändle Blumen GmbH	Grüenaustrasse 2	 9204 Andwil SG	071 385 31 81		
st. gallen	florist	N/A	http://yellow.local.ch/en/d/Wittenbach/9300/Florist/Kappelhof-Gartnerei-TSlUjDYsBer6RmzaFq7paw?dwhat=florist&dwhere=st.+gallen	Kappelhof Gärtnerei	Kappelhof	 9300 Wittenbach	071 290 15 80		
st. gallen	florist	N/A	http://yellow.local.ch/en/d/Buhler/9055/Florist/Keller-Emil-Trankjaer-qecPSItpS6dZ39YvTbcUKQ?dwhat=florist&dwhere=st.+gallen	Keller Emil (-Trankjaer)	Dorfstrasse 106	 9055 Bühler	071 793 17 54		
st. gallen	florist	N/A	http://yellow.local.ch/en/d/Zug/6300/Greeting-cards/Telegramme-und-Blumen-v3pN005G_s9ZKjFXrAlvPg?dwhat=florist&dwhere=st.+gallen	Telegramme und Blumen	Poststrasse 6	 6300 Zug	0800 83 02 37		
