cityName	searchPhrase	resultNum	ypchsite	name	address1	address2	phone	website
st. gallen	nails	N/A	http://yellow.local.ch/en/d/St-Gallen/9000/Cosmetic-institute/La-Boheme-Kosmetikstudio-10QK5rwk_Nz4atQKtkv5bw?dwhat=nails&dwhere=st.+gallen	La Bohème Kosmetikstudio	Rorschacher Strasse 110	 9000 St. Gallen	071 244 44 78	www.laboheme-kosmetik.ch	
st. gallen	nails	N/A	http://yellow.local.ch/en/d/St-Gallen/9014/Hairdresser/Hairstyling-Benz-9c5kJums92IW88y6kIAbHg?dwhat=nails&dwhere=st.+gallen	Hairstyling Benz	Zürcher Strasse 236	 9014 St. Gallen	071 277 29 26		
st. gallen	nails	N/A	http://yellow.local.ch/en/d/St-Gallen/9000/Hairdresser/Coiffure-Nagelstudio-TERESA-BONAZZA-E2QCvbeeQnZgBGkAvtoO9Q?dwhat=nails&dwhere=st.+gallen	Coiffure- & Nagelstudio TERESA BONAZZA	Engelgasse 5	 9000 St. Gallen	071 222 88 34	www.coiffure-teresa.ch	
st. gallen	nails	N/A	http://yellow.local.ch/en/d/St-Gallen/9000/Nail-cosmetics/Cosmetic-Nail-Care-QPJW8Ira1vJsti9vpSkLjw?dwhat=nails&dwhere=st.+gallen	Cosmetic & Nail Care	Zürcher Strasse 26	 9000 St. Gallen	071 278 88 77	www.cosmetic-nailcare.ch	
st. gallen	nails	N/A	http://yellow.local.ch/en/d/St-Gallen/9014/Nail-cosmetics/Laguardia-Miriam-Spitaleri-tNNTa4zhLQ0LYAd8Q7f3fQ?dwhat=nails&dwhere=st.+gallen	Laguardia Miriam (-Spitaleri)	Hinterberg 24	 9014 St. Gallen	078 609 40 52		
st. gallen	nails	N/A	http://yellow.local.ch/en/d/St-Gallen/9000/Nail-cosmetics/Nails-by-Iris-MNoTVEnNZdldr1cquTMCeg?dwhat=nails&dwhere=st.+gallen	Nails by Iris	Wiesenstrasse 6	 9000 St. Gallen	078 859 26 58		
st. gallen	nails	N/A	http://yellow.local.ch/en/d/St-Gallen/9000/Hairdresser/Reduit-Haute-Coiffure-oDyLfb80HulA0IaJSz1apA?dwhat=nails&dwhere=st.+gallen	Reduit Haute Coiffure	Metzgergasse 10	 9000 St. Gallen	071 222 51 10	www.steinmann-ag.ch	
st. gallen	nails	N/A	http://yellow.local.ch/en/d/St-Gallen/9000/Angel-Nails-Beauty-Spa-plW517ON7YyEjkKwTpNI2Q?dwhat=nails&dwhere=st.+gallen	Angel Nails & Beauty Spa	Schmiedgasse 13	 9000 St. Gallen	071 558 45 88		
st. gallen	nails	N/A	http://yellow.local.ch/en/d/St-Gallen/9000/Nail-cosmetics/Beauty-Corner-Rubin-vO_eazNvfmSwT5j-BOFszA?dwhat=nails&dwhere=st.+gallen	Beauty Corner Rubin	Merkurstrasse 4	 9000 St. Gallen	071 244 44 48		
st. gallen	nails	N/A	http://yellow.local.ch/en/d/St-Gallen/9000/Nail-cosmetics/Beauty-Nail-Design-_2oBHknHG80E-Wny1qbjbQ?dwhat=nails&dwhere=st.+gallen	Beauty & Nail Design	Adlerbergstrasse 7	 9000 St. Gallen	071 244 88 18		
st. gallen	nails	N/A	http://yellow.local.ch/en/d/St-Gallen/9000/Nail-cosmetics/Beauty-Place-Cosmetics-Naildesign-3Ko6v7WmlAH7rqZWWORqgQ?dwhat=nails&dwhere=st.+gallen	Beauty Place Cosmetics & Naildesign	Rosenbergstrasse 76	 9000 St. Gallen	071 277 10 07		
st. gallen	nails	N/A	http://yellow.local.ch/en/d/St-Gallen/9014/Nail-cosmetics/Cosmetic-Nail-Harmonie-ONMX0dEdPbUGAM91nLW4hg?dwhat=nails&dwhere=st.+gallen	Cosmetic & Nail Harmonie	Zürcher Strasse 235	 9014 St. Gallen	071 277 24 71		
st. gallen	nails	N/A	http://yellow.local.ch/en/d/St-Gallen/9000/Nail-cosmetics/Fashion-Nails-maZUsxresBtgVp-jbFfClw?dwhat=nails&dwhere=st.+gallen	Fashion Nails	Linsebühlstrasse 41	 9000 St. Gallen	071 220 98 03		
st. gallen	nails	N/A	http://yellow.local.ch/en/d/St-Gallen/9008/Hairdresser/Hair-Nails-by-Elif-I-IwMmEEOYaU47MXwawtBA?dwhat=nails&dwhere=st.+gallen	Hair & Nails by Elif	Langgasse 71	 9008 St. Gallen	071 223 22 28		
st. gallen	nails	N/A	http://yellow.local.ch/en/d/St-Gallen/9000/Cosmetic-products/HNC-AG-Uq-tmcJX0IEZT6rA00agbw?dwhat=nails&dwhere=st.+gallen	HNC AG	Rorschacher Strasse 152	 9000 St. Gallen	071 282 90 20		
st. gallen	nails	N/A	http://yellow.local.ch/en/d/St-Gallen/9000/Nail-cosmetics/Jasmin-Beauty-SeIvpMepBbUpJHJCi4s9xw?dwhat=nails&dwhere=st.+gallen	Jasmin Beauty	Teufener Strasse 23	 9000 St. Gallen	078 613 20 16		
st. gallen	nails	N/A	http://yellow.local.ch/en/d/St-Gallen/9014/Nail-cosmetics/Lakic-Dobrila-jQBrL9CA5_6x51ganr5icA?dwhat=nails&dwhere=st.+gallen	Lakic Dobrila	Haggenhaldenstrasse 13	 9014 St. Gallen	071 279 28 55		
st. gallen	nails	N/A	http://yellow.local.ch/en/d/St-Gallen/9000/Nail-cosmetics/Mosler-Esther-J4VJL8eVc8KH3CuCkyqEvg?dwhat=nails&dwhere=st.+gallen	Mösler Esther	Oberer Graben 3	 9000 St. Gallen	071 222 04 11		
st. gallen	nails	N/A	http://yellow.local.ch/en/d/St-Gallen/9000/Nail-cosmetics/Nailart-Beautypoint-ua9hWEO89b2hJij3Wl6VBw?dwhat=nails&dwhere=st.+gallen	Nailart Beautypoint	Pestalozzistrasse 2	 9000 St. Gallen	071 220 33 64		
st. gallen	nails	N/A	http://yellow.local.ch/en/d/St-Gallen/9000/Nail-cosmetics/Naildesign-l9b1pCPPiPLyZN3Md5WFGw?dwhat=nails&dwhere=st.+gallen	Naildesign	Lindenstrasse 33	 9000 St. Gallen	079 589 69 97		
st. gallen	nails	N/A	http://yellow.local.ch/en/d/St-Gallen/9000/Nail-cosmetics/SimoneNails-SHABA-Beauty-Cctt6uNbrkkBfSnKxynEMg?dwhat=nails&dwhere=st.+gallen	SimoneNails & SHABA - Beauty	Grossackerstrasse 10	 9000 St. Gallen	071 244 35 24		
st. gallen	nails	N/A	http://yellow.local.ch/en/d/St-Gallen/9000/Hairdresser/Stylingpoint-XlsPmtVlZLSGfhgUX9eR5A?dwhat=nails&dwhere=st.+gallen	Stylingpoint	Brühlgasse 35	 9000 St. Gallen	071 220 86 46	www.stylingpoint.ch	
st. gallen	nails	N/A	http://yellow.local.ch/en/d/St-Gallen/9015/Nail-Studio-Orchidee-PhUn_lc5pJAUleydulCxIg?dwhat=nails&dwhere=st.+gallen	Nail Studio Orchidee	Mittelholzerstrasse 9	 9015 St. Gallen	078 696 58 81		
st. gallen	nails	N/A	http://yellow.local.ch/en/d/Staad-SG/9422/Hair-removal/Nail-Beauty-Studio-5WVl5OJc5SX2nA4s5FRJGA?dwhat=nails&dwhere=st.+gallen	Nail & Beauty Studio	Hauptstrasse 21	 9422 Staad SG	071 845 22 07	www.nailstudio-staad.ch	
st. gallen	nails	N/A	http://yellow.local.ch/en/d/Rorschach/9400/Nail-cosmetics/Top-Nails-Ym-FHWg4sSeFTPAUCSZI8w?dwhat=nails&dwhere=st.+gallen	Top Nails	Feldmühlestrasse 49	 9400 Rorschach	079 401 56 63	www.topnails-zeller.com	
st. gallen	nails	N/A	http://yellow.local.ch/en/d/Abtwil-SG/9030/Nail-cosmetics/NailStudio-Franziska-_MmKcxa-SxQw2fAgoTOHpQ?dwhat=nails&dwhere=st.+gallen	NailStudio Franziska	Auwiesenstrasse 58B	 9030 Abtwil SG	071 311 62 06		
st. gallen	nails	N/A	http://yellow.local.ch/en/d/Wittenbach/9300/Nail-cosmetics/A-A-Studio-fur-schone-Nagel-ehZxauNGZfGsF6TAgfQ-Yg?dwhat=nails&dwhere=st.+gallen	A A Studio für schöne Nägel	Grünaustrasse 26	 9300 Wittenbach	071 278 19 39		
