cityName	searchPhrase	resultNum	ypchsite	name	address1	address2	phone	website
zurich	florist	N/A	http://yellow.local.ch/en/d/Zurich/8037/Florist/blumenundso-hfN6k2HV_c5Mae_lUL-ThA?dwhat=florist&dwhere=zurich	blumenundso	Im Waidegg 1 / Am Bucheggplatz	 8037 Zürich	044 361 50 88	www.blumenundso.ch	
zurich	florist	N/A	http://yellow.local.ch/en/d/Zurich/8003/Florist/Blumenhaus-Wiedikon--H4IHOtffJk9HrYqASVsXA?dwhat=florist&dwhere=zurich	Blumenhaus Wiedikon	Zurlindenstrasse 55	 8003 Zürich	044 463 36 37	www.blumenstrauss-zuerich.ch	
zurich	florist	N/A	http://yellow.local.ch/en/d/Zurich/8001/Florist/Blumen-Schipfe-AG-Abplanalp-Floristen-toz3zKd3OzxSLO62ZRyhDA?dwhat=florist&dwhere=zurich	Blumen Schipfe AG Abplanalp Floristen	Schipfe 25	 8001 Zürich	044 211 62 62	www.blumenschipfe.ch	
zurich	florist	N/A	http://yellow.local.ch/en/d/Zurich/8032/Florist/Blumenhaus-Hegibach-jpOj4yIJl6Q6elE-AIUeVw?dwhat=florist&dwhere=zurich	Blumenhaus Hegibach	Forchstrasse 103	 8032 Zürich	044 381 71 05	www.blumenhegibach.ch	
zurich	florist	N/A	http://yellow.local.ch/en/d/Zurich/8001/Florist/MARSANO-AG-iT-e-tAO4EG1GgV7BRuZSg?dwhat=florist&dwhere=zurich	MARSANO AG	Paradeplatz, Bahnhofstrasse 28	 8001 Zürich	044 211 20 02	www.marsano.ch	
zurich	florist	N/A	http://yellow.local.ch/en/d/Zurich/8008/Florist/Valse-des-Roses-6i7cPCUWlhCj_IcpXC-VPA?dwhat=florist&dwhere=zurich	Valse des Roses	Bellerivestrasse 249	 8008 Zürich	044 888 92 72	www.valse-des-roses.ch	
zurich	florist	N/A	http://yellow.local.ch/en/d/Zurich/8001/Florist/Rosenborse-GmbH--iBl2S6xfR-QOUjlL3_jKw?dwhat=florist&dwhere=zurich	Rosenbörse GmbH	Schützengasse 23	 8001 Zürich	043 344 90 90	www.rosenboerse.ch	
zurich	florist	N/A	http://yellow.local.ch/en/d/Zurich/8003/Florist/Blumen-Fischer-GmbH-pyWCqXrENkX40NvADQrObw?dwhat=florist&dwhere=zurich	Blumen Fischer GmbH	Birmensdorferstrasse 240	 8003 Zürich	044 462 04 88	www.blumenfischer.ch	
zurich	florist	N/A	http://yellow.local.ch/en/d/Zurich/8001/Florist/blumen-fitze-AG-plO8PgXlhv8OTkpkmMYRdA?dwhat=florist&dwhere=zurich	blumen fitze AG	Augustinergasse 20	 8001 Zürich	044 221 21 61	www.blumen-fitze.ch	
zurich	florist	N/A	http://yellow.local.ch/en/d/Zurich/8048/Florist/Altstetter-Blumen-ilm6ODlmzv3eAXPxACnqiQ?dwhat=florist&dwhere=zurich	Altstetter Blumen	Lindenplatz 4	 8048 Zürich	044 431 12 17	www.albisrieder-pflanzen.ch	
zurich	florist	N/A	http://yellow.local.ch/en/d/Zurich/8047/Florist/Blumen-Fee-BLUMEN-und-GESCHENKE-ATDuahkApDLZnacxX9qh_w?dwhat=florist&dwhere=zurich	Blumen-Fee BLUMEN und GESCHENKE	Albisriederstrasse 342	 8047 Zürich	044 401 18 18	www.blumen-fee.ch	
zurich	florist	N/A	http://yellow.local.ch/en/d/Zurich/8038/Florist/Blumenhalle-Wollishofen-AG-3FxksHk3Mv6VkMc81EZkJg?dwhat=florist&dwhere=zurich	Blumenhalle Wollishofen AG	Studackerstrasse 8 /Tramendstation Wollishofen	 8038 Zürich	044 482 41 42	www.blumenhalle.ch	
zurich	florist	N/A	http://yellow.local.ch/en/d/Zurich/8046/Florist/Blumen-Ammann-rIbstIcM_Ee0C8764ZpOiQ?dwhat=florist&dwhere=zurich	Blumen Ammann	Wehntalerstrasse 285	 8046 Zürich	044 371 32 30	www.blumenammann.ch	
zurich	florist	N/A	http://yellow.local.ch/en/d/Zurich/8005/Floral-arrangements/Le-fleuriste-mUNwHm2YYM9skazcpgUWMQ?dwhat=florist&dwhere=zurich	Le fleuriste	Limmatstrasse 189	 8005 Zürich	044 272 38 21	www.lefleuriste.ch	
zurich	florist	N/A	http://yellow.local.ch/en/d/Zurich/8049/Florist/Blumen-Jakob-WBH4WcikH06xk2PgRdp-Jw?dwhat=florist&dwhere=zurich	Blumen Jakob	Limmattalstrasse 224	 8049 Zürich	044 341 88 20	www.blumen-jakob.ch	
zurich	florist	N/A	http://yellow.local.ch/en/d/Zurich/8038/Florist/dickicht-blumen-accessoires-Gaby-Dick-YqXLg9Qc73ttBMEn6SFs9Q?dwhat=florist&dwhere=zurich	dickicht blumen + accessoires Gaby Dick	Mutschellenstrasse 189	 8038 Zürich	044 482 11 70	www.dickicht.ch	
zurich	florist	N/A	http://yellow.local.ch/en/d/Zurich/8004/Florist/Lowenzahn-GmbH-1AibB7A6O81t190hAYFVIQ?dwhat=florist&dwhere=zurich	Löwenzahn GmbH	Morgartenstrasse 7	 8004 Zürich	044 291 44 11	www.loewenzahn.ch	
zurich	florist	N/A	http://yellow.local.ch/en/d/Zurich/8008/Florist/Blumen-Art-eN3OLespisKapEypRzcesA?dwhat=florist&dwhere=zurich	Blumen Art	Seefeldstrasse 134	 8008 Zürich	044 383 06 26	www.blumenart.ch	
zurich	florist	N/A	http://yellow.local.ch/en/d/Zurich/8050/Florist/Blumen-Oertig-y6b6_8dMeY33xlWsMUaizw?dwhat=florist&dwhere=zurich	Blumen Oertig	Schaffhauserstrasse 354	 8050 Zürich	044 311 48 94	www.oertig.ch	
zurich	florist	N/A	http://yellow.local.ch/en/d/Zurich/8001/Florist/Bergmann-Urs-oJzCf4KaGFPIJi0XBWlE1A?dwhat=florist&dwhere=zurich	Bergmann Urs	Marktgasse 6	 8001 Zürich	044 261 94 25	www.bergmann-florist.ch	
zurich	florist	N/A	http://yellow.local.ch/en/d/Zurich/8003/Florist/Floristeria-GmbH-ePdKfl84F8vEmVj72H31Nw?dwhat=florist&dwhere=zurich	Floristeria GmbH	Kalkbreitestrasse 67	 8003 Zürich	044 451 49 69	www.floristeria.ch	
zurich	florist	N/A	http://yellow.local.ch/en/d/Zurich/8053/Florist/Blumenhaus-Witikon-VDHNj7y313gCABWaLYrMHg?dwhat=florist&dwhere=zurich	Blumenhaus Witikon	Witikonerstrasse 297	 8053 Zürich	044 381 26 60	www.blumenhaus-witikon.ch	
zurich	florist	N/A	http://yellow.local.ch/en/d/Zurich/8004/Florist/Blumenhalle-Markt-AG-CBKh82kYXiFlq2HseTD77A?dwhat=florist&dwhere=zurich	Blumenhalle Markt AG	Molkenstrasse 17	 8004 Zürich	043 243 88 15	www.blumenhalle.ch	
zurich	florist	N/A	http://yellow.local.ch/en/d/Zurich/8047/Florist/Blumenboutique-Goos-_HZPe5C2MDTlSJ82cJk8XA?dwhat=florist&dwhere=zurich	Blumenboutique Goos	Triemlistrasse 129 nähe Triemlispital	 8047 Zürich	044 491 01 58	www.blumengoos.ch	
zurich	florist	N/A	http://yellow.local.ch/en/d/Zurich/8001/Florist/Blumenhalle-Spring-AG-I1N451EUnXyrXlOW0i_dKQ?dwhat=florist&dwhere=zurich	Blumenhalle Spring AG	Talacker 30	 8001 Zürich	044 211 71 46	www.blumenhalle.ch	
zurich	florist	N/A	http://yellow.local.ch/en/d/Zurich/8002/Florist/Bahnhof-Enge-p3Lp8Z0JNG_U9mnKVd5YzQ?dwhat=florist&dwhere=zurich	Bahnhof Enge	Tessinerplatz 10	 8002 Zürich	044 201 51 27	www.luethiblumen.ch	
zurich	florist	N/A	http://yellow.local.ch/en/d/Zurich/8002/Florist/Blumen-Buhlmann-AG-prpeqbYwfbGuu-qd-VacBQ?dwhat=florist&dwhere=zurich	Blumen Bühlmann AG	Stockerstrasse 42	 8002 Zürich	044 201 75 46	www.blumen-buehlmann.ch	
zurich	florist	N/A	http://yellow.local.ch/en/d/Zurich/8001/Landscaping/Abplanalp-Floristen-Blumen-Schipfe-AG-PRJ_AE6GrjDujKVE-3z3gw?dwhat=florist&dwhere=zurich	Abplanalp Floristen Blumen Schipfe AG	Schipfe 25	 8001 Zürich	044 211 62 62	www.blumenschipfe.ch	
zurich	florist	N/A	http://yellow.local.ch/en/d/Zurich/8001/Florist/Ingas-Rosenkavalier-Z2QjvFeo0ywrg8KKD4OGQw?dwhat=florist&dwhere=zurich	Inga's Rosenkavalier	Rosengasse 3	 8001 Zürich	044 520 98 17	www.ingasrosenkavalier.ch	
zurich	florist	N/A	http://yellow.local.ch/en/d/Zurich/8038/Florist/Bajazzo-XRoa6fbP1cTK04VrQWt2Gg?dwhat=florist&dwhere=zurich	Bajazzo	Seestrasse 360	 8038 Zürich	044 481 20 20		
zurich	florist	N/A	http://yellow.local.ch/en/d/Zurich/8003/Florist/Blumen-Frieden-GmbH-4DHo3E49gRg6MGSh99VGTg?dwhat=florist&dwhere=zurich	Blumen Frieden GmbH	Albisriederstrasse 6 Am Albisriederplatz	 8003 Zürich	044 492 00 92		
zurich	florist	N/A	http://yellow.local.ch/en/d/Zurich/8008/Florist/Blumen-Oertig-8vIfoyGSaeCLgVRLlYR6ig?dwhat=florist&dwhere=zurich	Blumen Oertig	Seefeldstrasse 32	 8008 Zürich	044 252 38 11		
zurich	florist	N/A	http://yellow.local.ch/en/d/Zurich/8038/Landscaping/Bonsai-Atelier-Rieterpark-6ny7342z94URV9bmJJt3tA?dwhat=florist&dwhere=zurich	Bonsai-Atelier Rieterpark	Ziegelstrasse 4	 8038 Zürich	044 202 74 10		
zurich	florist	N/A	http://yellow.local.ch/en/d/Zurich/8032/Florist/Floradesign-GmbH-jp6XR-c5LrdLoO6dSs0uYA?dwhat=florist&dwhere=zurich	Floradesign GmbH	Minervastrasse 134	 8032 Zürich	044 251 16 80		
zurich	florist	N/A	http://yellow.local.ch/en/d/Zurich/8049/Florist/Gardenia-AG-Blumengeschaft-WX2cTu60cNS4AvdyLllbpA?dwhat=florist&dwhere=zurich	Gardenia AG Blumengeschäft	Limmattalstrasse 197	 8049 Zürich	044 341 27 77		
zurich	florist	N/A	http://yellow.local.ch/en/d/Zurich/8001/Florist/MARSANO-AG-CuT_g_E2DHmo33XFs9O5Aw?dwhat=florist&dwhere=zurich	MARSANO AG	Löwenplatz im Globus, Schweizergasse 11	 8001 Zürich	058 578 13 38		
zurich	florist	N/A	http://yellow.local.ch/en/d/Zurich/8044/Florist/Blumen-Diehl-Ve2pWVYfQTuWeSxu0zdQPg?dwhat=florist&dwhere=zurich	Blumen Diehl	Hochstrasse 65	 8044 Zürich	044 251 94 62		
zurich	florist	N/A	http://yellow.local.ch/en/d/Zurich/8046/Florist/Filiale-uisdsHHgHQZi7cPmg014ug?dwhat=florist&dwhere=zurich	Filiale	Wehntalerstrasse 447	 8046 Zürich	044 371 46 55		
zurich	florist	N/A	http://yellow.local.ch/en/d/Zurich/8052/Florist/Gartnerei-edM1g-PMqM5-AJfdfDW06w?dwhat=florist&dwhere=zurich	Gärtnerei	Grubenackerstrasse 92	 8052 Zürich	044 301 31 66		
zurich	florist	N/A	http://yellow.local.ch/en/d/Zurich/8057/Florist/A-Heini-Blumen-gRb4PSwXcUHLqnfDHxDZEA?dwhat=florist&dwhere=zurich	A. Heini Blumen	Hofwiesenstrasse 250 /beim Bad Allenmoos	 8057 Zürich	044 362 28 22		
zurich	florist	N/A	http://yellow.local.ch/en/d/Zurich/8003/Florist/Alfons-Blumenmarkt-DESUAFqddW3D04gbz8MbRQ?dwhat=florist&dwhere=zurich	Alfons Blumenmarkt	Schlossgasse 14	 8003 Zürich	044 450 28 83		
zurich	florist	N/A	http://yellow.local.ch/en/d/Zurich/8044/Floral-arrangements/Am-Vorderberg-LGZQAKsCo33fiNfb6Ht0vQ?dwhat=florist&dwhere=zurich	Am Vorderberg	Vorderberg 11	 8044 Zürich	044 251 54 02		
zurich	florist	N/A	http://yellow.local.ch/en/d/Zurich/8006/Florist/arte-flor-AG-B0P_uC5xMuEsiTM5HwrUIw?dwhat=florist&dwhere=zurich	arte flor AG	Stampfenbachstrasse 129	 8006 Zürich	044 362 85 71		
zurich	florist	N/A	http://yellow.local.ch/en/d/Zurich/8008/Florist/Atelier-Blumen--Vk39tcyxEiwsNVYC8RICA?dwhat=florist&dwhere=zurich	Atelier Blumen	Forchstrasse 331	 8008 Zürich	044 383 62 92		
zurich	florist	N/A	http://yellow.local.ch/en/d/Zurich/8003/Florist/Bassetti-HFHXZIpeelG6HoJB_dJ8jQ?dwhat=florist&dwhere=zurich	Bassetti	Aemtlerstrasse 205	 8003 Zürich	044 492 21 18		
zurich	florist	N/A	http://yellow.local.ch/en/d/Zurich/8004/Florist/Blumen-am-Stauffacher-Ex6Dgc5Y49BTc6AioXX1aA?dwhat=florist&dwhere=zurich	Blumen am Stauffacher	Zweierstrasse 3	 8004 Zürich	043 322 00 77		
zurich	florist	N/A	http://yellow.local.ch/en/d/Zurich/8052/Florist/Blumen-Atelier-Sue-EmXP_mfy9beKXYHgwvN14w?dwhat=florist&dwhere=zurich	Blumen Atelier Sue	Felsenrainstrasse 149A beim Friedhof Schwandenholz	 8052 Zürich	044 310 22 77		
zurich	florist	N/A	http://yellow.local.ch/en/d/Zurich/8002/Florist/Blumen-Capitol-ml9ygRQjtLyy1WHVqzolow?dwhat=florist&dwhere=zurich	Blumen Capitol	Alfred-Escher-Strasse 27	 8002 Zürich	044 211 21 37		
zurich	florist	N/A	http://yellow.local.ch/en/d/Zurich/8006/Florist/Blumen-Galliker-HSYrKVe7Jm1MjkYrbUw-EA?dwhat=florist&dwhere=zurich	Blumen Galliker	Weinbergstrasse 68	 8006 Zürich	044 362 34 60		
zurich	florist	N/A	http://yellow.local.ch/en/d/Zurich/8001/Florist/Blumen-Kramer-AG-b4tC7rjsDxcG5CeGwsTIcw?dwhat=florist&dwhere=zurich	Blumen-Krämer AG	Talstrasse 62	 8001 Zürich	044 225 95 85		
zurich	florist	N/A	http://yellow.local.ch/en/d/Zurich/8001/Florist/Blumen-Sauber-zGf1kTq0g1kVjqG9fUMQkA?dwhat=florist&dwhere=zurich	Blumen-Sauber	Stadelhoferstrasse 8	 8001 Zürich	044 254 60 80		
zurich	florist	N/A	http://yellow.local.ch/en/d/Zurich/8004/Florist/Blumen-Sommer-8x4msU6Mm85rHgTZi8VdiQ?dwhat=florist&dwhere=zurich	Blumen Sommer	Erismannstrasse 45	 8004 Zürich	044 241 05 25		
zurich	florist	N/A	http://yellow.local.ch/en/d/Zurich/8050/Florist/Blumen-und-Cafebar-Enzian-lukKwp0EoQhkZ6IzGd5yXA?dwhat=florist&dwhere=zurich	Blumen und Cafébar Enzian	Thurgauerstrasse 36	 8050 Zürich	043 811 48 61		
zurich	florist	N/A	http://yellow.local.ch/en/d/Zurich/8003/Florist/Blumen-und-Kaffee-vFs515DoIDqp1LxkZk6hWg?dwhat=florist&dwhere=zurich	Blumen und Kaffee	Birmensdorferstrasse 174	 8003 Zürich	043 321 21 21		
zurich	florist	N/A	http://yellow.local.ch/en/d/Zurich/8057/Florist/Blumen-Zollinger-h97l-b9VmU77n22zEAuv6g?dwhat=florist&dwhere=zurich	Blumen Zollinger	Schaffhauserstrasse 59	 8057 Zürich	044 361 63 92		
zurich	florist	N/A	http://yellow.local.ch/en/d/Zurich/8037/Florist/Blumenatelier-Iris-jyyvv7XBE0r2qz_a5KQiyA?dwhat=florist&dwhere=zurich	Blumenatelier Iris	Nordbrücke, Rotbuchstrasse 68	 8037 Zürich	044 350 71 05		
zurich	florist	N/A	http://yellow.local.ch/en/d/Zurich/8001/Florist/Blumenbinder-Regula-Guhl-qqnEpaV-qFOjl_7feJW8wg?dwhat=florist&dwhere=zurich	Blumenbinder Regula Guhl	Oberdorfstrasse 10	 8001 Zürich	044 361 18 18		
zurich	florist	N/A	http://yellow.local.ch/en/d/Zurich/8057/Florist/Blumenhaus-Nordheim-cq8G8NT00cYoCtt8QUDXtg?dwhat=florist&dwhere=zurich	Blumenhaus Nordheim	Wehntalerstrasse 98	 8057 Zürich	044 361 21 86		
zurich	florist	N/A	http://yellow.local.ch/en/d/Zurich/8004/Florist/Blumenhaus-Sihlfeld-maFHtHL6FK4aocJ-Fsetuw?dwhat=florist&dwhere=zurich	Blumenhaus Sihlfeld	Badenerstrasse 230	 8004 Zürich	044 242 72 90		
zurich	florist	N/A	http://yellow.local.ch/en/d/Zurich/8008/Florist/Blumenzauber-C4n_YcTJBgvMbrkqXcnn2A?dwhat=florist&dwhere=zurich	Blumenzauber	Seefeldstrasse 77	 8008 Zürich	043 819 33 33		
zurich	florist	N/A	http://yellow.local.ch/en/d/Zurich/8008/Nursery/EPI-Gartnerei-BufGE-9Sazly-dBqggCGIw?dwhat=florist&dwhere=zurich	EPI Gärtnerei	Bleulerstrasse 60	 8008 Zürich	044 387 62 71		
zurich	florist	N/A	http://yellow.local.ch/en/d/Zurich/8008/Florist/Fiorella-Blumengeschaft-6QvG47G0hbM9IJo-WJX2ww?dwhat=florist&dwhere=zurich	Fiorella Blumengeschäft	Seefeldstrasse 166B	 8008 Zürich	044 383 84 19		
zurich	florist	N/A	http://yellow.local.ch/en/d/Zurich/8006/Florist/Galliker-Blumen-2zWTIV7eFlDCflre1VctLw?dwhat=florist&dwhere=zurich	Galliker Blumen	Weinbergstrasse 68	 8006 Zürich	044 362 34 60		
zurich	florist	N/A	http://yellow.local.ch/en/d/Zurich/8008/Florist/Grossenbacher-Martin-Blumen--FHNAPkUnDcxqG8M1Fb3KQ?dwhat=florist&dwhere=zurich	Grossenbacher Martin Blumen	Dufourstrasse 85	 8008 Zürich	044 420 11 71		
zurich	florist	N/A	http://yellow.local.ch/en/d/Zurich/8004/Florist/Haab-Albert-blpztwFWfV3wzuD1Qw2ZNQ?dwhat=florist&dwhere=zurich	Haab Albert	Badenerstrasse 230	 8004 Zürich	044 242 72 90		
zurich	florist	N/A	http://yellow.local.ch/en/d/Zurich/8032/Florist/Ikebana-Creative-bdhbgvoi8RNbghGoASasKQ?dwhat=florist&dwhere=zurich	Ikebana Creative	Forchstrasse 132	 8032 Zürich	044 422 64 83		
zurich	florist	N/A	http://yellow.local.ch/en/d/Zurich/8006/Gallery/La-Boheme-qMptBXfpkBAsW6ijngQ06Q?dwhat=florist&dwhere=zurich	La Bohème	Haldenbachstrasse 2	 8006 Zürich	044 261 32 23		
zurich	florist	N/A	http://yellow.local.ch/en/d/Zurich/8002/Florist/Luthi-Karin-h4rIm9CB3cJAhMz9nsPiTg?dwhat=florist&dwhere=zurich	Lüthi Karin	Bahnhof Enge	 8002 Zürich	044 201 51 27		
zurich	florist	N/A	http://yellow.local.ch/en/d/Zurich/8032/Florist/Papageno-Stil-Blute-AG-_wDvloX4Z0GZsOi8cXOQYg?dwhat=florist&dwhere=zurich	Papageno Stil + Blüte AG	Klosbachstrasse 106	 8032 Zürich	044 252 52 55		
zurich	florist	N/A	http://yellow.local.ch/en/d/Zurich/8032/Florist/Passiflorum-GmbH-Tmf5KB9K17EG7cqB2iv0AQ?dwhat=florist&dwhere=zurich	Passiflorum GmbH	Hottingerstrasse 33	 8032 Zürich	043 233 57 57		
zurich	florist	N/A	http://yellow.local.ch/en/d/Zurich/8045/Florist/Sihlcity-Blumen-a0FT7Gf0WG4tbyULn0Sj4A?dwhat=florist&dwhere=zurich	Sihlcity Blumen	Sihlcity, Kalanderplatz 1	 8045 Zürich	043 243 08 04		
zurich	florist	N/A	http://yellow.local.ch/en/d/Zurich/8032/Courses/Stil-und-Stiele-Xs8k_xmd_HPIF2Ra9sRsxg?dwhat=florist&dwhere=zurich	Stil und Stiele	Forchstrasse 130	 8032 Zürich	044 422 44 28		
zurich	florist	N/A	http://yellow.local.ch/en/d/Zurich/8048/Florist/Triibhuus-Malaga-Plantas-Gitano-SA-uOXNuhPp7NBtR8-fZRQ8kg?dwhat=florist&dwhere=zurich	Triibhuus Malaga Plantas Gitano SA	Salzweg 50	 8048 Zürich	044 434 10 34		
zurich	florist	N/A	http://yellow.local.ch/en/d/Zurich/8008/Florist/Wismer-Susanne-Blumen-GmbH-tRsebgqkAMp9SDiY8E65tA?dwhat=florist&dwhere=zurich	Wismer Susanne Blumen GmbH	Dufourstrasse 138	 8008 Zürich	043 499 86 86		
zurich	florist	N/A	http://yellow.local.ch/en/d/Zurich/8006/Florist/zierwerk-ijP2pxxHu98ejTquVkZNLw?dwhat=florist&dwhere=zurich	zierwerk	Rigiplatz 2	 8006 Zürich	044 251 64 13		
zurich	florist	N/A	http://yellow.local.ch/en/d/Zurich/8038/Florist/Zum-Gartenpavillon-GmbH-LABer-YN6VsaDUei6cNdSw?dwhat=florist&dwhere=zurich	Zum Gartenpavillon GmbH	Alte Kalchbühlstrasse 11	 8038 Zürich	043 300 33 44		
zurich	florist	N/A	http://yellow.local.ch/en/d/Egg-b-Zurich/8132/Florist/Blumenatelier-Brigitte-Keck-AYZkIriukiOtePlmKDtXTg?dwhat=florist&dwhere=zurich	Blumenatelier Brigitte Keck	Forchstrasse 149	 8132 Egg b. Zürich	044 984 54 44	www.blumenatelier-egg.ch	
zurich	florist	N/A	http://yellow.local.ch/en/d/Egg-b-Zurich/8132/Nursery/Gartnerei-Egli-GmbH-WzKarYoOhDAhaN7pkOYzBQ?dwhat=florist&dwhere=zurich	Gärtnerei Egli GmbH	Lätten 17	 8132 Egg b. Zürich	044 984 08 14	www.gaertnerei-egli.ch	
zurich	florist	N/A	http://yellow.local.ch/en/d/Kusnacht-ZH/8700/Florist/Sunland-Roses-MJvEGRgvbSr4UE7vyKt7Ig?dwhat=florist&dwhere=zurich	Sunland Roses	Kohlrainstrasse 10	 8700 Küsnacht ZH	044 548 32 66	www.sunlandroses.ch	
zurich	florist	N/A	http://yellow.local.ch/en/d/Bonstetten/8906/Garden-center/Folinea-Gartenschilder-enPRXp2cJqxgtOaisJN6OQ?dwhat=florist&dwhere=zurich	Folinea - Gartenschilder	Im Langacher 35	 8906 Bonstetten	044 777 98 57	www.folinea.ch	
zurich	florist	N/A	http://yellow.local.ch/en/d/Lufingen/8426/Florist/Blumenland-Schweiz-AG-K16Hw0InSo9p48kjWCM9Ww?dwhat=florist&dwhere=zurich	Blumenland Schweiz AG	Rainstrasse 50	 8426 Lufingen	043 211 50 00	www.blumenland.ch	
zurich	florist	N/A	http://yellow.local.ch/en/d/Unterengstringen/8103/Florist/Gartencenter-Hoffmann-AG-67CIzCf4JoHxfDbIRw1atA?dwhat=florist&dwhere=zurich	Gartencenter Hoffmann AG	Untere Bergstrasse 11	 8103 Unterengstringen	044 752 31 31	www.gartencenter-hoffmann.ch	
zurich	florist	N/A	http://yellow.local.ch/en/d/Hinteregg/8132/Nursery/Fawer-AG-cNF0pRtIaBavVGDHmLF5jg?dwhat=florist&dwhere=zurich	Fawer AG	Ober Halden 5	 8132 Hinteregg	044 984 02 04	www.stauden.ch	
zurich	florist	N/A	http://yellow.local.ch/en/d/Kloten/8302/Florist/MARSANO-AG-5h8-IgleM5w79elTtDXqdg?dwhat=florist&dwhere=zurich	MARSANO AG	Terminal 1, Ankunft, Flughafen	 8302 Kloten	044 813 72 67	www.marsano-flughafen.ch	
zurich	florist	N/A	http://yellow.local.ch/en/d/Rumlang/8153/Florist/Blume-3000-AG-nCGttbbIFoE1WdQFgqsRnQ?dwhat=florist&dwhere=zurich	Blume 3000 AG	Meienbreitenstrasse 3	 8153 Rümlang	044 818 78 00		
zurich	florist	N/A	http://yellow.local.ch/en/d/Zug/6300/Greeting-cards/Telegramme-und-Blumen-v3pN005G_s9ZKjFXrAlvPg?dwhat=florist&dwhere=zurich	Telegramme und Blumen	Poststrasse 6	 6300 Zug	0800 83 02 37		
zurich	florist	N/A	http://yellow.local.ch/en/d/Hinteregg/8132/Florist/Zurcher-Blumen-und-Cafe-U3KAnUSUafku3Q-1tsVrJw?dwhat=florist&dwhere=zurich	Zürcher Blumen und Café	Güetlistrasse 1	 8132 Hinteregg	044 984 42 61		
zurich	florist	N/A	http://yellow.local.ch/en/d/Wangen-b-Dubendorf/8602/Florist-supplies/Faller-AG-1EMQ0OrSO1yES1OIGBvkOw?dwhat=florist&dwhere=zurich	Faller AG	Förliwiesenstrasse 4	 8602 Wangen b. Dübendorf	044 750 90 00		
zurich	florist	N/A	http://yellow.local.ch/en/d/Wangen-b-Dubendorf/8602/Switzerland/Floristenverband-Schweiz-EhFcIMz_63lQUau2XVfuJA?dwhat=florist&dwhere=zurich	Floristenverband Schweiz.	Förliwiesenstrasse 4	 8602 Wangen b. Dübendorf	044 751 81 81		
