cityName	searchPhrase	resultNum	ypchsite	name	address1	address2	phone	website
zurich	pharmacy	N/A	http://yellow.local.ch/en/d/Zurich/8008/Druggist/TopPharm-Apotheke-und-Drogerie-Hoschgasse-AG-XV1Zx5GoJeVDrghTN8V0Kw?dwhat=pharmacy&dwhere=zurich	TopPharm Apotheke und Drogerie Höschgasse AG	Höschgasse 50	 8008 Zürich	044 387 10 87	www.hoeschgasse.apotheke.ch	
zurich	pharmacy	N/A	http://yellow.local.ch/en/d/Zurich/8005/Cafes/ApoDoc-Hardbrucke-vD4kVU--xN4tKfsJhNpNWg?dwhat=pharmacy&dwhere=zurich	ApoDoc Hardbrücke	Hardstrasse 235	 8005 Zürich	044 922 44 66	www.apodoc.ch	
zurich	pharmacy	N/A	http://yellow.local.ch/en/d/Zurich/8001/Emergency-services/Bellevue-Apotheke-Zurich-MYr5mMNhSn7S-88zGVUMHQ?dwhat=pharmacy&dwhere=zurich	Bellevue Apotheke Zürich	Theaterstrasse 14	 8001 Zürich	044 266 62 22	www.bellevue-apotheke.com	
zurich	pharmacy	N/A	http://yellow.local.ch/en/d/Zurich/8001/Pharmacy/Leonhards-Apotheke-T3ER6EeTaE2g5V4Bxt8GaA?dwhat=pharmacy&dwhere=zurich	Leonhards-Apotheke	Stampfenbachstrasse 7	 8001 Zürich	044 252 44 20	www.leonhards.apotheke.ch	
zurich	pharmacy	N/A	http://yellow.local.ch/en/d/Zurich/8001/Pharmacy/City-Apotheke-z-Sihlporte-m-a9lL2g4kDUCLcjPnPdZw?dwhat=pharmacy&dwhere=zurich	City-Apotheke z. Sihlporte	Löwenstrasse 1	 8001 Zürich	044 221 13 74	www.cityapo.ch	
zurich	pharmacy	N/A	http://yellow.local.ch/en/d/Zurich/8049/Druggist/Apotheke-Drogerie-Honggermarkt-AG-GEawGgrQwUhqZBsa734TOA?dwhat=pharmacy&dwhere=zurich	Apotheke Drogerie Hönggermarkt AG	Limmattalstrasse 186	 8049 Zürich	044 341 46 16	www.apotheke-hoenggermarkt.ch	
zurich	pharmacy	N/A	http://yellow.local.ch/en/d/Zurich/8005/Pharmacy/Limmatplatz-Apotheke-AG-hfKoN56tJW7gDJIEhLl78g?dwhat=pharmacy&dwhere=zurich	Limmatplatz Apotheke AG	Limmatstrasse 119	 8005 Zürich	043 366 60 20	www.limmatplatz-apotheke.ch	
zurich	pharmacy	N/A	http://yellow.local.ch/en/d/Zurich/8001/Pharmacy/Victoria-Apotheke-sXvNcr14WAKi6PT_atlcPA?dwhat=pharmacy&dwhere=zurich	Victoria Apotheke	Bahnhofstrasse 71	 8001 Zürich	043 344 60 60	www.pharmaworld.com	
zurich	pharmacy	N/A	http://yellow.local.ch/en/d/Zurich/8045/Pharmacy/Manesse-Apotheke-qvWjJa71tDPW87oZOfUTXQ?dwhat=pharmacy&dwhere=zurich	Manesse-Apotheke	Malzstrasse 1	 8045 Zürich	044 462 24 33		
zurich	pharmacy	N/A	http://yellow.local.ch/en/d/Zurich/8001/Pharmacy/TopPharm-Apotheke-Paradeplatz-AG-U6OcXB2cUmb-Uzc8ITx4Tw?dwhat=pharmacy&dwhere=zurich	TopPharm Apotheke Paradeplatz AG	Poststrasse 6	 8001 Zürich	044 213 12 30	www.paradeplatz.apotheke.ch	
zurich	pharmacy	N/A	http://yellow.local.ch/en/d/Zurich/8050/Pharmacy/Sternen-Apotheke-G34-TWQ0wpAW2UcOJZmXAg?dwhat=pharmacy&dwhere=zurich	Sternen-Apotheke	Schaffhauserstrasse 350	 8050 Zürich	044 311 53 33	www.sternenapo.ch	
zurich	pharmacy	N/A	http://yellow.local.ch/en/d/Zurich/8004/Pharmacy/Olympia-Apotheke-zNocnyebeCPqhuhrUZ2qyw?dwhat=pharmacy&dwhere=zurich	Olympia-Apotheke	Badenerstrasse 6	 8004 Zürich	044 241 36 88	www.olympia-apotheke.ch	
zurich	pharmacy	N/A	http://yellow.local.ch/en/d/Zurich/8044/Pharmacy/Kirche-Fluntern-FQqvEJIgkX7rIX_MTsiu0A?dwhat=pharmacy&dwhere=zurich	Kirche Fluntern	Vorderberg 5	 8044 Zürich	044 256 88 44	www.apothekefluntern-zuerich.ch	
zurich	pharmacy	N/A	http://yellow.local.ch/en/d/Zurich/8001/Pharmacy/APOTHEKE-IM-HAUPTBAHNHOF-Z-FLREIanskksa-aMN_NrA?dwhat=pharmacy&dwhere=zurich	APOTHEKE IM HAUPTBAHNHOF	Bahnhofplatz 15	 8001 Zürich	044 225 42 42	www.bahnhof-apotheke.ch	
zurich	pharmacy	N/A	http://yellow.local.ch/en/d/Zurich/8001/Pharmacy/Dr-Andres-Apotheke-Stadelhofen-AG-3BRc8Prus8hRCLjZxaDfpw?dwhat=pharmacy&dwhere=zurich	Dr. Andres Apotheke Stadelhofen AG	Goethestrasse 22	 8001 Zürich	044 268 30 00	www.apothekestadelhofen.ch	
zurich	pharmacy	N/A	http://yellow.local.ch/en/d/Zurich/8001/Pharmacy/St-Peter-Apotheke-_RJ7F36X9zZwtTlfYklHKQ?dwhat=pharmacy&dwhere=zurich	St. Peter-Apotheke	St. Peterstrasse 16	 8001 Zürich	044 211 44 77	www.delonghi.com/fr-ch	
zurich	pharmacy	N/A	http://yellow.local.ch/en/d/Zurich/8049/Pharmacy/Apotheke-im-Bruhl-xhe2PNUuXPinoelgbq6EXQ?dwhat=pharmacy&dwhere=zurich	Apotheke im Brühl	Regensdorferstrasse 18	 8049 Zürich	044 342 42 12	www.zuerigsund.ch	
zurich	pharmacy	N/A	http://yellow.local.ch/en/d/Zurich/8008/Pharmacy/Balgrist-Apotheke-AG-Il0wN6VIw673ERVPrhwTpQ?dwhat=pharmacy&dwhere=zurich	Balgrist Apotheke AG	Forchstrasse 331	 8008 Zürich	044 381 00 50	www.balgrist-apotheke.ch	
zurich	pharmacy	N/A	http://yellow.local.ch/en/d/Zurich/8002/Pharmacy/zur-Bleiche-SYGcAiFV8kdMkoWBFPIADg?dwhat=pharmacy&dwhere=zurich	zur Bleiche	Bleicherweg 46	 8002 Zürich	044 201 17 25	www.apothekebleiche.ch	
zurich	pharmacy	N/A	http://yellow.local.ch/en/d/Zurich/8046/Pharmacy/Apotheke-Affoltern-AG-Ifggm1C0b1xNc3i1BxccJg?dwhat=pharmacy&dwhere=zurich	Apotheke Affoltern AG	Wehntalerstrasse 296	 8046 Zürich	044 371 25 33	www.apothekeaffoltern.ch	
zurich	pharmacy	N/A	http://yellow.local.ch/en/d/Zurich/8004/Pharmacy/Werd-Apotheke-8ShXcNKs3VpRPz1oWbBYpg?dwhat=pharmacy&dwhere=zurich	Werd-Apotheke	Birmensdorferstrasse 51	 8004 Zürich	043 322 20 40	www.werd-apotheke.ch	
zurich	pharmacy	N/A	http://yellow.local.ch/en/d/Zurich/8057/Pharmacy/Hirsch-Apotheke-AG-N5BxsLrJoI02GQJWG6gYVQ?dwhat=pharmacy&dwhere=zurich	Hirsch-Apotheke AG	Schaffhauserstrasse 124	 8057 Zürich	044 361 07 40	www.hirschapotheke.ch	
zurich	pharmacy	N/A	http://yellow.local.ch/en/d/Zurich/8038/Pharmacy/TopPharm-Morgental-Apotheke-Drogerie-Parfumerie-uBaZgCrA5r4NLgZ-83Uyyg?dwhat=pharmacy&dwhere=zurich	TopPharm Morgental Apotheke Drogerie & Parfumerie	Albisstrasse 44/48	 8038 Zürich	043 399 88 66	www.morgental.apotheke.ch	
zurich	pharmacy	N/A	http://yellow.local.ch/en/d/Zurich/8003/Pharmacy/Baren-Apotheke-H_NJZM8IlI_Odn6FleUf4A?dwhat=pharmacy&dwhere=zurich	Bären-Apotheke	Kalkbreitestrasse 131	 8003 Zürich	044 462 41 44	www.baerenapotheke.ch	
zurich	pharmacy	N/A	http://yellow.local.ch/en/d/Zurich/8045/Pharmacy/Laubegg-Apotheke-Ursula-Huber-FuVcR_FMEUb-78KpqJfxnw?dwhat=pharmacy&dwhere=zurich	Laubegg-Apotheke, Ursula Huber	Uetlibergstrasse 107	 8045 Zürich	044 462 31 77	www.laubeggapotheke.ch	
zurich	pharmacy	N/A	http://yellow.local.ch/en/d/Zurich/8050/Pharmacy/Apotheke-und-Drogerie-Oerlikon-OVpgftTXZfg1cMhM1kXfoQ?dwhat=pharmacy&dwhere=zurich	Apotheke und Drogerie Oerlikon	Nansenstrasse 8	 8050 Zürich	044 312 58 68	www.apotheke-oerlikon.ch	
zurich	pharmacy	N/A	http://yellow.local.ch/en/d/Zurich/8051/Pharmacy/zum-Morser-96dm75i5x4lCLhlB5ZZ_jA?dwhat=pharmacy&dwhere=zurich	zum Mörser	Hirzenbachstrasse 40	 8051 Zürich	044 322 00 62	www.apothekezummoerser.ch	
zurich	pharmacy	N/A	http://yellow.local.ch/en/d/Zurich/8047/Pharmacy/Albis-Apotheke-Albisrieden-MM5_hG7me78FsfruRCrFmA?dwhat=pharmacy&dwhere=zurich	Albis-Apotheke Albisrieden	Albisriederstrasse 330	 8047 Zürich	044 492 13 10	www.albisapotheke.ch	
zurich	pharmacy	N/A	http://yellow.local.ch/en/d/Zurich/8057/Pharmacy/Wehntal-Apotheke-YpqL51v0ss2IqamETN37kA?dwhat=pharmacy&dwhere=zurich	Wehntal-Apotheke	Hofwiesenstrasse 200	 8057 Zürich	044 361 00 40	www.wehntal-apotheke.ch	
zurich	pharmacy	N/A	http://yellow.local.ch/en/d/Zurich/8006/Pharmacy/BIOTHEKE-Winkelried-Apotheke-AG-DE2yVuWjquO7rilb73q1Qw?dwhat=pharmacy&dwhere=zurich	BIOTHEKE - Winkelried Apotheke AG	Universitätstrasse 100	 8006 Zürich	044 362 11 40	www.biotheke.ch	
zurich	pharmacy	N/A	http://yellow.local.ch/en/d/Zurich/8001/International/INTERNATIONALE-APOTHEKE-Victoria-rmOWcvItOiSqKKAxfxVxVQ?dwhat=pharmacy&dwhere=zurich	INTERNATIONALE APOTHEKE Victoria	Bahnhofstrasse 71	 8001 Zürich	043 344 60 60	www.pharmaworld.com	
zurich	pharmacy	N/A	http://yellow.local.ch/en/d/Zurich/8053/Pharmacy/TopPharm-Apotheke-Witikon-sEb3pe7VteSvu2yeWvZC8A?dwhat=pharmacy&dwhere=zurich	TopPharm Apotheke Witikon	Carl-Spitteler-Strasse 2	 8053 Zürich	044 380 00 26	www.witikon.apotheke.ch	
zurich	pharmacy	N/A	http://yellow.local.ch/en/d/Zurich/8037/Druggist/Wipkingerplatz-_-F_1TJrMbUKMZcDW6lewg?dwhat=pharmacy&dwhere=zurich	Wipkingerplatz	Hönggerstrasse 40	 8037 Zürich	044 273 04 00		
zurich	pharmacy	N/A	http://yellow.local.ch/en/d/Zurich/8032/Pharmacy/Minerva-Apotheke-Iok9pxBbFEs1npa25MJPDA?dwhat=pharmacy&dwhere=zurich	Minerva Apotheke	Forchstrasse 106	 8032 Zürich	044 382 32 52	www.minerva-apotheke.ch	
zurich	pharmacy	N/A	http://yellow.local.ch/en/d/Zurich/8001/Pharmacy/Coop-Vitality-AG-p-8XkObvQhwrJXvjKBeqdQ?dwhat=pharmacy&dwhere=zurich	Coop Vitality AG	Bahnhofstrasse 81	 8001 Zürich	058 878 80 30		
zurich	pharmacy	N/A	http://yellow.local.ch/en/d/Zurich/8003/Pharmacy/Coop-Vitality-AG-n-WHjcQkdzQcAXgvPFixxA?dwhat=pharmacy&dwhere=zurich	Coop Vitality AG	Birmensdorferstrasse 200	 8003 Zürich	058 878 83 80		
zurich	pharmacy	N/A	http://yellow.local.ch/en/d/Zurich/8045/Pharmacy/Coop-Vitality-AG-PHhDwxnQbE4fq48ybMvOJA?dwhat=pharmacy&dwhere=zurich	Coop Vitality AG	SihlCity, Kalanderplatz 1	 8045 Zürich	058 878 82 20		
zurich	pharmacy	N/A	http://yellow.local.ch/en/d/Zurich/8048/Pharmacy/Coop-Vitality-AG-nArrAEHZPFPJAr30TgjTuQ?dwhat=pharmacy&dwhere=zurich	Coop Vitality AG	Baslerstrasse 50	 8048 Zürich	058 878 83 60		
zurich	pharmacy	N/A	http://yellow.local.ch/en/d/Zurich/8050/Pharmacy/Coop-Vitality-AG-2uAXMww_G0AIHfk2Zt9QEA?dwhat=pharmacy&dwhere=zurich	Coop Vitality AG	Sophie-Taeuber-Strasse 4	 8050 Zürich	058 878 85 40		
zurich	pharmacy	N/A	http://yellow.local.ch/en/d/Zurich/8057/Pharmacy/Hirschwiesen-Apotheke-AG-pbwa4O7BaRoM86Us3t05TA?dwhat=pharmacy&dwhere=zurich	Hirschwiesen-Apotheke AG	Schaffhauserstrasse 192	 8057 Zürich	044 362 30 10		
zurich	pharmacy	N/A	http://yellow.local.ch/en/d/Zurich/8055/Pharmacy/West-Apotheke-y4Io1Q-Sz0LtLkC0X14adg?dwhat=pharmacy&dwhere=zurich	West-Apotheke	Schweighofstrasse 245	 8055 Zürich	044 463 70 80		
zurich	pharmacy	N/A	http://yellow.local.ch/en/d/Zurich/8048/Pharmacy/Altstetten-1-jtMt4tbRJMvyTvB4Vynt9A?dwhat=pharmacy&dwhere=zurich	Altstetten 1	Badenerstrasse 681	 8048 Zürich	044 431 20 80		
zurich	pharmacy	N/A	http://yellow.local.ch/en/d/Zurich/8048/Pharmacy/Altstetten-2-t7NfCkOwkVvghJzND-H53w?dwhat=pharmacy&dwhere=zurich	Altstetten 2	Saumackerstrasse 37	 8048 Zürich	044 431 68 31		
zurich	pharmacy	N/A	http://yellow.local.ch/en/d/Zurich/8032/Pharmacy/am-Hegibachplatz-CI9xjpfHRHyHD5y1r44NKQ?dwhat=pharmacy&dwhere=zurich	am Hegibachplatz	Forchstrasse 106	 8032 Zürich	044 382 32 52		
zurich	pharmacy	N/A	http://yellow.local.ch/en/d/Zurich/8038/Pharmacy/Amavita-Apotheke-Albisstrasse-COLG48zhEI8AdeR0wJ9r6w?dwhat=pharmacy&dwhere=zurich	Amavita Apotheke Albisstrasse	Albisstrasse 106	 8038 Zürich	058 878 24 70		
zurich	pharmacy	N/A	http://yellow.local.ch/en/d/Zurich/8001/Pharmacy/Amavita-Apotheke-Bahnhofplatz-Zurich-IQPSRxY_B_dvb_Xa8Ft8Hg?dwhat=pharmacy&dwhere=zurich	Amavita Apotheke Bahnhofplatz Zürich	Bahnhofstrasse 108	 8001 Zürich	058 878 24 80		
zurich	pharmacy	N/A	http://yellow.local.ch/en/d/Zurich/8001/Perfumery/Amavita-Apotheke-Drogerie-Stadelhofen-QVzX9L7z8xWVSLFY6Vr0dQ?dwhat=pharmacy&dwhere=zurich	Amavita Apotheke & Drogerie Stadelhofen	Bahnhof Stadelhofen, Stadelhoferstrasse 8	 8001 Zürich	058 851 33 03		
zurich	pharmacy	N/A	http://yellow.local.ch/en/d/Zurich/8002/Pharmacy/Amavita-Apotheke-Enge-3E2Q6B5UOP6l9uPTZ8v8mw?dwhat=pharmacy&dwhere=zurich	Amavita Apotheke Enge	Tessinerplatz 1	 8002 Zürich	058 878 25 00		
zurich	pharmacy	N/A	http://yellow.local.ch/en/d/Zurich/8050/Pharmacy/Amavita-Apotheke-Neumarkt-Oerlikon-k5Cpatb5R-gFiaeCIG-osA?dwhat=pharmacy&dwhere=zurich	Amavita Apotheke Neumarkt Oerlikon	Hofwiesenstrasse 350	 8050 Zürich	058 851 32 36		
zurich	pharmacy	N/A	http://yellow.local.ch/en/d/Zurich/8051/Pharmacy/Amavita-Apotheke-Schwamendingen-q5MIH8eIAJlgKLTLcXrurQ?dwhat=pharmacy&dwhere=zurich	Amavita Apotheke Schwamendingen	Winterthurerstrasse 529	 8051 Zürich	058 851 32 50		
zurich	pharmacy	N/A	http://yellow.local.ch/en/d/Zurich/8001/Perfumery/Amavita-Apotheke-Shopville-KrZlUh4REUdghoBlnuyEhw?dwhat=pharmacy&dwhere=zurich	Amavita Apotheke Shopville	Bahnhofpassage 15	 8001 Zürich	058 851 33 24		
zurich	pharmacy	N/A	http://yellow.local.ch/en/d/Zurich/8048/Pharmacy/Amavita-Apotheke-Zurich-Altstetten-A6sNkmx46-BrfsG8fUpFBg?dwhat=pharmacy&dwhere=zurich	Amavita Apotheke Zürich Altstetten	Altstetterplatz 12	 8048 Zürich	058 851 32 71		
zurich	pharmacy	N/A	http://yellow.local.ch/en/d/Zurich/8005/Pharmacy/Amavita-Josef-Apotheke-I8vIU1Ekms7MtfZrzmWJCQ?dwhat=pharmacy&dwhere=zurich	Amavita Josef Apotheke	Josefstrasse 93	 8005 Zürich	058 851 32 68		
zurich	pharmacy	N/A	http://yellow.local.ch/en/d/Zurich/8050/Pharmacy/Apotheke-11-uYi4D5tvsB-WXVUWQAeUAA?dwhat=pharmacy&dwhere=zurich	Apotheke 11	Querstrasse 15/17	 8050 Zürich	044 310 20 10		
zurich	pharmacy	N/A	http://yellow.local.ch/en/d/Zurich/8051/Pharmacy/Apotheke-12-j26ztzseruIeapE9E5s45A?dwhat=pharmacy&dwhere=zurich	Apotheke 12	Winterthurerstrasse 524	 8051 Zürich	044 321 55 66		
zurich	pharmacy	N/A	http://yellow.local.ch/en/d/Zurich/8032/Pharmacy/Apotheke-am-Kreuzplatz-Itv3-sW_74nC6oftAiIzmQ?dwhat=pharmacy&dwhere=zurich	Apotheke am Kreuzplatz	Kreuzplatz 1	 8032 Zürich	044 251 61 61		
zurich	pharmacy	N/A	http://yellow.local.ch/en/d/Zurich/8002/Pharmacy/Apotheke-Drogerie-Bahnhof-Enge-SV5PUPmIoqDYaQe94CaqxQ?dwhat=pharmacy&dwhere=zurich	Apotheke-Drogerie Bahnhof Enge	Tessinerplatz 12	 8002 Zürich	044 201 21 41		
zurich	pharmacy	N/A	http://yellow.local.ch/en/d/Zurich/8001/Pharmacy/Apotheke-Lintheschergasse-pC4W0_VBhg7r7C_yqPYlWw?dwhat=pharmacy&dwhere=zurich	Apotheke Lintheschergasse	Lintheschergasse 3	 8001 Zürich	044 211 58 00		
zurich	pharmacy	N/A	http://yellow.local.ch/en/d/Zurich/8057/Pharmacy/Apotheke-Schaffhauserplatz-ptMfPyEtzCnnXFV-eGQHfw?dwhat=pharmacy&dwhere=zurich	Apotheke Schaffhauserplatz	Seminarstrasse 1	 8057 Zürich	044 361 61 61		
zurich	pharmacy	N/A	http://yellow.local.ch/en/d/Zurich/8048/Pharmacy/Apotheke-Schafroth-bd431mXKNgEBztZtKnKyLg?dwhat=pharmacy&dwhere=zurich	Apotheke Schafroth	Badenerstrasse 672	 8048 Zürich	044 431 23 00		
zurich	pharmacy	N/A	http://yellow.local.ch/en/d/Zurich/8006/Pharmacy/Apotheke-Unterstrass-AG-frPr8caXQwwvo3KsUNEcgQ?dwhat=pharmacy&dwhere=zurich	Apotheke Unterstrass AG	Stampfenbachstrasse 104	 8006 Zürich	044 362 20 73		
zurich	pharmacy	N/A	http://yellow.local.ch/en/d/Zurich/8049/Pharmacy/Apotheke-zum-Meierhof-e8uNfDS8rK7RfOI7ZJawpA?dwhat=pharmacy&dwhere=zurich	Apotheke zum Meierhof	Limmattalstrasse 177	 8049 Zürich	044 341 22 60		
zurich	pharmacy	N/A	http://yellow.local.ch/en/d/Zurich/8044/Pharmacy/Apotheke-Zurichberg-bei-der-alten-Kirche-Fluntern-6A5ppU0KkvwHvvS3wK3s1Q?dwhat=pharmacy&dwhere=zurich	Apotheke Zürichberg bei der alten Kirche Fluntern	Zürichbergstrasse 81	 8044 Zürich	044 261 14 33		
zurich	pharmacy	N/A	http://yellow.local.ch/en/d/Zurich/8050/Pharmacy/BENU-Apotheke-am-Max-Bill-Platz-R-mO-EgR7kvcV0bI9ql0bQ?dwhat=pharmacy&dwhere=zurich	BENU Apotheke am Max-Bill-Platz	Max-Bill-Platz 9	 8050 Zürich	044 310 20 81		
zurich	pharmacy	N/A	http://yellow.local.ch/en/d/Zurich/8032/Pharmacy/BENU-Apotheke-Carmen-aAPWB3UsTHptHHBKMbB2Uw?dwhat=pharmacy&dwhere=zurich	BENU Apotheke Carmen	Asylstrasse 58	 8032 Zürich	044 261 97 45		
zurich	pharmacy	N/A	http://yellow.local.ch/en/d/Zurich/8050/Pharmacy/BENU-Apotheke-Eulen-o6hCBvUE6dK2RVEj0s33xQ?dwhat=pharmacy&dwhere=zurich	BENU Apotheke Eulen	Wallisellenstrasse 333	 8050 Zürich	044 322 34 15		
zurich	pharmacy	N/A	http://yellow.local.ch/en/d/Zurich/8053/Pharmacy/BENU-Apotheke-Gesundheits-Forum-Witikon-jWcgKGEv4NyHZ8T5ady8mQ?dwhat=pharmacy&dwhere=zurich	BENU Apotheke Gesundheits-Forum Witikon	Witikonerstrasse 299	 8053 Zürich	044 388 20 20		
zurich	pharmacy	N/A	http://yellow.local.ch/en/d/Zurich/8008/Pharmacy/BENU-Apotheke-Kreuz-lBdRYP-tP24QxQnpHG8lMw?dwhat=pharmacy&dwhere=zurich	BENU Apotheke Kreuz	Seefeldstrasse 18	 8008 Zürich	044 261 13 50		
zurich	pharmacy	N/A	http://yellow.local.ch/en/d/Zurich/8004/Tea/Berg-Apotheke-Zurich-PimRUlf4dfGSychnspTH0Q?dwhat=pharmacy&dwhere=zurich	Berg-Apotheke Zürich	Stauffacherstrasse 26	 8004 Zürich	044 241 10 50		
zurich	pharmacy	N/A	http://yellow.local.ch/en/d/Zurich/8057/Sanitation-supplies-health/Bernina-Apotheke-tvqK8mskrM67ogGbldCFCg?dwhat=pharmacy&dwhere=zurich	Bernina-Apotheke	Schaffhauserstrasse 241	 8057 Zürich	044 311 99 20		
zurich	pharmacy	N/A	http://yellow.local.ch/en/d/Zurich/8045/Pharmacy/Brunaupark-AG-y5cv3xmVj39DtB5uEl3Sjw?dwhat=pharmacy&dwhere=zurich	Brunaupark AG	Giesshübelstrasse 65	 8045 Zürich	044 462 07 00		
zurich	pharmacy	N/A	http://yellow.local.ch/en/d/Zurich/8045/Pharmacy/DR-BAHLER-DROPA-AG-1NymzjUAVMzWkR_ugPvpyQ?dwhat=pharmacy&dwhere=zurich	DR. BÄHLER DROPA AG	Binzstrasse 38	 8045 Zürich	044 284 80 80		
zurich	pharmacy	N/A	http://yellow.local.ch/en/d/Zurich/8055/Pharmacy/Drogama-iri8TqjE0IBifd_RGDaXOA?dwhat=pharmacy&dwhere=zurich	Drogama	Birmensdorferstrasse 320	 8055 Zürich	044 455 33 33		
zurich	pharmacy	N/A	http://yellow.local.ch/en/d/Zurich/8005/Pharmacy/DROPA-Drogerie-Apotheke-OTWKCckor5JxAxHwnghNfA?dwhat=pharmacy&dwhere=zurich	DROPA Drogerie Apotheke	Limmatplatz 7	 8005 Zürich	044 273 27 27		
zurich	pharmacy	N/A	http://yellow.local.ch/en/d/Zurich/8046/Druggist/DROPA-Drogerie-Apotheke-mDcNCtQAXnVXwLyqtIIBuA?dwhat=pharmacy&dwhere=zurich	DROPA Drogerie Apotheke	In Böden 174	 8046 Zürich	044 371 92 33		
zurich	pharmacy	N/A	http://yellow.local.ch/en/d/Zurich/8004/Pharmacy/Fontana-Apotheke-am-Bullingerplatz-A3Te_f5Wme2sAuIxXMz9zQ?dwhat=pharmacy&dwhere=zurich	Fontana-Apotheke am Bullingerplatz	Sihlfeldstrasse 150	 8004 Zürich	044 242 68 01		
zurich	pharmacy	N/A	http://yellow.local.ch/en/d/Zurich/8052/Pharmacy/Gesundhaus-Falken-Apotheke-AG-a7rHoV_b0NFReiBREjqOzw?dwhat=pharmacy&dwhere=zurich	Gesundhaus Falken Apotheke AG	Schaffhauserstrasse 470	 8052 Zürich	044 308 80 10		
zurich	pharmacy	N/A	http://yellow.local.ch/en/d/Zurich/8004/Pharmacy/HelvetiaplatzApotheke-lgzhjeybwE5ZsgMMRDEnzg?dwhat=pharmacy&dwhere=zurich	HelvetiaplatzApotheke	Langstrasse 39	 8004 Zürich	044 241 31 09		
zurich	pharmacy	N/A	http://yellow.local.ch/en/d/Zurich/8032/Pharmacy/Hirslanden-Apotheke-zdTYq2E4v4gFbRxVHHdMBA?dwhat=pharmacy&dwhere=zurich	Hirslanden-Apotheke	Forchstrasse 193	 8032 Zürich	044 381 24 00		
zurich	pharmacy	N/A	http://yellow.local.ch/en/d/Zurich/8032/Pharmacy/Hottinger-Apotheke-Post-GmbH-tb5zBMTcVQVZsbSyI7SYjg?dwhat=pharmacy&dwhere=zurich	Hottinger-Apotheke & Post GmbH	Freiestrasse 55	 8032 Zürich	044 251 29 42		
zurich	pharmacy	N/A	http://yellow.local.ch/en/d/Zurich/8005/Pharmacy/IndustrieApotheke-J9_P1RQ5T2GutDPsXSx-lw?dwhat=pharmacy&dwhere=zurich	IndustrieApotheke	Limmatstrasse 180	 8005 Zürich	044 272 29 00		
zurich	pharmacy	N/A	http://yellow.local.ch/en/d/Zurich/8001/Pharmacy/Internationale-TopPharm-Apotheke-Paradeplatz-AG-bHqxHKUuJ841Rmam_RUXsQ?dwhat=pharmacy&dwhere=zurich	Internationale TopPharm Apotheke Paradeplatz AG	Poststrasse 6	 8001 Zürich	044 213 12 30		
zurich	pharmacy	N/A	http://yellow.local.ch/en/d/Zurich/8052/Pharmacy/Landhus-Apotheke-FD6vWQkT-6qW5eJwzaDTbA?dwhat=pharmacy&dwhere=zurich	Landhus Apotheke	Schaffhauserstrasse 502	 8052 Zürich	044 301 04 24		
zurich	pharmacy	N/A	http://yellow.local.ch/en/d/Zurich/8041/Pharmacy/Leimbach-Apotheke-NRTdKiGdwxKQkSOSj2uEYQ?dwhat=pharmacy&dwhere=zurich	Leimbach Apotheke	Leimbachstrasse 200	 8041 Zürich	044 482 60 06		
zurich	pharmacy	N/A	http://yellow.local.ch/en/d/Zurich/8006/Pharmacy/Letzi-Apotheke-30IELeYp21Xa48e67Ku59g?dwhat=pharmacy&dwhere=zurich	Letzi Apotheke	Winterthurerstrasse 84	 8006 Zürich	044 361 03 97		
zurich	pharmacy	N/A	http://yellow.local.ch/en/d/Zurich/8049/Pharmacy/Limmat-Apotheke-mSCSvptQsqa6PMm9vb6mWA?dwhat=pharmacy&dwhere=zurich	Limmat-Apotheke	Limmattalstrasse 242	 8049 Zürich	044 341 76 46		
zurich	pharmacy	N/A	http://yellow.local.ch/en/d/Zurich/8001/Pharmacy/Lowen-Apotheke-Zurich-_zTWyIB2G5o4G1kZJuIkOA?dwhat=pharmacy&dwhere=zurich	Löwen-Apotheke Zürich	Bahnhofstrasse 58	 8001 Zürich	043 344 83 83		
zurich	pharmacy	N/A	http://yellow.local.ch/en/d/Zurich/8003/Druggist/Nature-First-AG-Apotheke-Drogerie-4R4vL1fCR9g47_gaiMdIjw?dwhat=pharmacy&dwhere=zurich	Nature First AG Apotheke + Drogerie	Albisriederplatz 3	 8003 Zürich	044 496 60 30		
zurich	pharmacy	N/A	http://yellow.local.ch/en/d/Zurich/8048/Druggist/NEUMARKT-APOTHEKE-DROGERIE-Pireva-AG-UnjGtEfTHNYxtB36PIadYA?dwhat=pharmacy&dwhere=zurich	NEUMARKT APOTHEKE DROGERIE, Pireva AG	Altstetterstrasse 145	 8048 Zürich	044 431 18 18		
zurich	pharmacy	N/A	http://yellow.local.ch/en/d/Zurich/8052/Pharmacy/NiklausApotheke-54SFCaBQg9MXuUYxDVMXng?dwhat=pharmacy&dwhere=zurich	NiklausApotheke	Schaffhauserstrasse 479	 8052 Zürich	044 302 07 11		
zurich	pharmacy	N/A	http://yellow.local.ch/en/d/Zurich/8046/Pharmacy/NordApotheke-NBTtJyPc7nrbwvDKOGMn1g?dwhat=pharmacy&dwhere=zurich	NordApotheke	Wehntalerstrasse 537	 8046 Zürich	044 371 06 05		
zurich	pharmacy	N/A	http://yellow.local.ch/en/d/Zurich/8001/Pharmacy/Odeon-Apotheke-EGH9_PFr2_7VKMYRvtpQUg?dwhat=pharmacy&dwhere=zurich	Odeon Apotheke	Limmatquai 2 /am Bellevueplatz	 8001 Zürich	044 252 59 59		
zurich	pharmacy	N/A	http://yellow.local.ch/en/d/Zurich/8004/Druggist/Paracelsus-Apotheke-Drogerie-T6I1Hv3pswi5doSJm00NSQ?dwhat=pharmacy&dwhere=zurich	Paracelsus Apotheke & Drogerie	Langstrasse 122	 8004 Zürich	044 240 24 05		
zurich	pharmacy	N/A	http://yellow.local.ch/en/d/Zurich/8001/Pharmacy/Pelikan-Apotheke-uM67zMEacjUpG98hjskmHQ?dwhat=pharmacy&dwhere=zurich	Pelikan Apotheke	Pelikanstrasse 19	 8001 Zürich	044 211 38 55		
zurich	pharmacy	N/A	http://yellow.local.ch/en/d/Zurich/8001/Pharmacy/Pfauen-Apotheke-M1MlW34vc2RnumC7-ceVNg?dwhat=pharmacy&dwhere=zurich	Pfauen-Apotheke	Rämistrasse 38	 8001 Zürich	044 261 77 61		
zurich	pharmacy	N/A	http://yellow.local.ch/en/d/Zurich/8004/Pharmacy/Pilgerbrunnen-Rotpunkt-Apotheke-OHxDJkIGg2CKLY1kOy55Hw?dwhat=pharmacy&dwhere=zurich	Pilgerbrunnen Rotpunkt Apotheke	Albisriederplatz 10	 8004 Zürich	044 406 80 40		
zurich	pharmacy	N/A	http://yellow.local.ch/en/d/Zurich/8008/Pharmacy/Pill-Apotheke-Frohlichstrasse-LmTHBgNFALWxzL_KbMfl7A?dwhat=pharmacy&dwhere=zurich	Pill Apotheke Fröhlichstrasse	Seefeldstrasse 171	 8008 Zürich	044 422 20 27		
zurich	pharmacy	N/A	http://yellow.local.ch/en/d/Zurich/8008/Pharmacy/Pill-Apotheke-Neumunster-tlcEydcQgctD8KcyyeciHQ?dwhat=pharmacy&dwhere=zurich	Pill Apotheke Neumünster	Forchstrasse 4	 8008 Zürich	044 383 17 00		
zurich	pharmacy	N/A	http://yellow.local.ch/en/d/Zurich/8006/Druggist/Rigi-Apotheke-und-Drogerie-AG-dN7x6fWvCNV64h40uPkunQ?dwhat=pharmacy&dwhere=zurich	Rigi Apotheke und Drogerie AG	Universitätstrasse 120	 8006 Zürich	044 350 53 20		
zurich	pharmacy	N/A	http://yellow.local.ch/en/d/Zurich/8001/Pharmacy/RosenApotheke-VM36MGDd65sKzWFsV2g6OQ?dwhat=pharmacy&dwhere=zurich	RosenApotheke	Niederdorfstrasse 11	 8001 Zürich	044 251 51 09		
zurich	pharmacy	N/A	http://yellow.local.ch/en/d/Zurich/8037/Pharmacy/RotbuchApotheke-4eZZKl28DBitKUV2eJvZDw?dwhat=pharmacy&dwhere=zurich	RotbuchApotheke	Röschibachstrasse 72	 8037 Zürich	043 366 96 02		
zurich	pharmacy	N/A	http://yellow.local.ch/en/d/Zurich/8003/Pharmacy/Schmiedegg-Apotheke-AG-N6Cp8p_0-9YTytTVZxqSFw?dwhat=pharmacy&dwhere=zurich	Schmiedegg-Apotheke AG	Zurlindenstrasse 60	 8003 Zürich	044 462 72 50		
zurich	pharmacy	N/A	http://yellow.local.ch/en/d/Zurich/8001/Pharmacy/Sonnen-Apotheke-2eml7kl5KE7IxokDNiUdrg?dwhat=pharmacy&dwhere=zurich	Sonnen Apotheke	Torgasse /Oberdorfstr.	 8001 Zürich	044 251 04 32		
zurich	pharmacy	N/A	http://yellow.local.ch/en/d/Zurich/8004/Pharmacy/Stauffacher-Apotheke-MC4PmrTURrzcr71zyO5I7g?dwhat=pharmacy&dwhere=zurich	Stauffacher-Apotheke	Birmensdorferstrasse 1	 8004 Zürich	044 242 86 36		
zurich	pharmacy	N/A	http://yellow.local.ch/en/d/Zurich/8001/Pharmacy/SUN-STORE-YHsAedgUNPiCj7rFuWOadg?dwhat=pharmacy&dwhere=zurich	SUN STORE	Migros City, Löwenstrasse 31-35	 8001 Zürich	058 878 60 20		
zurich	pharmacy	N/A	http://yellow.local.ch/en/d/Zurich/8047/Pharmacy/Triemli-Apotheke-D-Stotz-4J0s1lFq2BlHGCe6NCOjlg?dwhat=pharmacy&dwhere=zurich	Triemli-Apotheke D. Stotz	Triemlistrasse 181	 8047 Zürich	044 463 15 33		
zurich	pharmacy	N/A	http://yellow.local.ch/en/d/Zurich/8047/Pharmacy/Utogrund-9LVSTMG8D5ruO531riuL4A?dwhat=pharmacy&dwhere=zurich	Utogrund	Albisriederstrasse 232	 8047 Zürich	044 492 52 32		
zurich	pharmacy	N/A	http://yellow.local.ch/en/d/Zurich/8004/Pharmacy/Wengihof-Apotheke-Drogerie-Iq8Up3yTVqCtGYtQBz8U1A?dwhat=pharmacy&dwhere=zurich	Wengihof Apotheke & Drogerie	Kernstrasse 8	 8004 Zürich	058 878 28 20		
zurich	pharmacy	N/A	http://yellow.local.ch/en/d/Zurich/8046/Pharmacy/ZehntenhausApotheke-cd6j8VVLlQBWJrz7P6cRew?dwhat=pharmacy&dwhere=zurich	ZehntenhausApotheke	Zehntenhausstrasse 2	 8046 Zürich	044 371 35 00		
zurich	pharmacy	N/A	http://yellow.local.ch/en/d/Zurich/8044/Pharmacy/Zurichberg-Fluntern-NEQVLaIpGxcnq_TfMbkqeg?dwhat=pharmacy&dwhere=zurich	Zürichberg Fluntern	Vorderberg 5	 8044 Zürich	044 256 88 44		
zurich	pharmacy	N/A	http://yellow.local.ch/en/d/Zurich/8003/Pharmacy/ZweierApotheke-aHpH5WbbDGyS1y_KgZRuJg?dwhat=pharmacy&dwhere=zurich	ZweierApotheke	Birmensdorferstrasse 155	 8003 Zürich	044 451 11 55		
zurich	pharmacy	N/A	http://yellow.local.ch/en/d/Egg-b-Zurich/8132/Pharmacy/Apotheke-Dobler-AG-6SJy6gTeJ9W1KEvAZT4OXA?dwhat=pharmacy&dwhere=zurich	Apotheke Dobler AG	Dorfplatz 4	 8132 Egg b. Zürich	044 984 31 31	www.apotheke-dobler.ch	
zurich	pharmacy	N/A	http://yellow.local.ch/en/d/Affoltern-am-Albis/8910/Pharmacy/Vitalis-a4bJ3O4vuhfu89tyRqN3tw?dwhat=pharmacy&dwhere=zurich	Vitalis	Büelstrasse 15	 8910 Affoltern am Albis	044 761 87 61	www.vitalis-apotheke.ch	
zurich	pharmacy	N/A	http://yellow.local.ch/en/d/Glattpark-Opfikon/8152/Pharmacy/Toppharm-Glattpark-Apotheke-kdC8x33rBDF7CAmyG6bwBg?dwhat=pharmacy&dwhere=zurich	Toppharm Glattpark Apotheke	Wright-Strasse 7	 8152 Glattpark (Opfikon)	044 315 10 00	www.glattpark.apotheke.ch	
zurich	pharmacy	N/A	http://yellow.local.ch/en/d/Dietlikon/8305/Pharmacy/Zentrum-Apotheke-Maher-Zaki-Eldaour-p3ahVzOwbzLZtDLvljVrKw?dwhat=pharmacy&dwhere=zurich	Zentrum-Apotheke Maher-Zaki Eldaour	Bahnhofstrasse 40	 8305 Dietlikon	044 833 46 00		
zurich	pharmacy	N/A	http://yellow.local.ch/en/d/Biel-Bienne/2504/Pharmacy/SUN-STORE-c4KZwFrGiVEXI1Psw7VpAA?dwhat=pharmacy&dwhere=zurich	SUN STORE	Centre Boujean - Coop XXL, Zürichstrasse 24	 2504 Biel/Bienne	058 878 51 30		
zurich	pharmacy	N/A	http://yellow.local.ch/en/d/Kloten/8302/Perfumery/Amavita-Apotheke-Flughafen-BXP3u5IO-Apj6ZlLD74rLw?dwhat=pharmacy&dwhere=zurich	Amavita Apotheke Flughafen		8302 Kloten	058 851 32 49		
zurich	pharmacy	N/A	http://yellow.local.ch/en/d/Zurich/8005/Publisher/localsearch-A00OhenWd_Z5RWnxDE7mqA?dwhat=pharmacy&dwhere=zurich	localsearch	Förrlibuckstrasse 62	 8005 Zürich	0800 86 80 86	www.localsearch.ch	
zurich	pharmacy	N/A	http://yellow.local.ch/en/d/Zurich/8001/Health-center/AsthetischesInstitut-am-Paradeplatz-ETbj_gxOcZF0AAQLQescEw?dwhat=pharmacy&dwhere=zurich	ÄsthetischesInstitut am Paradeplatz	Poststrasse 6	 8001 Zürich	044 213 12 33	www.paradeplatz.apotheke.ch	
zurich	pharmacy	N/A	http://yellow.local.ch/en/d/Zurich/8001/Health-and-sports-massage/Therapiezentrum-am-Paradeplatz-Pez-crd8c360j8jznEOxKg?dwhat=pharmacy&dwhere=zurich	Therapiezentrum am Paradeplatz	Poststrasse 6	 8001 Zürich	044 213 12 33	www.therapiezentrum-am-paradeplatz.ch	
zurich	pharmacy	N/A	http://yellow.local.ch/en/d/Kloten/8302/Airport/Pharmacy-MEDIFARM-Dr-Jost-AG-KLV9bvIEc3PA6uYTRmy6LA?dwhat=pharmacy&dwhere=zurich	Pharmacy MEDIFARM Dr. Jost AG	P.O. Box 2328	 8058 Zürich	043 816 20 00		
