cityName	searchPhrase	resultNum	ypchsite	name	address1	address2	phone	website
zurich	optician	N/A	http://yellow.local.ch/en/d/Zurich/8057/Glasses-and-contact-lenses/Die-Brille-AG-USE0WQLWbIwaSONuvLoRjg?dwhat=optician&dwhere=zurich	Die Brille AG	Schaffhauserstrasse 70	 8057 Zürich	044 350 80 90	www.die-brille.ch	
zurich	optician	N/A	http://yellow.local.ch/en/d/Zurich/8005/Optometry/Ottlens-oP-8-mW1bsgVLtpiNnfJlA?dwhat=optician&dwhere=zurich	Ottlens	Josefstrasse 53	 8005 Zürich	044 272 75 78	www.ottlens.ch	
zurich	optician	N/A	http://yellow.local.ch/en/d/Zurich/8001/Glasses-and-contact-lenses/Gautschi-Optik-Zurich-AG-cisupu8B_gT10mBGHF4hwA?dwhat=optician&dwhere=zurich	Gautschi Optik Zürich AG	Uraniastrasse 7	 8001 Zürich	044 221 15 30	www.gautschi-augenoptik.ch	
zurich	optician	N/A	http://yellow.local.ch/en/d/Zurich/8001/Optician/Burri-Optik-Uraniastrasse-LuKcs9oZseuT2bucRvDHbA?dwhat=optician&dwhere=zurich	Burri Optik Uraniastrasse	Uraniastrasse 22	 8001 Zürich	044 218 77 88	www.burrioptik.ch	
zurich	optician	N/A	http://yellow.local.ch/en/d/Zurich/8001/Glasses-and-contact-lenses/Visilab-Sihlporte-e9fmqcWtMpZODMgx-2wUJw?dwhat=optician&dwhere=zurich	Visilab Sihlporte	Sihlporte 3	 8001 Zürich	043 344 72 10	www.visilab.ch	
zurich	optician	N/A	http://yellow.local.ch/en/d/Zurich/8001/Optician/Scheerer-Optik-PqZ0bPE2a98HpU8hhQfyDQ?dwhat=optician&dwhere=zurich	Scheerer Optik	Bahnhofplatz 9 / Eing. Linth Escher Gasse	 8001 Zürich	044 211 82 22	www.scheereroptik.ch	
zurich	optician	N/A	http://yellow.local.ch/en/d/Zurich/8048/Optician/VISILAB-Letzipark-AG-LNlDu-KCM1sZlyzMLAWzGw?dwhat=optician&dwhere=zurich	VISILAB Letzipark AG	EKZ Letzipark, Baslerstrasse 50	 8048 Zürich	044 401 08 08	www.visilab.ch	
zurich	optician	N/A	http://yellow.local.ch/en/d/Zurich/8001/Optometry/Nielsen-Optik-AG-TxCrSIMI7Gy-KpGPHhzGIg?dwhat=optician&dwhere=zurich	Nielsen Optik AG	Bleicherweg 5 / beim Paradeplatz	 8001 Zürich	044 211 75 44	www.nielsen-optik.ch	
zurich	optician	N/A	http://yellow.local.ch/en/d/Zurich/8006/Glasses-and-contact-lenses/Biefer-Alfred-8FskWUsxUt__J_NWxPUTjQ?dwhat=optician&dwhere=zurich	Biefer Alfred	Vogelsangstrasse 46	 8006 Zürich	044 261 36 96	www.bieferoptik.ch	
zurich	optician	N/A	http://yellow.local.ch/en/d/Zurich/8001/Optician/VISILAB-Zurich-AG-xyeIaDgNutFWPZeKT0qo_g?dwhat=optician&dwhere=zurich	VISILAB Zürich AG	ShopVille-Zürich Hauptbahnhof, Bahnhofplatz 15	 8001 Zürich	044 212 73 33	www.visilab.ch	
zurich	optician	N/A	http://yellow.local.ch/en/d/Zurich/8001/Optician/Linsen-am-Stadelhofen-Z04n9w8h6gGRGFs915OI0w?dwhat=optician&dwhere=zurich	Linsen am Stadelhofen	Goethestrasse 20	 8001 Zürich	044 268 30 20	www.apothekestadelhofen.ch	
zurich	optician	N/A	http://yellow.local.ch/en/d/Zurich/8002/Glasses-and-contact-lenses/Ammann-Optik-Enge-jwrfQrbg87ReqGIaOgOAXw?dwhat=optician&dwhere=zurich	Ammann Optik Enge	Bleicherweg 39	 8002 Zürich	044 202 56 42	www.ammannoptik.ch	
zurich	optician	N/A	http://yellow.local.ch/en/d/Zurich/8001/Optometry/Alpengluhn-am-Rudenplatz-mCCKkx3jfioN-BRwtFHQrg?dwhat=optician&dwhere=zurich	Alpenglühn am Rüdenplatz	Nägelihof 1	 8001 Zürich	044 251 55 51	www.alpengluehn.ch	
zurich	optician	N/A	http://yellow.local.ch/en/d/Zurich/8005/Optician/MYKITA-SHOP-ZURICH-58bi_cdzgL5lzWY4tX6dDw?dwhat=optician&dwhere=zurich	MYKITA SHOP ZÜRICH	Langstrasse 187	 8005 Zürich	043 818 27 30	www.mykita.com	
zurich	optician	N/A	http://yellow.local.ch/en/d/Zurich/8037/Glasses-and-contact-lenses/Schurz-Brillen-Kontaktlinsen-tmUMtmhfQy_MzZ8DpDtm1A?dwhat=optician&dwhere=zurich	Schürz Brillen & Kontaktlinsen	Rotbuchstrasse 72	 8037 Zürich	044 362 62 30	www.schuerzoptik.ch	
zurich	optician	N/A	http://yellow.local.ch/en/d/Zurich/8045/Optician/VISILAB-Sihlcity-AG-cMFrcLA2uELISjaxLOhIRg?dwhat=optician&dwhere=zurich	VISILAB Sihlcity AG	EKZ Sihlcity, Kalanderplatz 1	 8045 Zürich	043 305 00 40	www.visilab.ch	
zurich	optician	N/A	http://yellow.local.ch/en/d/Zurich/8001/Optometry/Muller-Optik-Zurich-AG-Diplom-Optiker-WM7Zx_aTFG5Qo_EMRK_psA?dwhat=optician&dwhere=zurich	Müller Optik Zürich AG Diplom Optiker	Limmatquai 94 /Eing. Mühlegasse	 8001 Zürich	044 261 25 55	www.mueller-optik.ch	
zurich	optician	N/A	http://yellow.local.ch/en/d/Zurich/8050/Optician/Wanner-Optik-q0RbRw-OEQJNSKdwrq9U8g?dwhat=optician&dwhere=zurich	Wanner Optik	Welchogasse 4	 8050 Zürich	044 311 40 44	www.wanneroptik.ch	
zurich	optician	N/A	http://yellow.local.ch/en/d/Zurich/8001/Optician/Trenta-Optik-th8OoqvMWnoOpXCVzP6ShQ?dwhat=optician&dwhere=zurich	Trenta Optik	Augustinergasse 30	 8001 Zürich	044 212 39 30	www.trenta-optik.ch	
zurich	optician	N/A	http://yellow.local.ch/en/d/Zurich/8004/Glasses-and-contact-lenses/Scharfmacher-Brillen-Kunst-1ns4qmNgXcMh52jq3izGYQ?dwhat=optician&dwhere=zurich	Scharfmacher Brillen-Kunst	Lagerstrasse 18c	 8004 Zürich	044 273 08 58	www.scharfmacher.ch	
zurich	optician	N/A	http://yellow.local.ch/en/d/Zurich/8050/Glasses-and-contact-lenses/Visilab-Oerlikon-AG-c3wfspkkimjN-_mcsMh5dw?dwhat=optician&dwhere=zurich	Visilab Oerlikon AG	Hofwiesenstrasse 369	 8050 Zürich	043 288 56 45	www.visilab.ch	
zurich	optician	N/A	http://yellow.local.ch/en/d/Zurich/8001/Glasses-and-contact-lenses/Burri-Optik-Bellevue-T2Z-Rw86WeW_X1va3ZVbBQ?dwhat=optician&dwhere=zurich	Burri Optik Bellevue	Limmatquai 4	 8001 Zürich	044 251 08 93	www.burrioptik.ch	
zurich	optician	N/A	http://yellow.local.ch/en/d/Zurich/8038/Optician/My-Way-Optics-by-Patrick-Isker-wIGSwLeNxSvzaZ4pjOLl5Q?dwhat=optician&dwhere=zurich	My Way Optics by Patrick Isker	Albisstrasse 58	 8038 Zürich	044 482 18 33	www.mywayoptics.ch	
zurich	optician	N/A	http://yellow.local.ch/en/d/Zurich/8001/Optician/Klemm-Optik-FMAgG11Nbbbr03s_AceebQ?dwhat=optician&dwhere=zurich	Klemm Optik	Pelikanstrasse 19	 8001 Zürich	044 221 30 29	www.klemmoptik.com	
zurich	optician	N/A	http://yellow.local.ch/en/d/Zurich/8002/Optician/sehzentrum-zurich-ag-88SLP0lvDEF8Ifzla8Dxhw?dwhat=optician&dwhere=zurich	sehzentrum zürich ag	Brandschenkestrasse 150	 8002 Zürich	044 280 50 50	www.sehzentrum-zuerich.ch	
zurich	optician	N/A	http://yellow.local.ch/en/d/Zurich/8050/Optician/Diemert-Optik-GmbH-JfqJrybyXp1Xnj5mrGLOsw?dwhat=optician&dwhere=zurich	Diemert Optik GmbH	Franklinstrasse 7	 8050 Zürich	044 312 04 39	www.diemertoptik.ch	
zurich	optician	N/A	http://yellow.local.ch/en/d/Zurich/8051/Optician/Wyss-Optik-AG-3IdxuEoaNXsYiDSOb1BIuw?dwhat=optician&dwhere=zurich	Wyss Optik AG	Saatlenstrasse 12	 8051 Zürich	044 321 72 00	www.wyss-optik.ch	
zurich	optician	N/A	http://yellow.local.ch/en/d/Zurich/8032/Optician/Sports-Vision-Pascal-Abegg-AG-dczKeVwAjjDg2SGvDgT93w?dwhat=optician&dwhere=zurich	Sports Vision Pascal Abegg AG	Kreuzplatz 1	 8032 Zürich	043 321 88 80	www.sportsvision.ch	
zurich	optician	N/A	http://yellow.local.ch/en/d/Zurich/8048/Optician/Breitinger-Optik-AG-_rnbq7NZsRKPNouOPqvOGQ?dwhat=optician&dwhere=zurich	Breitinger Optik AG	Altstetterstrasse 155	 8048 Zürich	044 431 37 07	www.breitinger-optik.ch	
zurich	optician	N/A	http://yellow.local.ch/en/d/Zurich/8001/Optician/Spectrum-Optic-Daniel-Tschuor-Co-yX4aPa1EiRDRzopzn2qFuQ?dwhat=optician&dwhere=zurich	Spectrum Optic, Daniel Tschuor & Co	Stadelhoferstrasse 22	 8001 Zürich	044 261 05 00	www.spectrum-optic.ch	
zurich	optician	N/A	http://yellow.local.ch/en/d/Zurich/8001/Optician/Tschuor-Daniel-C0rjzIlkC_6g4oqQgYlvKQ?dwhat=optician&dwhere=zurich	Tschuor Daniel	Stadelhoferstrasse 22	 8001 Zürich	044 261 05 00	www.spectrum-optic.ch	
zurich	optician	N/A	http://yellow.local.ch/en/d/Zurich/8050/Optician/Peter-Bosshard-AG-LrVBgW5bG54xpysxA7MDSQ?dwhat=optician&dwhere=zurich	Peter & Bosshard AG	Edisonstrasse 20	 8050 Zürich	044 315 40 00	www.pboptik.ch	
zurich	optician	N/A	http://yellow.local.ch/en/d/Zurich/8047/Optician/Piazzitta-Optik-GmbH-uGPQI3yLZcxvAfkVCjoDFQ?dwhat=optician&dwhere=zurich	Piazzitta Optik GmbH	Albisriederstrasse 349	 8047 Zürich	044 241 67 73	www.piazzitta.ch	
zurich	optician	N/A	http://yellow.local.ch/en/d/Zurich/8002/Glasses-and-contact-lenses/niederer-Optik-6rVlYQvCAkHwnYc3y9tx8w?dwhat=optician&dwhere=zurich	niederer Optik	Bleicherweg 44	 8002 Zürich	044 206 17 00	www.niedereroptik.ch	
zurich	optician	N/A	http://yellow.local.ch/en/d/Zurich/8001/Glasses-and-contact-lenses/Berling-Optik-AG-aZs_zZ5yuRTFkC9Tiw6EsQ?dwhat=optician&dwhere=zurich	Berling Optik AG	Limmatquai 134	 8001 Zürich	044 269 40 60	www.berling.ch	
zurich	optician	N/A	http://yellow.local.ch/en/d/Zurich/8004/Optometry/Ammann-Thomas-Kontaktlinsen-m2uVkvpaD5tvocP6odVoIQ?dwhat=optician&dwhere=zurich	Ammann Thomas Kontaktlinsen	Hohlstrasse 25	 8004 Zürich	044 241 71 14	www.thomas-ammann.ch	
zurich	optician	N/A	http://yellow.local.ch/en/d/Zurich/8046/Optometry/Augenkontakt-Anderegg-Aecherli-rSIlgIFUO_qqRDpGcS6-2Q?dwhat=optician&dwhere=zurich	Augenkontakt Anderegg & Aecherli	Wehntalerstrasse 540 /Am Zehntenhausplatz	 8046 Zürich	044 371 07 11	www.augenkontakt.ch	
zurich	optician	N/A	http://yellow.local.ch/en/d/Zurich/8005/Optician/Nielsen-Ferber-Optik-AG-94b17ZR4JJyZbbGeE1gdZw?dwhat=optician&dwhere=zurich	Nielsen + Ferber Optik AG	Limmatplatz 9	 8005 Zürich	044 271 38 26		
zurich	optician	N/A	http://yellow.local.ch/en/d/Zurich/8001/Accessories/Sunglass-Accessory-eSd8PuIxqIYlXH5RYJsWLQ?dwhat=optician&dwhere=zurich	Sunglass & Accessory	Strehlgasse 2	 8001 Zürich	044 222 10 20	www.sunglass-accessory.ch	
zurich	optician	N/A	http://yellow.local.ch/en/d/Zurich/8001/Optician/GOTTE-OPTIK-YWO-JZcKE292bB5BLYK30w?dwhat=optician&dwhere=zurich	GÖTTE OPTIK	Bahnhofstrasse 100	 8001 Zürich	044 211 37 80		
zurich	optician	N/A	http://yellow.local.ch/en/d/Zurich/8038/Optician/Hirzel-Optik-AG-hErgZ7lN9MN0SVuuxHQKlg?dwhat=optician&dwhere=zurich	Hirzel Optik AG	Albisstrasse 96	 8038 Zürich	044 480 02 95		
zurich	optician	N/A	http://yellow.local.ch/en/d/Zurich/8004/Optician/Kreis-4-Optik-7mBHC7oy96hu9D58SXPlFQ?dwhat=optician&dwhere=zurich	Kreis 4 Optik	Badenerstrasse 89	 8004 Zürich	044 241 50 82		
zurich	optician	N/A	http://yellow.local.ch/en/d/Zurich/8001/Optician/Simons-Optik-K5vBCHBd2w7GtxbuJjxLcQ?dwhat=optician&dwhere=zurich	Simon's Optik	Stüssihofstatt 4	 8001 Zürich	044 252 35 24		
zurich	optician	N/A	http://yellow.local.ch/en/d/Zurich/8001/Optician/Kochoptik-AG-Glc10kS0FUbm3lUpqdQQfw?dwhat=optician&dwhere=zurich	Kochoptik AG	Limmatquai 62	 8001 Zürich	044 251 07 69		
zurich	optician	N/A	http://yellow.local.ch/en/d/Zurich/8008/Optician/Kochoptik-AG-n4BoTvzHHtGNcHpWRIpZog?dwhat=optician&dwhere=zurich	Kochoptik AG	Seefeldstrasse 40	 8008 Zürich	044 260 55 45		
zurich	optician	N/A	http://yellow.local.ch/en/d/Zurich/8001/Optician/Kochoptik-AG-KL9azqPTRlqJ6hLbnOftDA?dwhat=optician&dwhere=zurich	Kochoptik AG	Löwenstrasse 1 /Sihlporte	 8001 Zürich	044 221 21 41		
zurich	optician	N/A	http://yellow.local.ch/en/d/Zurich/8050/Optician/Kochoptik-AG-2oVO2g8hpSmztZ5hSzE3-w?dwhat=optician&dwhere=zurich	Kochoptik AG	Ohmstrasse 14	 8050 Zürich	044 312 33 01		
zurich	optician	N/A	http://yellow.local.ch/en/d/Zurich/8004/Optician/Kochoptik-AG-am-96Sm1Pns4BRLq_DUUzg?dwhat=optician&dwhere=zurich	Kochoptik AG	Albisriederplatz 8	 8004 Zürich	044 491 39 35		
zurich	optician	N/A	http://yellow.local.ch/en/d/Zurich/8008/Glasses-and-contact-lenses/Augenstern-Brillen-und-Kontaktlinsen-9c6OY0n9kq4BrLMjt2lOEg?dwhat=optician&dwhere=zurich	Augenstern Brillen und Kontaktlinsen	Seefeldstrasse 127	 8008 Zürich	044 420 14 70		
zurich	optician	N/A	http://yellow.local.ch/en/d/Zurich/8032/Optician/Baldinger-Optik-AG-Zurich-bdp2WYwbb_qMlxPP7zMkPw?dwhat=optician&dwhere=zurich	Baldinger Optik AG Zürich	Hottingerstrasse 40	 8032 Zürich	044 251 95 94		
zurich	optician	N/A	http://yellow.local.ch/en/d/Zurich/8050/Glasses-and-contact-lenses/Banninger-Thomas-T_jkKozmTIt-wv1otTGZyA?dwhat=optician&dwhere=zurich	Bänninger Thomas	Schwamendingenstrasse 42	 8050 Zürich	044 311 68 08		
zurich	optician	N/A	http://yellow.local.ch/en/d/Zurich/8001/Glasses-and-contact-lenses/Brillen-Studio-Hoehn-Zehnder-h3dWkXVtonN1L4GZ8zMT_A?dwhat=optician&dwhere=zurich	Brillen-Studio Hoehn & Zehnder	Rämistrasse 3	 8001 Zürich	044 251 98 24		
zurich	optician	N/A	http://yellow.local.ch/en/d/Zurich/8048/Optician/City-Optic-AG-AzQ3JFtaA7amxIdC7kyVXA?dwhat=optician&dwhere=zurich	City Optic AG	Filiale Neumarkt, Altstetterstrasse 145	 8048 Zürich	044 434 70 34		
zurich	optician	N/A	http://yellow.local.ch/en/d/Zurich/8051/Optician/EyeSmile-Swiss-Opti-Tech-GmbH--3kOtvPOQ_D53SkcIUtSSw?dwhat=optician&dwhere=zurich	EyeSmile - Swiss Opti Tech GmbH	Winterthurerstrasse 531	 8051 Zürich	044 322 65 11		
zurich	optician	N/A	http://yellow.local.ch/en/d/Zurich/8001/Glasses-and-contact-lenses/Fielmann-AG-uOplxch0z8tisjbWQpjkrw?dwhat=optician&dwhere=zurich	Fielmann AG	Bahnhofstrasse 83	 8001 Zürich	043 888 67 67		
zurich	optician	N/A	http://yellow.local.ch/en/d/Zurich/8005/Glasses-and-contact-lenses/Frame-53-Zq0he_fQsHggKiJRE3xQyg?dwhat=optician&dwhere=zurich	Frame 53	Josefstrasse 53	 8005 Zürich	043 366 95 53		
zurich	optician	N/A	http://yellow.local.ch/en/d/Zurich/8049/Optician/Gotti-Jurg-K1kR2QwYnuJUuG7jia6I3g?dwhat=optician&dwhere=zurich	Götti Jürg	Limmattalstrasse 204	 8049 Zürich	044 341 20 10		
zurich	optician	N/A	http://yellow.local.ch/en/d/Zurich/8002/Glasses-and-contact-lenses/Gross-Christian-fE1OoF4vBDiP280sKVt-dQ?dwhat=optician&dwhere=zurich	Gross Christian	Bleicherweg 44	 8002 Zürich	044 206 17 00		
zurich	optician	N/A	http://yellow.local.ch/en/d/Zurich/8008/Optician/Harnisch-Optik-gozjyBbAHHZAujy6JHXyZg?dwhat=optician&dwhere=zurich	Harnisch Optik	Kreuzbühlstrasse 42	 8008 Zürich	044 251 80 27		
zurich	optician	N/A	http://yellow.local.ch/en/d/Zurich/8049/Glasses-and-contact-lenses/He-Optik-GmbH-DuaGVBiupu49g3WIG6C6zA?dwhat=optician&dwhere=zurich	He-Optik GmbH	Limmattalstrasse 168 Am Meierhofplatz	 8049 Zürich	044 341 22 75		
zurich	optician	N/A	http://yellow.local.ch/en/d/Zurich/8001/Optician/Iselin-Optik-pyk0_-2t6IZdqnXibhTfvA?dwhat=optician&dwhere=zurich	Iselin Optik	Rämistrasse 39	 8001 Zürich	044 262 44 41		
zurich	optician	N/A	http://yellow.local.ch/en/d/Zurich/8001/Glasses-and-contact-lenses/Junger-Kontaklinsen-Gaite-GmbH-5SklTZLKQB0kHJMnmSFGug?dwhat=optician&dwhere=zurich	Junger Kontaklinsen Gaite GmbH	Limmatquai 56	 8001 Zürich	044 252 13 03		
zurich	optician	N/A	http://yellow.local.ch/en/d/Zurich/8045/Glasses-and-contact-lenses/Junker-Optik-kZSr0MZVzWKaJynQFtCmXg?dwhat=optician&dwhere=zurich	Junker Optik	Uetlibergstrasse 22	 8045 Zürich	044 221 23 48		
zurich	optician	N/A	http://yellow.local.ch/en/d/Zurich/8004/Optician/Kalkbreite-Optik-n1ffyIuAYJ4P5FmrF53K5g?dwhat=optician&dwhere=zurich	Kalkbreite Optik	Badenerstrasse 156	 8004 Zürich	044 241 40 46		
zurich	optician	N/A	http://yellow.local.ch/en/d/Zurich/8001/Optician/Kinderbrillenladen-Optik-Iselin-KWeiKpbr_G6X8CksNyUVQQ?dwhat=optician&dwhere=zurich	Kinderbrillenladen Optik Iselin	Rämistrasse 39	 8001 Zürich	044 262 49 60		
zurich	optician	N/A	http://yellow.local.ch/en/d/Zurich/8001/Optometry/Kochoptik-AG-1LvtfUUXR2jC7eSeIDKmJw?dwhat=optician&dwhere=zurich	Kochoptik AG	Strehlgasse 33	 8001 Zürich	044 221 21 91		
zurich	optician	N/A	http://yellow.local.ch/en/d/Zurich/8001/Optician/Kochoptik-AG-XiGdYZLrtjvjK0-bn3tHZw?dwhat=optician&dwhere=zurich	Kochoptik AG	Bahnhofstrasse 11	 8001 Zürich	061 711 29 79		
zurich	optician	N/A	http://yellow.local.ch/en/d/Zurich/8001/Optician/Kochoptik-AG-SAofWOJqwpb_Ba3cPZpZjw?dwhat=optician&dwhere=zurich	Kochoptik AG	Bahnhofstrasse 11	 8001 Zürich	044 221 23 50		
zurich	optician	N/A	http://yellow.local.ch/en/d/Zurich/8001/Optician/Kochoptik-AG-bRZsyegEstm9hth-ItmvWw?dwhat=optician&dwhere=zurich	Kochoptik AG	Seidengasse 1	 8001 Zürich	044 211 33 10		
zurich	optician	N/A	http://yellow.local.ch/en/d/Zurich/8001/Optician/Kochoptik-AG-XgExrMir6VvgFwJSdHxuRw?dwhat=optician&dwhere=zurich	Kochoptik AG	Seidengasse 1	 8001 Zürich	044 220 44 96		
zurich	optician	N/A	http://yellow.local.ch/en/d/Zurich/8032/Optician/Kunzli-Optik-i3FFpKz6XHqSDcVxnQk-fg?dwhat=optician&dwhere=zurich	Künzli Optik	Minervastrasse 149	 8032 Zürich	044 876 02 01		
zurich	optician	N/A	http://yellow.local.ch/en/d/Zurich/8055/Optician/McOptik-Schweiz-AG-HfUM8W7KxCnNcRGDqqtJMg?dwhat=optician&dwhere=zurich	McOptik (Schweiz) AG	Wiedikon M-Märt, Birmensdorferstrasse 320	 8055 Zürich	043 811 54 25		
zurich	optician	N/A	http://yellow.local.ch/en/d/Zurich/8003/Optician/Meissner-Wolfgang-pyDjx6R7nxcqyEsHVDf4pg?dwhat=optician&dwhere=zurich	Meissner Wolfgang	Birmensdorferstrasse 224	 8003 Zürich	044 462 21 54		
zurich	optician	N/A	http://yellow.local.ch/en/d/Zurich/8001/Optician/Rauber-Max-y_I8asxQ9c8ceHMv-Cq5CQ?dwhat=optician&dwhere=zurich	Rauber Max	Limmatquai 32	 8001 Zürich	044 261 44 53		
zurich	optician	N/A	http://yellow.local.ch/en/d/Zurich/8002/Optician/Rieder-Sigmund-Z6B093yfPxZAeZvbKPgFeg?dwhat=optician&dwhere=zurich	Rieder Sigmund	Bederstrasse 97	 8002 Zürich	044 202 42 65		
zurich	optician	N/A	http://yellow.local.ch/en/d/Zurich/8001/Glasses-and-contact-lenses/SehFelder-6LksmcsO2Ae230rcpGOTyA?dwhat=optician&dwhere=zurich	SehFelder	Theaterstrasse 6	 8001 Zürich	044 251 74 06		
zurich	optician	N/A	http://yellow.local.ch/en/d/Zurich/8050/Optician/Staubitz-Optik-AG-M0YuiTljx7FATNjXBU9exA?dwhat=optician&dwhere=zurich	Staubitz Optik AG	Schaffhauserstrasse 440	 8050 Zürich	044 302 70 80		
zurich	optician	N/A	http://yellow.local.ch/en/d/Zurich/8001/Optician/Storchen-Optik-AG-sroc2rL_uxYO6qeqInU7yw?dwhat=optician&dwhere=zurich	Storchen Optik AG	Storchengasse 17	 8001 Zürich	044 212 60 40		
zurich	optician	N/A	http://yellow.local.ch/en/d/Zurich/8004/Optician/Viu-Eyewear-fs84_YiVEzNlJ8Exn9HdIg?dwhat=optician&dwhere=zurich	Viu Eyewear	Grüngasse 4	 8004 Zürich	044 508 79 04		
zurich	optician	N/A	http://yellow.local.ch/en/d/Zurich/8001/Optician/Zwicker-gp8MDwsRipDVa_Q_9KUOLw?dwhat=optician&dwhere=zurich	Zwicker	Poststrasse 1 / beim Paradeplatz	 8001 Zürich	044 211 03 87		
zurich	optician	N/A	http://yellow.local.ch/en/d/Kloten/8302/Optician/VISILAB-Flughafen-Zurich-AG-z58q2LwBNfNQkBysj07nLw?dwhat=optician&dwhere=zurich	VISILAB Flughafen Zürich AG	Airport Center	 8302 Kloten	043 816 22 00	www.visilab.ch	
zurich	optician	N/A	http://yellow.local.ch/en/d/Biel-Bienne/2504/Optician/VISILAB-Boujean-SA-udOW_8yrQ-CH60I3KBzxgg?dwhat=optician&dwhere=zurich	VISILAB Boujean SA	Centre Commercial Boujean, rue de Zurich 24	 2504 Biel/Bienne	032 343 30 40	www.visilab.ch	
zurich	optician	N/A	http://yellow.local.ch/en/d/Biel-Bienne/2504/Glasses-and-contact-lenses/VISILAB-Boujean-AG-x-J5fSAgEQ07bxiyJJtrxg?dwhat=optician&dwhere=zurich	VISILAB Boujean AG	Einkaufszentrum Boujean, Zürichstrasse 24	 2504 Biel/Bienne	032 343 30 40	www.visilab.ch	
zurich	optician	N/A	http://yellow.local.ch/en/d/Meilen/8706/Glasses-and-contact-lenses/Schneider-Optik-Akustik-_99vu_5zrlq-1H2Iqk0s5w?dwhat=optician&dwhere=zurich	Schneider Optik + Akustik	Dorfstrasse 116	 8706 Meilen	044 923 20 00	www.optik-akustik.ch	
zurich	optician	N/A	http://yellow.local.ch/en/d/Volketswil/8604/Optician/Schorno-Optik-TnL24QU0jg91o-6ORN2gPg?dwhat=optician&dwhere=zurich	Schorno Optik	Im Zentrum 18	 8604 Volketswil	044 946 00 65		
zurich	optician	N/A	http://yellow.local.ch/en/d/Wallisellen/8304/Optician/Kochoptik-PWUC084D1m4NOUATvpX4bA?dwhat=optician&dwhere=zurich	Kochoptik	Neue Winterthurerstrasse 99	 8304 Wallisellen	044 830 49 31		
