cityName	searchPhrase	resultNum	ypchsite	name	address1	address2	phone	website
zurich	garrage	N/A	http://yellow.local.ch/en/d/Zurich/8004/Garage/Renault-Zurich-Albisriederplatz-RRG-Zurich-SA--iEm6TE4DkAFSV5n6yUNwg?dwhat=garrage&dwhere=zurich	Renault Zürich Albisriederplatz RRG Zürich SA	Badenerstrasse 330	 8004 Zürich	0840 774 774	www.rrgsuisse.ch	
zurich	garrage	N/A	http://yellow.local.ch/en/d/Zurich/8047/Garage/Rey-AG-Garage-cSZu029QVa-8nWWdQNIE2w?dwhat=garrage&dwhere=zurich	Rey AG Garage	Albisriederstrasse 381	 8047 Zürich	044 406 20 60	garage-rey.ch	
zurich	garrage	N/A	http://yellow.local.ch/en/d/Zurich/8032/Garage/Minerva-Garage-AG-sUmokMlmOGXnA-eW6pPA3w?dwhat=garrage&dwhere=zurich	Minerva Garage AG	Minervastrasse 28	 8032 Zürich	044 251 81 22	www.minerva-garage.ch	
zurich	garrage	N/A	http://yellow.local.ch/en/d/Zurich/8055/Garage/Ernst-Ruckstuhl-AG-i4_6XAXPGArCburpYWxlsA?dwhat=garrage&dwhere=zurich	Ernst Ruckstuhl AG	Gutstrasse 3	 8055 Zürich	044 456 34 00	www.ruckstuhlgaragen.ch	
zurich	garrage	N/A	http://yellow.local.ch/en/d/Zurich/8008/Garage/Mercedes-Benz-Automobil-AG-KA7mPuT4Q5j0BWLvKaw66w?dwhat=garrage&dwhere=zurich	Mercedes-Benz Automobil AG	Färberstrasse 6 /Dufourstrasse 56	 8008 Zürich	044 268 99 66	www.merbagretail.ch/seefeld	
zurich	garrage	N/A	http://yellow.local.ch/en/d/Zurich/8051/Garage/Pneuhaus-Luegisland-AG-miQiiDNVZEgVzPyrbtaSrg?dwhat=garrage&dwhere=zurich	Pneuhaus Luegisland AG	Dübendorfstrasse 26	 8051 Zürich	044 322 55 33	www.pneuhaus.ch	
zurich	garrage	N/A	http://yellow.local.ch/en/d/Zurich/8047/Garage/Auto-Ecker-AG-5OFDl8BzEk47-IcNcO_a-g?dwhat=garrage&dwhere=zurich	Auto Ecker AG	Freilagerstrasse 27	 8047 Zürich	044 491 87 87	www.autoecker.ch	
zurich	garrage	N/A	http://yellow.local.ch/en/d/Zurich/8050/Garage/Emil-Frey-AG-Garage-Zurich-Nord-UK1FC5PbiYH6MqekXFMg-A?dwhat=garrage&dwhere=zurich	Emil Frey AG Garage Zürich Nord	Thurgauerstrasse 35	 8050 Zürich	044 306 77 77	www.emil-frey.ch/garagezuerichnord	
zurich	garrage	N/A	http://yellow.local.ch/en/d/Zurich/8002/Garage/BRUNAU-GARAGE-icij6xzoIrUmkFH074X8zw?dwhat=garrage&dwhere=zurich	BRUNAU GARAGE	Brunaustrasse 89	 8002 Zürich	044 202 53 55	www.brunaugarage.ch	
zurich	garrage	N/A	http://yellow.local.ch/en/d/Zurich/8003/Tires-tire-service/Uetli-Garage-AG-5ftbxEcYJKWLyj80I7tUuA?dwhat=garrage&dwhere=zurich	Uetli Garage AG	Saumstrasse 7-11	 8003 Zürich	044 463 20 20	www.uetli-garage.ch	
zurich	garrage	N/A	http://yellow.local.ch/en/d/Zurich/8004/Garage/Lochergut-Garage-AG-VVwoTntiM74h9D_ufZPQOA?dwhat=garrage&dwhere=zurich	Lochergut-Garage AG	Karl-Bürkli-Strasse 5	 8004 Zürich	044 241 66 11	www.garage-lochergut.ch	
zurich	garrage	N/A	http://yellow.local.ch/en/d/Zurich/8046/Garage/ABS-Autoservice-AG-CyoD04AamMZptD4Ook8pPA?dwhat=garrage&dwhere=zurich	ABS-Autoservice AG	Wehntalerstrasse 505	 8046 Zürich	044 371 00 57	www.abs-autoservice.ch	
zurich	garrage	N/A	http://yellow.local.ch/en/d/Zurich/8002/Garage/JENATSCHGARAGE-WrtfWZNpqPr9Mci2g63XDQ?dwhat=garrage&dwhere=zurich	JENATSCHGARAGE	Seestrasse 102-104	 8002 Zürich	044 202 88 86		
zurich	garrage	N/A	http://yellow.local.ch/en/d/Zurich/8003/Okasion/Honda-Automobile-Zurich-DR2QwDqB9wLbg894pDvMMQ?dwhat=garrage&dwhere=zurich	Honda Automobile Zürich	Letzigraben 77	 8003 Zürich	044 406 22 22	www.honda-zueri.ch	
zurich	garrage	N/A	http://yellow.local.ch/en/d/Zurich/8048/Car-body-work/INDICAR-GmbH-5_2ijZGVq-uArkBqOeSSiQ?dwhat=garrage&dwhere=zurich	INDICAR GmbH	Hohlstrasse 417	 8048 Zürich	044 401 17 70	www.indicar.ch	
zurich	garrage	N/A	http://yellow.local.ch/en/d/Zurich/8041/Garage/Allmend-Automobile-AG-vcvMsDoERjCRZq7B0LhcEg?dwhat=garrage&dwhere=zurich	Allmend Automobile AG	Zwirnerstrasse 320	 8041 Zürich	044 482 32 00	www.allmendautomobile.ch	
zurich	garrage	N/A	http://yellow.local.ch/en/d/Zurich/8001/Tires-tire-service/Centrum-Garage-AG-Wty3mWyqiwIR1o9CnaAPfA?dwhat=garrage&dwhere=zurich	Centrum Garage AG	Löwenstrasse 19	 8001 Zürich	044 212 65 00	www.centrum-garageag.ch	
zurich	garrage	N/A	http://yellow.local.ch/en/d/Zurich/8050/Garage/Semes-Automobile-GmbH-_EufkQf_JcAh3Bp-iypF9g?dwhat=garrage&dwhere=zurich	Semes Automobile GmbH	Schwamendingenstrasse 106	 8050 Zürich	043 311 64 80	www.semes-spritzwerk.ch	
zurich	garrage	N/A	http://yellow.local.ch/en/d/Zurich/8049/Car-body-work/Auto-Hongg-Zurich--_OKZe_xgKWyyHR3wfQHfQ?dwhat=garrage&dwhere=zurich	Auto Höngg Zürich	Limmattalstrasse 136	 8049 Zürich	044 341 00 00	www.neueautos.ch	
zurich	garrage	N/A	http://yellow.local.ch/en/d/Zurich/8003/Garage/Auto-Center-Wiedikon-SAwF597J3RKkyt-gt-FlZg?dwhat=garrage&dwhere=zurich	Auto Center Wiedikon	Steinstrasse 21	 8003 Zürich	044 715 43 11	www.autocenter-wiedikon.ch	
zurich	garrage	N/A	http://yellow.local.ch/en/d/Zurich/8047/Garage/Resegatti-GmbH-2gZwHLS9xbhPIfuFmXFXhQ?dwhat=garrage&dwhere=zurich	Resegatti GmbH	Fellenbergstrasse 289A	 8047 Zürich	044 491 44 00	www.resegatti.ch	
zurich	garrage	N/A	http://yellow.local.ch/en/d/Zurich/8048/Garage/J-H-Keller-AG-Automobile-WMbdNHiT_i4Y-67Wvre3Pw?dwhat=garrage&dwhere=zurich	J. H. Keller AG Automobile	Vulkanstrasse 120	 8048 Zürich	044 437 24 24	www.jhkellerag.ch	
zurich	garrage	N/A	http://yellow.local.ch/en/d/Zurich/8048/New-and-used-cars/Emil-Frey-AG-FRy56tgeUn2YchMeZr7sgw?dwhat=garrage&dwhere=zurich	Emil Frey AG	Badenerstrasse 600	 8048 Zürich	044 495 23 11	www.emil-frey.ch/zuerich	
zurich	garrage	N/A	http://yellow.local.ch/en/d/Zurich/8002/Garage/Neues-Schloss-AG-MQqDsZDE8of474tfJrZmcw?dwhat=garrage&dwhere=zurich	Neues Schloss AG	Stockerstrasse 11	 8002 Zürich	044 283 27 27	www.garage-neuesschloss.ch	
zurich	garrage	N/A	http://yellow.local.ch/en/d/Zurich/8005/Garage/Garage-Elsa-GmbH-WsZEIJLotFBPK-QLpVye7w?dwhat=garrage&dwhere=zurich	Garage Elsa GmbH	Heinrichstrasse 210	 8005 Zürich	043 928 30 30	www.garage-elsa.ch	
zurich	garrage	N/A	http://yellow.local.ch/en/d/Zurich/8050/Garage/Mercedes-Benz-Automobil-AG-KsdUN_xbKpPE4jV-qKn3qA?dwhat=garrage&dwhere=zurich	Mercedes-Benz Automobil AG	Hagenholzstrasse 111	 8050 Zürich	044 308 11 11	www.merbagretail.ch/zhnord	
zurich	garrage	N/A	http://yellow.local.ch/en/d/Zurich/8057/Garage/Punto-Auto-GmbH-e_uJS6fFkoscUsENBPcNQQ?dwhat=garrage&dwhere=zurich	Punto Auto GmbH	Winterthurerstrasse 297	 8057 Zürich	044 734 33 13	www.puntoauto.ch	
zurich	garrage	N/A	http://yellow.local.ch/en/d/Zurich/8050/Garage/DOnofrio-Sohn-AG-507ojy2WHCoDkwmhw0wPGA?dwhat=garrage&dwhere=zurich	D'Onofrio + Sohn AG	Schwamendingenstrasse 30	 8050 Zürich	044 311 34 84	www.garage-donofrio.ch	
zurich	garrage	N/A	http://yellow.local.ch/en/d/Zurich/8057/Garage/GarageKing-dWxOpvP-UYRjZhnIKCVXdg?dwhat=garrage&dwhere=zurich	GarageKing	Winterthurerstrasse 368	 8057 Zürich	044 320 04 50	www.garageking.ch	
zurich	garrage	N/A	http://yellow.local.ch/en/d/Zurich/8004/Garage/Mercedes-Benz-Automobil-AG-Ogb2vq-pmmgUJjrEcgPjvw?dwhat=garrage&dwhere=zurich	Mercedes-Benz Automobil AG	Badenerstrasse 119	 8004 Zürich	044 245 82 82	www.merbagretail.ch/city	
zurich	garrage	N/A	http://yellow.local.ch/en/d/Zurich/8004/Motorcycles-and-scooters/Holliger-AG-i0uuSUYNhuRcyKLSOCFvnA?dwhat=garrage&dwhere=zurich	Holliger AG	Schöneggstrasse 10-12	 8004 Zürich	044 242 68 65	www.hondacenter.ch	
zurich	garrage	N/A	http://yellow.local.ch/en/d/Zurich/8052/Garage/Amsler-Rudolf-Pkn8Y-bgYfq0Ch4CeTUqfg?dwhat=garrage&dwhere=zurich	Amsler Rudolf	Glatttalstrasse 75	 8052 Zürich	044 301 17 22	www.vwaudigarage.ch	
zurich	garrage	N/A	http://yellow.local.ch/en/d/Zurich/8032/Garage/Garage-Sommerhalder-AG-Z-Rpdu_uBBWas8G7tKsk6g?dwhat=garrage&dwhere=zurich	Garage Sommerhalder AG	Kapfsteig 1 /Ecke Forchstr. 205	 8032 Zürich	044 381 55 50	www.sommerhalder.ch	
zurich	garrage	N/A	http://yellow.local.ch/en/d/Zurich/8045/Garage/Garage-Wiedikon-Bruno-Cajacob-AG-TBlXLKpj0xd2Km4xRJtLiA?dwhat=garrage&dwhere=zurich	Garage Wiedikon Bruno Cajacob AG	Grubenstrasse 32	 8045 Zürich	044 463 22 33	www.garagewiedikonag.ch	
zurich	garrage	N/A	http://yellow.local.ch/en/d/Zurich/8038/Garage/Kalchbuhl-Garage-AG-Riv8mDa7TDBAYLEWIk__Bg?dwhat=garrage&dwhere=zurich	Kalchbühl-Garage AG	Thujastrasse 4	 8038 Zürich	043 399 85 85	www.kalchbuehl.ch	
zurich	garrage	N/A	http://yellow.local.ch/en/d/Zurich/8032/Garage/Besozzi-Gregor-gWGlAe8sHO2-8sQ4aA1N3g?dwhat=garrage&dwhere=zurich	Besozzi Gregor	Merkurstrasse 18	 8032 Zürich	044 383 83 66	www.besozzi.ch	
zurich	garrage	N/A	http://yellow.local.ch/en/d/Zurich/8048/Garage/Barcal-Gerald-Automobile-AG-Je5HmedBeHuIWPLuT0cyIA?dwhat=garrage&dwhere=zurich	Barcal Gerald Automobile AG	Farbhofstrasse 21	 8048 Zürich	044 492 56 56	www.barcalauto.ch	
zurich	garrage	N/A	http://yellow.local.ch/en/d/Zurich/8050/Garage/City-Motors-GmbH-FubKkaEt1s9OEhyMaT6iJw?dwhat=garrage&dwhere=zurich	City Motors GmbH	Schaffhauserstrasse 373	 8050 Zürich	044 311 33 46	www.citymotors.ch	
zurich	garrage	N/A	http://yellow.local.ch/en/d/Zurich/8046/Garage/Hurstwald-Garage-AG-Y8sVV4HzkAVyetI0FUt4yQ?dwhat=garrage&dwhere=zurich	Hürstwald-Garage AG	Fronwaldstrasse 15	 8046 Zürich	044 371 55 44	www.huerstwald-garage.ch	
zurich	garrage	N/A	http://yellow.local.ch/en/d/Zurich/8004/Garage/Britishmotors-Autodoktor-L0hQdlV5ro0gv6GgrNgCpw?dwhat=garrage&dwhere=zurich	Britishmotors Autodoktor	Badenerstrasse 382a	 8004 Zürich	043 557 62 63	www.britishmotors.ch	
zurich	garrage	N/A	http://yellow.local.ch/en/d/Zurich/8032/Garage/Garage-Johann-Frei-AG-WX9wOMKdX-jIIfbMbU2O0Q?dwhat=garrage&dwhere=zurich	Garage Johann Frei AG	Hammerstrasse 85	 8032 Zürich	044 381 18 00		
zurich	garrage	N/A	http://yellow.local.ch/en/d/Zurich/8050/Garage/Henri-Muller-Automobile-AG-J0CdShAlleQRds75WmLGeg?dwhat=garrage&dwhere=zurich	Henri Müller Automobile AG	Hofwiesenstrasse 289	 8050 Zürich	044 201 43 53	www.muellerautomobile.ch	
zurich	garrage	N/A	http://yellow.local.ch/en/d/Zurich/8050/Garage/Hansa-Garage-AG-lY92VZ-S_yrCkBp2ymygig?dwhat=garrage&dwhere=zurich	Hansa-Garage AG	Siewerdtstrasse 99	 8050 Zürich	043 205 07 70	www.hansagarage.ch	
zurich	garrage	N/A	http://yellow.local.ch/en/d/Zurich/8003/Garage/Bernina-02tVtU73q0fNFCWENmS6FQ?dwhat=garrage&dwhere=zurich	Bernina	Bremgartnerstrasse 10	 8003 Zürich	044 463 78 88	www.berninagarage.ch	
zurich	garrage	N/A	http://yellow.local.ch/en/d/Zurich/8050/Garage/ProAuto-GmbH-Oerlikon-NTr143iIYtwn7hePlRkXXQ?dwhat=garrage&dwhere=zurich	ProAuto GmbH Oerlikon	Thurgauerstrasse 39	 8050 Zürich	044 312 13 13		
zurich	garrage	N/A	http://yellow.local.ch/en/d/Zurich/8004/Garage/Holliger-Automobile-AG-pymlQ1rrFIJXe8z7aFoS1Q?dwhat=garrage&dwhere=zurich	Holliger Automobile AG	Neufrankengasse 9	 8004 Zürich	044 291 05 05	www.holligerauto.ch	
zurich	garrage	N/A	http://yellow.local.ch/en/d/Zurich/8046/Tires-tire-service/Pneuhaus-Unterdorf-GmbH-olKcSW_pdkmYw4jt8wIU1Q?dwhat=garrage&dwhere=zurich	Pneuhaus-Unterdorf GmbH	Wehntalerstrasse 561	 8046 Zürich	044 371 44 55	www.pneuhaus-unterdorf.ch	
zurich	garrage	N/A	http://yellow.local.ch/en/d/Zurich/8064/Garage/Hausermann-Automobile-AG-aJYhqIeDWiNiVUREWl4nqg?dwhat=garrage&dwhere=zurich	Häusermann Automobile AG	Bernerstrasse Nord 188	 8064 Zürich	044 435 36 36	www.autohaeusermann.ch	
zurich	garrage	N/A	http://yellow.local.ch/en/d/Zurich/8005/Garage/Miggiano-Fernando-B05DX9-yAeCdZyf832HI_Q?dwhat=garrage&dwhere=zurich	Miggiano Fernando	Limmatstrasse 195	 8005 Zürich	044 272 95 54	www.garagemiggiano.ch	
zurich	garrage	N/A	http://yellow.local.ch/en/d/Zurich/8037/Garage/Garage-HU-Eugster-AG-jRkMJXHM8s2EpeaCCYFGNA?dwhat=garrage&dwhere=zurich	Garage H.U. Eugster AG	Nordstrasse 124	 8037 Zürich	044 360 23 33	www.garageeugster.ch	
zurich	garrage	N/A	http://yellow.local.ch/en/d/Zurich/8046/Garage/Garage-Schneider-AG-igLOyzdyrBA08TdVxR5Epw?dwhat=garrage&dwhere=zurich	Garage Schneider AG	Wehntalerstrasse 276	 8046 Zürich	044 311 78 16	www.motoschneider.ch	
zurich	garrage	N/A	http://yellow.local.ch/en/d/Zurich/8008/Garage/Porsche-Zentrum-Zurich-3n5lLODVFJlutWioANSxZw?dwhat=garrage&dwhere=zurich	Porsche Zentrum Zürich	Dufourstrasse 182-188	 8008 Zürich	044 269 59 59	www.porsche-zuerich.ch/porsche/Riesbach/de/Home.html	
zurich	garrage	N/A	http://yellow.local.ch/en/d/Zurich/8050/Car-dealership/Baumann-Sternengarage-AG-2e0Pyv5LfAGlNWSs0rmHWg?dwhat=garrage&dwhere=zurich	Baumann Sternengarage AG	Baumackerstrasse 8	 8050 Zürich	044 311 85 65		
zurich	garrage	N/A	http://yellow.local.ch/en/d/Zurich/8037/Garage/Auto-Elektro-Garage-Raymond-Crestani-9zgy2JvJl01kuSHmHG2GMA?dwhat=garrage&dwhere=zurich	Auto-Elektro-Garage Raymond Crestani	Hönggerstrasse 14	 8037 Zürich	044 272 77 22		
zurich	garrage	N/A	http://yellow.local.ch/en/d/Zurich/8003/Garage/Franz-AG-Se7Cla3WtOKRjrDS-nglqA?dwhat=garrage&dwhere=zurich	Franz AG	Badenerstrasse 329	 8003 Zürich	044 498 11 11		
zurich	garrage	N/A	http://yellow.local.ch/en/d/Zurich/8048/New-and-used-cars/Kindlimann-AG-Zurich-C7YHlB9aBzJ6JKDK8-gkow?dwhat=garrage&dwhere=zurich	Kindlimann AG Zürich	Herrligstrasse 39	 8048 Zürich	044 431 00 00		
zurich	garrage	N/A	http://yellow.local.ch/en/d/Zurich/8037/Garage/Porsche-Service-Zentrum-Zurich-City-94JgJj5rTbh45QXlnwDgtg?dwhat=garrage&dwhere=zurich	Porsche Service Zentrum Zürich City	Nordstrasse 124	 8037 Zürich	044 360 23 34		
zurich	garrage	N/A	http://yellow.local.ch/en/d/Zurich/8001/Couple-and-family-therapy/Medizinisches-Zentrum-Lowenstrasse-SafGUTWkjKTK8OraLtxThg?dwhat=garrage&dwhere=zurich	Medizinisches Zentrum Löwenstrasse	Löwenstrasse 12	 8001 Zürich	044 228 70 80	www.mzg.ch	
zurich	garrage	N/A	http://yellow.local.ch/en/d/Zurich/8032/Emergency-road-assistance/24h-A-A-Abschleppdienst-Zurich-und-Umgebung-Christian-Gerny-4-NQNKkHnYheVkxWHmGtoQ?dwhat=garrage&dwhere=zurich	24h A+ A Abschleppdienst Zürich und Umgebung, Christian Gerny	Gemeindestrasse 39	 8032 Zürich	044 480 26 00		
zurich	garrage	N/A	http://yellow.local.ch/en/d/Zurich/8048/Garage/A-C-Garage-Armando-Calvano-xvMvqnLN7R2V3zplysmMGg?dwhat=garrage&dwhere=zurich	A. C. Garage Armando Calvano	Feldblumenstrasse 28	 8048 Zürich	044 432 28 63		
zurich	garrage	N/A	http://yellow.local.ch/en/d/Zurich/8048/Emergency-road-assistance/AABS-Autohilfe-Zurich-bJTQoIuUzwC4QoqXBGQWvQ?dwhat=garrage&dwhere=zurich	AABS Autohilfe Zürich	Hohlstrasse 419	 8048 Zürich	044 493 33 33		
zurich	garrage	N/A	http://yellow.local.ch/en/d/Zurich/8050/Garage/Allenmoos-Garage-GmbH-Oaci_VlmZIfEg7CJYyCCaQ?dwhat=garrage&dwhere=zurich	Allenmoos Garage GmbH	Hofwiesenstrasse 268	 8050 Zürich	044 311 62 63		
zurich	garrage	N/A	http://yellow.local.ch/en/d/Zurich/8037/Garage/Am-Wasser-REk1D-CIbgIK8v7Bm1JRJg?dwhat=garrage&dwhere=zurich	Am Wasser	Breitensteinstrasse 51	 8037 Zürich	044 433 11 20		
zurich	garrage	N/A	http://yellow.local.ch/en/d/Zurich/8047/Garage/AMAG-Audi-Center-Zurich-Altstetten-eejhv-6crO-OJJwfjN9YkA?dwhat=garrage&dwhere=zurich	AMAG Audi Center Zürich Altstetten	Rautistrasse 23	 8047 Zürich	044 405 68 68		
zurich	garrage	N/A	http://yellow.local.ch/en/d/Zurich/8008/Garage/AMAG-Utoquai-XcWO8Hn7fOeM-MhqXsUR4w?dwhat=garrage&dwhere=zurich	AMAG Utoquai	Utoquai 47/49	 8008 Zürich	044 269 51 51		
zurich	garrage	N/A	http://yellow.local.ch/en/d/Zurich/8004/Garage/Auto-Point-AG-XdZFPV8yrPdfKx37cMNqLw?dwhat=garrage&dwhere=zurich	Auto Point AG	Badenerstrasse 360	 8004 Zürich	044 492 13 11		
zurich	garrage	N/A	http://yellow.local.ch/en/d/Zurich/8046/Garage/Autocenter-Portmann-GmbH-HYs2SnAtVQgV-lwgj7nP4A?dwhat=garrage&dwhere=zurich	Autocenter Portmann GmbH	Wehntalerstrasse 567	 8046 Zürich	044 482 38 32		
zurich	garrage	N/A	http://yellow.local.ch/en/d/Zurich/8051/Garage/Autofina-AG-3CBjibpO3AapRAy13LV39w?dwhat=garrage&dwhere=zurich	Autofina AG	Ueberlandstrasse 34	 8051 Zürich	044 321 70 00		
zurich	garrage	N/A	http://yellow.local.ch/en/d/Zurich/8057/Tires-tire-service/AUTOGARAGE-MILCHBUCK-GmbH-xyLn76xfvwBQQfE5mjq6Og?dwhat=garrage&dwhere=zurich	AUTOGARAGE MILCHBUCK GmbH	Wehntalerstrasse 23	 8057 Zürich	043 343 19 50		
zurich	garrage	N/A	http://yellow.local.ch/en/d/Zurich/8003/Garage/Autogarage-Zurlinde-GmbH-SDxPh4mQueQis4PnXCfjGQ?dwhat=garrage&dwhere=zurich	Autogarage Zurlinde GmbH	Zurlindenstrasse 218a	 8003 Zürich	043 810 55 00		
zurich	garrage	N/A	http://yellow.local.ch/en/d/Zurich/8051/New-and-used-cars/Autohaus-Zurich-Nord-GmbH-Mm8NMX3az1FaNL4uWrluhg?dwhat=garrage&dwhere=zurich	Autohaus Zürich Nord GmbH	Winterthurerstrasse 580	 8051 Zürich	044 321 61 88		
zurich	garrage	N/A	http://yellow.local.ch/en/d/Zurich/8047/Garage/Autoklinik-Albisrieden-d1-FL9sgHRptJbKkU6zstw?dwhat=garrage&dwhere=zurich	Autoklinik Albisrieden	Langgrütstrasse 104	 8047 Zürich	043 321 91 91		
zurich	garrage	N/A	http://yellow.local.ch/en/d/Zurich/8006/Garage/Beckenhofgarage-Dell-Anna-WI0e7jA6c-K91VKCVl0jLA?dwhat=garrage&dwhere=zurich	Beckenhofgarage Dell' Anna	Laurenzgasse 12	 8006 Zürich	044 362 09 04		
zurich	garrage	N/A	http://yellow.local.ch/en/d/Zurich/8004/Garage/Bermuda-Garage-wiyni8ZSXZ9ETIQwfYBNmw?dwhat=garrage&dwhere=zurich	Bermuda-Garage	Badenerstrasse 292	 8004 Zürich	044 273 48 00		
zurich	garrage	N/A	http://yellow.local.ch/en/d/Zurich/8004/New-and-used-cars/Binelli-Ehrsam-AG-YZpXltYlDj9kB5S5tNGx_A?dwhat=garrage&dwhere=zurich	Binelli & Ehrsam AG	Pflanzschulstrasse 7-9 /Ecke Badenerstr. 190	 8004 Zürich	044 298 98 98		
zurich	garrage	N/A	http://yellow.local.ch/en/d/Zurich/8046/Garage/Binzmuhle-Garage-bVKuRUUG9-vFUnT8MdNd-A?dwhat=garrage&dwhere=zurich	Binzmühle-Garage	Wehntalerstrasse 585	 8046 Zürich	044 370 17 07		
zurich	garrage	N/A	http://yellow.local.ch/en/d/Zurich/8051/Garage/Blitz-Garage-AG-HM_CoMUYj8UHq_f7SE4m8A?dwhat=garrage&dwhere=zurich	Blitz Garage AG	Winterthurerstrasse 725	 8051 Zürich	044 322 88 11		
zurich	garrage	N/A	http://yellow.local.ch/en/d/Zurich/8002/Garage/BRUNAU-GARAGE-Stocker-Doris-Rk2s6bau9GMQQp-CgLy0Wg?dwhat=garrage&dwhere=zurich	BRUNAU GARAGE Stocker Doris	Brunaustrasse 89	 8002 Zürich	044 202 53 55		
zurich	garrage	N/A	http://yellow.local.ch/en/d/Zurich/8003/Garage/Car-and-Motorbike-Zurich-GmbH-2PzUCc_2fLkw0IM2Kt3t6g?dwhat=garrage&dwhere=zurich	Car and Motorbike Zürich GmbH	Weststrasse 79	 8003 Zürich	044 462 63 47		
zurich	garrage	N/A	http://yellow.local.ch/en/d/Zurich/8046/Garage/CARfactory-GmbH-6hmArCLtHEei5P_cobvH-g?dwhat=garrage&dwhere=zurich	CARfactory GmbH	Wehntalerstrasse 505	 8046 Zürich	076 370 71 71		
zurich	garrage	N/A	http://yellow.local.ch/en/d/Zurich/8051/Garage/Carrosserie-Spritzwerk-Memo-5oR6jZZ9W9Wwrr7SugOpUg?dwhat=garrage&dwhere=zurich	Carrosserie & Spritzwerk Memo	Engelbertstrasse 23	 8051 Zürich	076 452 57 51		
zurich	garrage	N/A	http://yellow.local.ch/en/d/Zurich/8048/Garage/Carsen-Automobile-AG-0fnY7BFKSGWWYgZS7nX5Zg?dwhat=garrage&dwhere=zurich	Carsen Automobile AG	Hohlstrasse 452	 8048 Zürich	044 400 10 80		
zurich	garrage	N/A	http://yellow.local.ch/en/d/Zurich/8004/Garage/carXpert-Stadthalle-Garage-GmbH-hIIe-PAbrKUXSqqkP4GjVg?dwhat=garrage&dwhere=zurich	carXpert Stadthalle-Garage GmbH	Morgartenstrasse 5	 8004 Zürich	044 241 77 66		
zurich	garrage	N/A	http://yellow.local.ch/en/d/Zurich/8052/New-and-used-cars/Corner-Garage-Zurich-GmbH-1TLlliHljPg2c3NzaNegdg?dwhat=garrage&dwhere=zurich	Corner Garage Zürich GmbH	Schaffhauserstrasse 519	 8052 Zürich	044 302 43 00		
zurich	garrage	N/A	http://yellow.local.ch/en/d/Zurich/8048/Garage/Costantini-Antonio-2DQC0p5HxgxSnLNscY25tw?dwhat=garrage&dwhere=zurich	Costantini Antonio	Badenerstrasse 531	 8048 Zürich	044 491 31 60		
zurich	garrage	N/A	http://yellow.local.ch/en/d/Zurich/8051/Garage/Derrer-AG-XEvRuultZ9nSDNUeqMmDOw?dwhat=garrage&dwhere=zurich	Derrer AG	Luegislandstrasse 392	 8051 Zürich	044 322 99 33		
zurich	garrage	N/A	http://yellow.local.ch/en/d/Zurich/8047/Garage/Dobeli-Jorg-HJhSSlfTBHS162BPANtqoQ?dwhat=garrage&dwhere=zurich	Döbeli Jörg	Langgrütstrasse 104	 8047 Zürich	043 321 91 91		
zurich	garrage	N/A	http://yellow.local.ch/en/d/Zurich/8055/Garage/Dutli-AG-_RVfYEZZjtwhYs4SR4fyFw?dwhat=garrage&dwhere=zurich	Dutli AG	Birmensdorferstrasse 400	 8055 Zürich	044 463 67 51		
zurich	garrage	N/A	http://yellow.local.ch/en/d/Zurich/8048/Garage/Fiat-Center-Suisse-SA-5M1WcrtMnqAbr8BTXapFOA?dwhat=garrage&dwhere=zurich	Fiat Center (Suisse) SA	Freihofstrasse 25	 8048 Zürich	044 405 77 55		
zurich	garrage	N/A	http://yellow.local.ch/en/d/Zurich/8008/Garage/Firrone-V-zD8h1FU98kV_8g77Tg6ufg?dwhat=garrage&dwhere=zurich	Firrone V.	Reinhardstrasse 12	 8008 Zürich	044 261 17 12		
zurich	garrage	N/A	http://yellow.local.ch/en/d/Zurich/8038/Garage/Franz-AG-wjKopCe4TSpal77EtX_CqA?dwhat=garrage&dwhere=zurich	Franz AG	Mythenquai 353	 8038 Zürich	044 487 24 24		
zurich	garrage	N/A	http://yellow.local.ch/en/d/Zurich/8051/Garage/Friedrich-Heinz-Tlw9Che3MGoh9IAl8WdNHA?dwhat=garrage&dwhere=zurich	Friedrich Heinz	Winterthurerstrasse 449	 8051 Zürich	044 322 20 40		
zurich	garrage	N/A	http://yellow.local.ch/en/d/Zurich/8048/Garage/Furka-YBm7Mm6H4nAVLRwHuxlYvg?dwhat=garrage&dwhere=zurich	Furka	Furkastrasse 8	 8048 Zürich	044 431 66 01		
zurich	garrage	N/A	http://yellow.local.ch/en/d/Zurich/8057/Garage/Garage-AGENTARA-GmbH-W8iPNpkmsWekSSSXzE1IYQ?dwhat=garrage&dwhere=zurich	Garage AGENTARA GmbH	Winterthurerstrasse 281	 8057 Zürich	044 311 60 44		
zurich	garrage	N/A	http://yellow.local.ch/en/d/Zurich/8051/Garage/Garage-Auto-Piu-xguMmZ12THz0NPO6vF3t1A?dwhat=garrage&dwhere=zurich	Garage Auto Piu	Winterthurerstrasse 449	 8051 Zürich	044 321 56 56		
zurich	garrage	N/A	http://yellow.local.ch/en/d/Zurich/8048/Garage/Garage-Baggieri-K_k19QmVe9E-CDZwFBRmKQ?dwhat=garrage&dwhere=zurich	Garage Baggieri	Baslerstrasse 125	 8048 Zürich	044 432 07 08		
zurich	garrage	N/A	http://yellow.local.ch/en/d/Zurich/8002/Garage/Garage-Baur-au-Lac-y9WJuBPFeSfxr0zpbolE7w?dwhat=garrage&dwhere=zurich	Garage Baur au Lac	Glärnischstrasse 18	 8002 Zürich	044 220 50 53		
zurich	garrage	N/A	http://yellow.local.ch/en/d/Zurich/8003/Garage/Garage-D-B-GmbH-ME0dC0WZyHThsSvQUtvuEg?dwhat=garrage&dwhere=zurich	Garage D & B GmbH	Zurlindenstrasse 191	 8003 Zürich	044 451 37 51		
zurich	garrage	N/A	http://yellow.local.ch/en/d/Zurich/8006/New-and-used-cars/Garage-Dell-Anna-dTZRHUSNLDfB9cCv7NfSrw?dwhat=garrage&dwhere=zurich	Garage Dell' Anna	Culmannstrasse 60	 8006 Zürich	044 362 08 77		
zurich	garrage	N/A	http://yellow.local.ch/en/d/Zurich/8045/Garage/Garage-Koradi-yyYuuIRAzEKb1prcjapTfA?dwhat=garrage&dwhere=zurich	Garage Koradi	Austrasse 7	 8045 Zürich	044 242 70 79		
zurich	garrage	N/A	http://yellow.local.ch/en/d/Zurich/8050/Garage/Garage-Kottmann-7C2F1QoR8ZhF6W66c14Bgg?dwhat=garrage&dwhere=zurich	Garage Kottmann	Regensbergstrasse 244	 8050 Zürich	044 311 58 57		
zurich	garrage	N/A	http://yellow.local.ch/en/d/Zurich/8064/Garage/Garage-Seeberger-AG-KofN9EW8dnqdAGUlb4WM2w?dwhat=garrage&dwhere=zurich	Garage Seeberger AG	Tüffenwies 40	 8064 Zürich	044 491 59 40		
zurich	garrage	N/A	http://yellow.local.ch/en/d/Zurich/8057/Garage/Garage-Weinmann-AG-CrBE0ZB73OccRUuyAh9dOw?dwhat=garrage&dwhere=zurich	Garage Weinmann AG	Berninastrasse 7	 8057 Zürich	044 313 00 15		
zurich	garrage	N/A	http://yellow.local.ch/en/d/Zurich/8038/Garage/Garage-Wild-AG-Zurich-Txm4iZVRqZsRD62BplTkaQ?dwhat=garrage&dwhere=zurich	Garage Wild AG Zürich	Albisstrasse 135	 8038 Zürich	044 482 17 00		
zurich	garrage	N/A	http://yellow.local.ch/en/d/Zurich/8037/Garage/Garage-Wipkingen-Qajani-vqo_EhQggIYVax4j5u3PRA?dwhat=garrage&dwhere=zurich	Garage Wipkingen, Qajani	Hönggerstrasse 14	 8037 Zürich	044 271 75 77		
zurich	garrage	N/A	http://yellow.local.ch/en/d/Zurich/8005/Garage/Garage-Zairi-Z6l-RCBA9eZXjs0WNS3yHA?dwhat=garrage&dwhere=zurich	Garage Zairi	Pfingstweidstrasse 29	 8005 Zürich	044 272 05 68		
zurich	garrage	N/A	http://yellow.local.ch/en/d/Zurich/8006/Garage/Garage-Zurichberg-E-Wust-wGEgfwLp0ZDevsG66-nhQQ?dwhat=garrage&dwhere=zurich	Garage Zürichberg E. Wüst	Huttenstrasse 63	 8006 Zürich	044 251 86 00		
zurich	garrage	N/A	http://yellow.local.ch/en/d/Zurich/8057/Garage/Glattspitz-ol1Ld3DCexeP6uivQP3b6Q?dwhat=garrage&dwhere=zurich	Glattspitz	Winterthurerstrasse 374	 8057 Zürich	044 322 52 48		
zurich	garrage	N/A	http://yellow.local.ch/en/d/Zurich/8048/Garage/Gostner-GmbH-T5QrQKOGedUaDPpmYxZjYg?dwhat=garrage&dwhere=zurich	Gostner GmbH	Altstetterstrasse 155	 8048 Zürich	044 431 29 29		
zurich	garrage	N/A	http://yellow.local.ch/en/d/Zurich/8050/Garage/Heussi-7lI-9-K8wSnrQI4RjJLTjA?dwhat=garrage&dwhere=zurich	Heussi	Rickenstrasse 6	 8050 Zürich	044 302 09 05		
zurich	garrage	N/A	http://yellow.local.ch/en/d/Zurich/8051/Garage/Hirschen-Garage-Stefan-Muller-dJCT_WYFTZiTSm8olm2PVQ?dwhat=garrage&dwhere=zurich	Hirschen-Garage Stefan Müller	Winterthurerstrasse 468	 8051 Zürich	044 322 50 50		
zurich	garrage	N/A	http://yellow.local.ch/en/d/Zurich/8051/Motorcycles-and-scooters/Josts-Toff-Lade-AG-17OCvVmaNaar8AczdnhuyQ?dwhat=garrage&dwhere=zurich	Jost's Töff-Lade AG	Herzogenmühlestrasse 20	 8051 Zürich	044 322 49 08		
zurich	garrage	N/A	http://yellow.local.ch/en/d/Zurich/8001/Garage/Kaufleuten-S3k2tUcmWv5uAgs0HTa0Fw?dwhat=garrage&dwhere=zurich	Kaufleuten	Talacker 34	 8001 Zürich	044 211 02 11		
zurich	garrage	N/A	http://yellow.local.ch/en/d/Zurich/8055/Garage/Klappag-SA-85xoKtmnC2JSyobcnSWo4A?dwhat=garrage&dwhere=zurich	Klappag SA	Birmensdorferstrasse 256	 8055 Zürich	044 463 55 75		
zurich	garrage	N/A	http://yellow.local.ch/en/d/Zurich/8032/Garage/Klausner-AG-Garage-Elefant-b4g5C3T3KVzvzSqtlC4f0A?dwhat=garrage&dwhere=zurich	Klausner AG, Garage Elefant	Hofackerstrasse 74	 8032 Zürich	044 381 47 17		
zurich	garrage	N/A	http://yellow.local.ch/en/d/Zurich/8032/Garage/Klus-Garage-AG-x8Al6c9zL44_b0e19GzERg?dwhat=garrage&dwhere=zurich	Klus-Garage AG	Asylstrasse 133	 8032 Zürich	043 499 15 99		
zurich	garrage	N/A	http://yellow.local.ch/en/d/Zurich/8004/Garage/Koller-LPNm-KlJpnLeCWo9uKRPcA?dwhat=garrage&dwhere=zurich	Koller	Bullingerstrasse 73	 8004 Zürich	044 492 06 95		
zurich	garrage	N/A	http://yellow.local.ch/en/d/Zurich/8032/Garage/Kreuzgarage-PXWOjiTGWzVJcsxW06JaMg?dwhat=garrage&dwhere=zurich	Kreuzgarage	Merkurstrasse 18	 8032 Zürich	044 262 45 15		
zurich	garrage	N/A	http://yellow.local.ch/en/d/Zurich/8047/Garage/Letzi-Auto-Service-GmbH-5q4juR0OfBxy9OfyFUVFzA?dwhat=garrage&dwhere=zurich	Letzi-Auto-Service GmbH	Letzigraben 114	 8047 Zürich	044 492 26 26		
zurich	garrage	N/A	http://yellow.local.ch/en/d/Zurich/8057/Garage/Liberty-NtUgt1GEorl7Tp2FlVEY7A?dwhat=garrage&dwhere=zurich	Liberty	Berninastrasse 32	 8057 Zürich	044 311 57 57		
zurich	garrage	N/A	http://yellow.local.ch/en/d/Zurich/8005/Car-dealership/Limmat-Garage-AG-8jE79vz1S3-OhRzoIHICMg?dwhat=garrage&dwhere=zurich	Limmat-Garage AG	Gasometerstrasse 35	 8005 Zürich	044 272 10 11		
zurich	garrage	N/A	http://yellow.local.ch/en/d/Zurich/8048/Garage/Motor-Village-Zurich-4Gm9-AeWFgGJu77U4QX91A?dwhat=garrage&dwhere=zurich	Motor Village Zürich	Freihofstrasse 25	 8048 Zürich	044 405 77 55		
zurich	garrage	N/A	http://yellow.local.ch/en/d/Zurich/8038/Garage/Ofner-AG-Garage-4rSWPaOM56YMj2p1PVGsOg?dwhat=garrage&dwhere=zurich	Ofner AG Garage	Mööslistrasse 1	 8038 Zürich	044 482 15 02		
zurich	garrage	N/A	http://yellow.local.ch/en/d/Zurich/8037/Garage/Os-Auto-Garage-Draii-84ncOB6ZhJLngUvJ-ruvVg?dwhat=garrage&dwhere=zurich	Os. Auto Garage Draii	Lägernstrasse 28	 8037 Zürich	043 538 47 50		
zurich	garrage	N/A	http://yellow.local.ch/en/d/Zurich/8046/Garage/Pacific-Motors-AG-wtr8t9drqu9K6VlzBZnsdA?dwhat=garrage&dwhere=zurich	Pacific Motors AG	Wehntalerstrasse 625	 8046 Zürich	043 299 10 10		
zurich	garrage	N/A	http://yellow.local.ch/en/d/Zurich/8048/Garage/Pacific-Motors-AG-fGEsm8ZspmSl6Y2JZr_uPw?dwhat=garrage&dwhere=zurich	Pacific Motors AG	Badenerstrasse 567	 8048 Zürich	043 205 11 11		
zurich	garrage	N/A	http://yellow.local.ch/en/d/Zurich/8051/Automotive-electronics/Portmann-Jos-AG-oOmfV0TYL5yyl0sTJ0orAg?dwhat=garrage&dwhere=zurich	Portmann Jos. AG	Winterthurerstrasse 455	 8051 Zürich	044 361 02 44		
zurich	garrage	N/A	http://yellow.local.ch/en/d/Zurich/8037/Garage/Preisig-Roger-C5U8t5w4Vl_seS_qvu9ILQ?dwhat=garrage&dwhere=zurich	Preisig Roger	Scheffelstrasse 16	 8037 Zürich	044 271 99 66		
zurich	garrage	N/A	http://yellow.local.ch/en/d/Zurich/8048/Garage/Rauti-Garage-GmbH-yqDXGoAkticLWEzInZtelg?dwhat=garrage&dwhere=zurich	Rauti Garage GmbH	Altstetterstrasse 200	 8048 Zürich	044 431 42 40		
zurich	garrage	N/A	http://yellow.local.ch/en/d/Zurich/8057/Garage/RE-Car-Electronics-yVqb7XQYAqNPGsGVGV3zLg?dwhat=garrage&dwhere=zurich	RE Car Electronics	Wehntalerstrasse 7	 8057 Zürich	044 361 22 22		
zurich	garrage	N/A	http://yellow.local.ch/en/d/Zurich/8004/Okasion/Rex-Automobile-GmbH-9nD7_PiCKd0tvcyytD8X4Q?dwhat=garrage&dwhere=zurich	Rex Automobile GmbH	Stierliweg 10	 8004 Zürich	044 517 88 24		
zurich	garrage	N/A	http://yellow.local.ch/en/d/Zurich/8049/Garage/Riedhof-w6xz3uFrBn6OqYlt6NWhaw?dwhat=garrage&dwhere=zurich	Riedhof	Riedhofweg 35	 8049 Zürich	044 341 72 26		
zurich	garrage	N/A	http://yellow.local.ch/en/d/Zurich/8006/Garage/Ruedi-Muller-2rgXplnbh9j5K5ibUwwv0w?dwhat=garrage&dwhere=zurich	Ruedi Müller	Weinbergstrasse 62	 8006 Zürich	044 363 36 36		
zurich	garrage	N/A	http://yellow.local.ch/en/d/Zurich/8057/Garage/Santoro-L-MoHd3w0gatBZRi35SCRE_w?dwhat=garrage&dwhere=zurich	Santoro L.	Dörflistrasse 4	 8057 Zürich	044 312 15 75		
zurich	garrage	N/A	http://yellow.local.ch/en/d/Zurich/8048/Garage/Satta-Paolo-vc3qkwp1f_Y6d3iZnLDilw?dwhat=garrage&dwhere=zurich	Satta Paolo	Hermetschloostrasse 75	 8048 Zürich	044 430 30 13		
zurich	garrage	N/A	http://yellow.local.ch/en/d/Zurich/8052/Garage/Scarcella-Salvatore-RufRkhtL2TgfDu5ZaxXNvw?dwhat=garrage&dwhere=zurich	Scarcella Salvatore	Grünhaldenstrasse 40	 8052 Zürich	044 302 68 32		
zurich	garrage	N/A	http://yellow.local.ch/en/d/Zurich/8038/Garage/Schafer-Beat-z8LxNij_e1QOc1ONT0UROQ?dwhat=garrage&dwhere=zurich	Schäfer Beat	Bachstrasse 11 /Mythenquai 383	 8038 Zürich	044 483 00 83		
zurich	garrage	N/A	http://yellow.local.ch/en/d/Zurich/8052/Garage/Seebach-wrI3gpY5Yt2V0MCg3yNGBQ?dwhat=garrage&dwhere=zurich	Seebach	Stiglenstrasse 27	 8052 Zürich	044 301 03 17		
zurich	garrage	N/A	http://yellow.local.ch/en/d/Zurich/8064/Car-dealership/Seeberger-AG-Garage-a8cRyHnDSfDpGHH-j1t0AA?dwhat=garrage&dwhere=zurich	Seeberger AG Garage	Tüffenwies 40	 8064 Zürich	044 491 59 40		
zurich	garrage	N/A	http://yellow.local.ch/en/d/Zurich/8051/Garage/Siewerdt-Garage-AG-iUIJLZdwFiqdsf2GEQ0-Rg?dwhat=garrage&dwhere=zurich	Siewerdt-Garage AG	Winterthurerstrasse 455	 8051 Zürich	044 322 28 49		
zurich	garrage	N/A	http://yellow.local.ch/en/d/Zurich/8048/Garage/Sisto-hbyICPifhVY5zCJQ-qUAVQ?dwhat=garrage&dwhere=zurich	Sisto	Hohlstrasse 403	 8048 Zürich	044 492 29 28		
zurich	garrage	N/A	http://yellow.local.ch/en/d/Zurich/8038/Garage/SOCAR-Seebucht-Garage-q8mIP4HO_xxdbi4x-5iu1A?dwhat=garrage&dwhere=zurich	SOCAR Seebucht Garage	Seestrasse 562	 8038 Zürich	044 482 91 55		
zurich	garrage	N/A	http://yellow.local.ch/en/d/Zurich/8041/Paint-finishes/Sood-Autogarage-Bagherie-ekL4G1uCQdADaabux7MQTQ?dwhat=garrage&dwhere=zurich	Sood Autogarage Bagherie	Soodstrasse 20	 8041 Zürich	076 525 29 97		
zurich	garrage	N/A	http://yellow.local.ch/en/d/Zurich/8008/Garage/Speich-Fritz-Garage-AG-YGYwRDBTiHnICIQ1GaGDFA?dwhat=garrage&dwhere=zurich	Speich Fritz Garage AG	Dufourstrasse 29	 8008 Zürich	044 250 52 92		
zurich	garrage	N/A	http://yellow.local.ch/en/d/Zurich/8004/Garage/Stadthalle-Garage-GmbH-carXpert-g091D2uc_2kBfmF81GV2IQ?dwhat=garrage&dwhere=zurich	Stadthalle-Garage GmbH carXpert	Morgartenstrasse 5	 8004 Zürich	044 241 77 66		
zurich	garrage	N/A	http://yellow.local.ch/en/d/Zurich/8005/Garage/Stahel-D-Co-9mssnlawRZmke_K848osvA?dwhat=garrage&dwhere=zurich	Stahel D. & Co	Hardturmstrasse 161	 8005 Zürich	044 271 55 59		
zurich	garrage	N/A	http://yellow.local.ch/en/d/Zurich/8008/Garage/Stehli-Fischer-AG-Garage-Maxim-nFvqiTk4RSfo77tCI9gdvg?dwhat=garrage&dwhere=zurich	Stehli & Fischer AG Garage Maxim	Ottenweg 11	 8008 Zürich	044 251 92 44		
zurich	garrage	N/A	http://yellow.local.ch/en/d/Zurich/8050/Garage/TC-Auto-Toff-YcqWluaao_Z7xorOT_cGrg?dwhat=garrage&dwhere=zurich	TC - Auto & Töff	Eggbühlstrasse 6	 8050 Zürich	043 299 94 02		
zurich	garrage	N/A	http://yellow.local.ch/en/d/Zurich/8048/Garage/Titan-AG-i9XFh9vjcRnLXZhS8gdD5w?dwhat=garrage&dwhere=zurich	Titan AG	Badenerstrasse 549	 8048 Zürich	044 404 77 77		
zurich	garrage	N/A	http://yellow.local.ch/en/d/Zurich/8048/Garage/Titan-AG-6UY3bV-8jHY7voERCIj3xw?dwhat=garrage&dwhere=zurich	Titan AG	Badenerstrasse 527	 8048 Zürich	044 404 77 77		
zurich	garrage	N/A	http://yellow.local.ch/en/d/Zurich/8008/Garage/Unholz-Kurt-AG-39UDhsYxFC5IYq71z_4MOQ?dwhat=garrage&dwhere=zurich	Unholz Kurt AG	Flühgasse 29	 8008 Zürich	044 381 70 44		
zurich	garrage	N/A	http://yellow.local.ch/en/d/Zurich/8003/Garage/V-M-Garage-GmbH-YtMpVcllJqAXDPyafr-LxQ?dwhat=garrage&dwhere=zurich	V + M Garage GmbH	Weststrasse 119	 8003 Zürich	044 450 43 73		
zurich	garrage	N/A	http://yellow.local.ch/en/d/Zurich/8051/Garage/Vetter-AG-Vtj6l6IG3plxqSXTEKyQZw?dwhat=garrage&dwhere=zurich	Vetter AG	Heerenwiesen 18	 8051 Zürich	044 321 00 50		
zurich	garrage	N/A	http://yellow.local.ch/en/d/Zurich/8052/Garage/Vogt-J-P-imQyK9Sf0Cdt4UVHvQSQaQ?dwhat=garrage&dwhere=zurich	Vogt J. P.	Seebacherstrasse 69	 8052 Zürich	044 303 03 30		
zurich	garrage	N/A	http://yellow.local.ch/en/d/Zurich/8047/Garage/Wachter-Viktor-EWamstx209Rl6MfS_8KyGQ?dwhat=garrage&dwhere=zurich	Wachter Viktor	Fellenbergstrasse 242	 8047 Zürich	044 492 31 46		
zurich	garrage	N/A	http://yellow.local.ch/en/d/Zurich/8008/Car-body-work/Waibel-Auto-AG-d7i0vnwEklE9RG-e06ZVHw?dwhat=garrage&dwhere=zurich	Waibel Auto AG	Eingang Othmarstrasse, Mühlebachstrasse 26	 8008 Zürich	044 252 72 35		
zurich	garrage	N/A	http://yellow.local.ch/en/d/Zurich/8057/Garage/Wallishauser-R-AG-s2lR3JK_yqt-xiNInFUyhg?dwhat=garrage&dwhere=zurich	Wallishauser R. AG	Wehntalerstrasse 121	 8057 Zürich	044 344 45 55		
zurich	garrage	N/A	http://yellow.local.ch/en/d/Zurich/8046/Garage/Wehntaler-Autoservice-GmbH-taGx_RfrS5J5r4ly9R-78w?dwhat=garrage&dwhere=zurich	Wehntaler-Autoservice GmbH	Wehntalerstrasse 332	 8046 Zürich	044 371 76 69		
zurich	garrage	N/A	http://yellow.local.ch/en/d/Zurich/8047/Garage/Weinmann-Service-AG-K2Mtgp_P_suLxSv8l8a-Vg?dwhat=garrage&dwhere=zurich	Weinmann Service AG	Freilagerstrasse 25	 8047 Zürich	044 491 11 21		
zurich	garrage	N/A	http://yellow.local.ch/en/d/Zurich/8048/Garage/Weiss-AG-YeAI2u-FWKmuhLZG7p47yg?dwhat=garrage&dwhere=zurich	Weiss AG	Aargauerstrasse 252	 8048 Zürich	044 431 02 11		
zurich	garrage	N/A	http://yellow.local.ch/en/d/Zurich/8047/Garage/Wertli-Jurg-rnqTTyZvT7Drv81LXdPAEA?dwhat=garrage&dwhere=zurich	Wertli Jürg	Altstetterstrasse 331	 8047 Zürich	044 491 98 77		
zurich	garrage	N/A	http://yellow.local.ch/en/d/Zurich/8048/Garage/Wespe-Automobile-AG-OeH9dfsugiHkyi9bnYw-ZQ?dwhat=garrage&dwhere=zurich	Wespe Automobile AG	Albulastrasse 14	 8048 Zürich	044 492 88 20		
zurich	garrage	N/A	http://yellow.local.ch/en/d/Zurich/8050/Garage/Wirth-Rene-eZUYxjfclec8A1nz9jzCUA?dwhat=garrage&dwhere=zurich	Wirth René	Birchstrasse 132	 8050 Zürich	044 312 77 87		
zurich	garrage	N/A	http://yellow.local.ch/en/d/Zurich/8055/Garage/Zahnd-Peter-ok3QRxqMUqmqUxKa8EUzUA?dwhat=garrage&dwhere=zurich	Zahnd Peter	Birmensdorferstrasse 430	 8055 Zürich	044 461 18 55		
zurich	garrage	N/A	http://yellow.local.ch/en/d/Zurich/8052/Garage/Zimmermann-Garage-kg6ZWsq4n1QscWlFbIiGCQ?dwhat=garrage&dwhere=zurich	Zimmermann Garage	Glatttalstrasse 138	 8052 Zürich	044 301 08 90		
zurich	garrage	N/A	http://yellow.local.ch/en/d/Zurich/8050/Garage/Zuri-Zwolf-Garage-AG-kmyR7ulz2qoAsgS0XENLZw?dwhat=garrage&dwhere=zurich	Züri Zwölf Garage AG	Regensbergstrasse 96	 8050 Zürich	044 312 14 12		
zurich	garrage	N/A	http://yellow.local.ch/en/d/Zurich/8049/Garage/Zwicky-A-AG-mzy8NA2fwM4poAhIx8cBWQ?dwhat=garrage&dwhere=zurich	Zwicky A. AG	Riedhofstrasse 3	 8049 Zürich	044 341 62 33		
zurich	garrage	N/A	http://yellow.local.ch/en/d/Egg-b-Zurich/8132/Garage/Walter-Weber-AG-Garage-Carrosserie-Y2e6bNN1WsCrzA31HkbMPw?dwhat=garrage&dwhere=zurich	Walter Weber AG Garage & Carrosserie	Zelgmatt 38	 8132 Egg b. Zürich	044 984 57 50	www.wwcar.ch	
zurich	garrage	N/A	http://yellow.local.ch/en/d/Egg-b-Zurich/8132/Garage/Scheuren-QARCFBbM2HsEla2VvI-PiA?dwhat=garrage&dwhere=zurich	Scheuren	Forchstrasse 148	 8132 Egg b. Zürich	044 980 43 44		
zurich	garrage	N/A	http://yellow.local.ch/en/d/Egg-b-Zurich/8132/Garage/Wolfensberger-AG-8oi8azaFO4la-rP_zNiVCA?dwhat=garrage&dwhere=zurich	Wolfensberger AG	Im Hanselmaa 2	 8132 Egg b. Zürich	044 984 01 78		
zurich	garrage	N/A	http://yellow.local.ch/en/d/Zurich/8037/Automotive-electronics/Crestani-Raymond-q1pzxeI6n2tKAwda5WKr1Q?dwhat=garrage&dwhere=zurich	Crestani Raymond	Hönggerstrasse 14	 8037 Zürich	044 272 77 22		
zurich	garrage	N/A	http://yellow.local.ch/en/d/Zurich/8045/Garage-Schmidli-Zuri-cLo25SdtyW02uiykogO_bg?dwhat=garrage&dwhere=zurich	Garage Schmidli Züri	Grubenstrasse 32	 8045 Zürich	044 463 68 10		
zurich	garrage	N/A	http://yellow.local.ch/en/d/Zurich/8002/H-Krachts-Erben-AG-fryqhT9meIIjCxepUNP5Sg?dwhat=garrage&dwhere=zurich	H. Kracht's Erben AG	Glärnischstrasse 18	 8002 Zürich	044 220 50 53		
zurich	garrage	N/A	http://yellow.local.ch/en/d/Zurich/8006/Muller-Ruedi-AI7zsGheU76u-Q-Qvi2SLA?dwhat=garrage&dwhere=zurich	Müller Ruedi	Weinbergstrasse 62	 8006 Zürich	044 363 36 36		
zurich	garrage	N/A	http://yellow.local.ch/en/d/Zurich/8008/Unholz-Kurt-AG-S7rxKVZygXohHGrbVpptiQ?dwhat=garrage&dwhere=zurich	Unholz Kurt AG	Flühgasse 29-31	 8008 Zürich	044 381 70 44		
zurich	garrage	N/A	http://yellow.local.ch/en/d/Geneve/1201/Garage/Dark-Horses-kXFP8hE09ypqer9EiUwIcQ?dwhat=garrage&dwhere=zurich	Dark Horses	rue de Zurich 35	 1201 Genève	022 732 55 15	www.dark-horses.ch	
zurich	garrage	N/A	http://yellow.local.ch/en/d/Wallisellen/8304/Tires-tire-service/AGOM-Driver-Center-A_lJdVtnaz6fELMThtR-MA?dwhat=garrage&dwhere=zurich	AGOM Driver Center	Oberwiesenstrasse 4	 8304 Wallisellen	044 403 35 35	www.drivercenter.ch	
zurich	garrage	N/A	http://yellow.local.ch/en/d/Dietlikon/8305/Garage/Autohaus-Macchi-AG-bClUi_LMrec-p_hBnwTzGg?dwhat=garrage&dwhere=zurich	Autohaus Macchi AG	Bahnhofstrasse 5	 8305 Dietlikon	044 833 10 33	www.macchi.ch	
zurich	garrage	N/A	http://yellow.local.ch/en/d/Au-ZH/8804/Car-center/Autostern-Zurichsee-sDGFc9G3dDxvdoAvYQdyLg?dwhat=garrage&dwhere=zurich	Autostern Zürichsee	Seestrasse 241	 8804 Au ZH	044 782 02 02	www.autostern.ch	
zurich	garrage	N/A	http://yellow.local.ch/en/d/Zollikon/8702/Car-body-work/Carrosserie-HR-Unholz-AG-lKBAC1PFP62BVV1GEumjJA?dwhat=garrage&dwhere=zurich	Carrosserie H.R. Unholz AG	Dachslerenstrasse 10	 8702 Zollikon	044 391 55 40	www.carrosserieunholz.ch	
zurich	garrage	N/A	http://yellow.local.ch/en/d/Schlieren/8952/Garage/Citroen-Suisse-SA-0ts5FxK5v86r4986wMoTRw?dwhat=garrage&dwhere=zurich	Citroën (Suisse) SA	Zürcherstrasse 104	 8952 Schlieren	044 497 33 00	www.dealer.citroen.ch/citroen-zuerich	
zurich	garrage	N/A	http://yellow.local.ch/en/d/Schlieren/8952/Garage/DS-Automobiles-HKWW4QVYTD2gkWVUHOClCw?dwhat=garrage&dwhere=zurich	DS Automobiles	Zürcherstrasse 104	 8952 Schlieren	044 497 33 00	www.dsautomobiles.ch	
zurich	garrage	N/A	http://yellow.local.ch/en/d/Glattbrugg/8152/Garage/FT-Garage-AG-M6OgmrI5SdH6NPvGTpKg-w?dwhat=garrage&dwhere=zurich	F.T. Garage AG	Flughofstrasse 37	 8152 Glattbrugg	043 211 50 50	www.ftgarage.ch	
zurich	garrage	N/A	http://yellow.local.ch/en/d/Schlieren/8952/New-and-used-cars/Hamid-Autohandel-ItZltBsfj_inaRMD8QCUFw?dwhat=garrage&dwhere=zurich	Hamid Autohandel	Gaswerkstrasse 2	 8952 Schlieren	079 455 06 55	www.autoankauf-online.ch	
zurich	garrage	N/A	http://yellow.local.ch/en/d/Monchaltorf/8617/Garage/Mettlenbach-AG-7lrni80vzy9WxtoC0JDtsg?dwhat=garrage&dwhere=zurich	Mettlenbach AG	Isenrietstrasse 16	 8617 Mönchaltorf	044 948 13 39	www.8617.ch	
zurich	garrage	N/A	http://yellow.local.ch/en/d/Knonau/8934/Garage/Gabathuler-AG-3iQ4VuetTrKkecHm5bNaxQ?dwhat=garrage&dwhere=zurich	Gabathuler AG	Hasentalstrasse 16	 8934 Knonau	044 767 17 71	www.gabathulerag.ch	
zurich	garrage	N/A	http://yellow.local.ch/en/d/Fallanden/8117/Garage/Garage-Bosshardt-AG-jMot7fqs8seeG7129BI9YA?dwhat=garrage&dwhere=zurich	Garage Bosshardt AG	Schwerzenbachstrasse 41	 8117 Fällanden	044 806 39 39	www.garage-bosshardt.ch	
zurich	garrage	N/A	http://yellow.local.ch/en/d/Rumlang/8153/Car-dealership/Jensen-AG-5Q46FcmbdnoNPum3yEafCA?dwhat=garrage&dwhere=zurich	Jensen AG	Ifangstrasse 11	 8153 Rümlang	044 817 88 88	www.jensen.ch	
zurich	garrage	N/A	http://yellow.local.ch/en/d/Schlieren/8952/Garage/Mercedes-Benz-Automobil-AG-Personenwagen-Zentrum-241hW9fFJVzS0_OvWzW6Kg?dwhat=garrage&dwhere=zurich	Mercedes-Benz Automobil AG Personenwagen-Zentrum	Zürcherstrasse 109	 8952 Schlieren	044 732 55 55	www.merbagretail.ch/schlieren	
zurich	garrage	N/A	http://yellow.local.ch/en/d/Uitikon-Waldegg/8142/Car-body-work/pro-Garage-GmbH-ykNQf2m7pczqFs2TQZtH7Q?dwhat=garrage&dwhere=zurich	pro Garage GmbH	Birmensdorferstrasse 12	 8142 Uitikon Waldegg	043 321 93 83	www.pro-garage.ch	
zurich	garrage	N/A	http://yellow.local.ch/en/d/Adliswil/8134/Garage/Sulzer-Auto-AG-Adliswil-nciDTREkUotlVwiw1D1amg?dwhat=garrage&dwhere=zurich	Sulzer Auto AG Adliswil	Zürichstrasse 40	 8134 Adliswil	044 710 02 04	www.sulzerauto.ch	
zurich	garrage	N/A	http://yellow.local.ch/en/d/Schlieren/8952/Okasion/Th-Willy-AG-Auto-Zentrum-Ford-Vertretung-oZO2rDP2a9rplp9MsrwCvg?dwhat=garrage&dwhere=zurich	Th. Willy AG Auto-Zentrum Ford Vertretung	Zürcherstrasse 145	 8952 Schlieren	044 738 88 88	www.thwilly.ch	
zurich	garrage	N/A	http://yellow.local.ch/en/d/Dubendorf/8600/New-and-used-cars/AMAG-Autowelt-Zurich-mIigu08SCbh7IPQWdFWwNA?dwhat=garrage&dwhere=zurich	AMAG Autowelt Zürich	Giessenstrasse 4	 8600 Dübendorf	044 325 45 45		
zurich	garrage	N/A	http://yellow.local.ch/en/d/Rickenbach-Sulz/8545/Car-demolition/Autoverwertung-Truninger-AG-qpPOtHxRdlCkedl8ajm6BA?dwhat=garrage&dwhere=zurich	Autoverwertung Truninger AG	Stationsstrasse 53	 8545 Rickenbach Sulz	052 337 13 88	www.truninger-ag.ch	
zurich	garrage	N/A	http://yellow.local.ch/en/d/Schlieren/8952/Sandblasting/Suchy-Heinz-RN0WUOWRj2B7GRwAbqT04g?dwhat=garrage&dwhere=zurich	Suchy Heinz	Bernstrasse 27	 8952 Schlieren	044 730 46 40	www.st-tec.com	
zurich	garrage	N/A	http://yellow.local.ch/en/d/Erlenbach-ZH/8703/Garage/Garage-Kastli-AG-D9MMv4kCYIqQ_cvuWhNRcA?dwhat=garrage&dwhere=zurich	Garage Kästli AG	Schulhausstrasse 39A	 8703 Erlenbach ZH	043 277 40 50	www.garage-kaestli.ch	
zurich	garrage	N/A	http://yellow.local.ch/en/d/Dietikon/8953/Garage/Calonder-US-Car-Truck-Parts-Import-sWeswtQyY6vfinSgEmOOEA?dwhat=garrage&dwhere=zurich	Calonder U.S. Car - Truck & Parts Import	Dammstrasse 1	 8953 Dietikon	044 740 99 79	www.calonder.com	
zurich	garrage	N/A	http://yellow.local.ch/en/d/Urdorf/8902/Garage/Garage-Foitek-AG-dkCRKXlGqr-_ALcrzS644g?dwhat=garrage&dwhere=zurich	Garage Foitek AG	Grossmattstrasse 13	 8902 Urdorf	044 736 17 36	www.foitek.ch	
zurich	garrage	N/A	http://yellow.local.ch/en/d/Glattpark-Opfikon/8152/Car-center/Schmohl-AG-Zurich-GWjKtvBZGC6o4qpMdyDdwg?dwhat=garrage&dwhere=zurich	Schmohl AG Zürich	Stinson-Strasse 2	 8152 Glattpark (Opfikon)	043 211 44 44	www.schmohl.ch	
zurich	garrage	N/A	http://yellow.local.ch/en/d/Monchaltorf/8617/Garage/Huser-Automobile-AG-I00iiVla7_YnN6EHWD6K_g?dwhat=garrage&dwhere=zurich	Huser Automobile AG	Mettlenbachstrasse 7	 8617 Mönchaltorf	044 949 10 00	www.huser-automobile.ch	
zurich	garrage	N/A	http://yellow.local.ch/en/d/Forch/8127/Garage/Zweifel-Partner-Garage-Pneuhaus-AG-u-ncAaD-SHvp2i7KF-pfew?dwhat=garrage&dwhere=zurich	Zweifel & Partner Garage Pneuhaus AG	Forchstrasse 111	 8127 Forch	043 366 21 00	www.zweiweb.ch	
zurich	garrage	N/A	http://yellow.local.ch/en/d/Dallikon/8108/Workshop-fittings/Baumgartner-AG-33IhCglCPkNIfq704HtXFQ?dwhat=garrage&dwhere=zurich	Baumgartner AG	Langwiesenstrasse 2	 8108 Dällikon	044 847 64 64	www.baumgartnerag.ch	
zurich	garrage	N/A	http://yellow.local.ch/en/d/Schwerzenbach/8603/Garage/Druck-Top-GmbH-GEM4kmGaOCfMcZecywYLAw?dwhat=garrage&dwhere=zurich	Drück-Top GmbH	Ifangstrasse 12A	 8603 Schwerzenbach	044 825 02 70	www.drueck-top.ch	
zurich	garrage	N/A	http://yellow.local.ch/en/d/Meilen/8706/Garage/KRAHENMANN-AUTOCENTER-AG-_YDhhEw602mguPxdFr3OLg?dwhat=garrage&dwhere=zurich	KRÄHENMANN AUTOCENTER AG	Seestrasse 1035	 8706 Meilen	044 793 21 00	www.kraehenmannautocenter.ch	
zurich	garrage	N/A	http://yellow.local.ch/en/d/Wettswil/8907/Garage/Langacher-Garage-AG-carXpert-oC58u-YB2oTmcsr0Dpp_QQ?dwhat=garrage&dwhere=zurich	Langächer Garage AG carXpert	Langächerstrasse 5	 8907 Wettswil	044 700 03 56	www.langaecher.ch	
zurich	garrage	N/A	http://yellow.local.ch/en/d/Schlieren/8952/Garage/Porsche-Zentrum-Zurich-gVlI1gZz3s33h23kBJ3E1A?dwhat=garrage&dwhere=zurich	Porsche Zentrum Zürich	Bernstrasse 59	 8952 Schlieren	044 305 99 99	www.porsche-zuerich.ch/porsche/Schlieren/de/Home.html	
zurich	garrage	N/A	http://yellow.local.ch/en/d/Maschwanden/8933/Garage/Kobis-Werkstatt-stRhR2APM9Vq1eLOj4vnvA?dwhat=garrage&dwhere=zurich	Köbi's Werkstatt	Sagiweg 21	 8933 Maschwanden	044 462 33 23		
zurich	garrage	N/A	http://yellow.local.ch/en/d/Hinteregg/8132/Car-body-work/Garage-und-Carrosserie-Schweizer-Co-9Kq9B69qKCfQiYVf_V-f3w?dwhat=garrage&dwhere=zurich	Garage und Carrosserie Schweizer & Co	Forchstrasse 1001	 8132 Hinteregg	044 984 14 32	www.schweizer.opel.ch	
zurich	garrage	N/A	http://yellow.local.ch/en/d/Esslingen/8133/Garage/Hans-Wiener-Automobile-gIKqKCnY2C_8D5_YSTM1wg?dwhat=garrage&dwhere=zurich	Hans Wiener Automobile	Löwenstrasse 1	 8133 Esslingen	044 984 05 71	www.kreuzgarage-esslingen.ch	
zurich	garrage	N/A	http://yellow.local.ch/en/d/Geneve/1201/Garage/Savary-Alain-S2NoZsa_LI1KAxUmO5jtkQ?dwhat=garrage&dwhere=zurich	Savary Alain	rue de Zurich 4	 1201 Genève	022 738 78 24		
zurich	garrage	N/A	http://yellow.local.ch/en/d/Schlieren/8952/Garage/Verkauf-3l954GwYRqVRMeb5uYITSw?dwhat=garrage&dwhere=zurich	Verkauf	Goldschlägistrasse	 8952 Schlieren	044 738 38 38		
zurich	garrage	N/A	http://yellow.local.ch/en/d/Schlieren/8952/Garage/Werkstatten-Zq0Q-1Geytn2zYafoIzdMg?dwhat=garrage&dwhere=zurich	Werkstätten		8952 Schlieren	044 738 38 38		
zurich	garrage	N/A	http://yellow.local.ch/en/d/Schlieren/8952/Garage/Teile-u-Zubehor-SlhgAYJoKHBwn4ZbwGKJ2g?dwhat=garrage&dwhere=zurich	Teile u. Zubehör		8952 Schlieren	044 738 38 70		
zurich	garrage	N/A	http://yellow.local.ch/en/d/Nafels/8752/Garage/Stussi-Nutzfahrzeuge-AG-T-BB9xcgUS_k_MLXVrhK_g?dwhat=garrage&dwhere=zurich	Stüssi Nutzfahrzeuge AG	Gewerbezone Schneisingen	 8752 Näfels	055 612 27 12		
zurich	garrage	N/A	http://yellow.local.ch/en/d/Regensdorf/8105/Garage/Rollin-Bruno-AG-oi2n5WoY3Mxxx-dmZyWB5Q?dwhat=garrage&dwhere=zurich	Röllin Bruno AG	Riedthofstrasse 192	 8105 Regensdorf	044 870 69 11	www.auto-roellin.ch	
zurich	garrage	N/A	http://yellow.local.ch/en/d/Wallisellen/8304/Wrecking-service/AAA-Abschleppdienst-aller-Autos-Zuber-mjnOQh5HRoAUQmbetMBhFw?dwhat=garrage&dwhere=zurich	AAA Abschleppdienst aller Autos Zuber	Gewerbehallenstrasse 1	 8304 Wallisellen	044 461 03 03		
zurich	garrage	N/A	http://yellow.local.ch/en/d/Schlieren/8952/Garage/AMAG-Schlieren-dsNM0MYmWkVYGBDu4B4AHQ?dwhat=garrage&dwhere=zurich	AMAG Schlieren	Brandstrasse 34	 8952 Schlieren	044 406 84 84		
zurich	garrage	N/A	http://yellow.local.ch/en/d/Pfungen/8422/Garage/Arifi-Garage-Eich-Pfungen-AG-oYDGb9Lv2ATo5v-QgXBWDw?dwhat=garrage&dwhere=zurich	Arifi Garage Eich-Pfungen AG	Weiacherstrasse 65	 8422 Pfungen	052 315 34 53		
zurich	garrage	N/A	http://yellow.local.ch/en/d/Wallisellen/8304/Wrecking-service/Autohilfe-Zurich-i9VF_nkp_zKe_nnxRlRFcA?dwhat=garrage&dwhere=zurich	Autohilfe Zürich	Gewerbehallenstrasse 1	 8304 Wallisellen	044 461 03 03		
zurich	garrage	N/A	http://yellow.local.ch/en/d/Adliswil/8134/Garage/Binelli-Gruppe-wMMsT4qv9jmfWLqtez9FoQ?dwhat=garrage&dwhere=zurich	Binelli-Gruppe	Zürichstrasse 102	 8134 Adliswil	044 771 10 00		
zurich	garrage	N/A	http://yellow.local.ch/en/d/Rumlang/8153/Car-body-work/Carrosserie-Stocker-AG-KelCkcBX9PaKn8xnX-bKTg?dwhat=garrage&dwhere=zurich	Carrosserie Stocker AG	Riedmattstrasse 5	 8153 Rümlang	044 818 80 30		
zurich	garrage	N/A	http://yellow.local.ch/en/d/Regensdorf/8105/Car-accessoires-car-parts/Delta-Sport-Cars-JSmhG27NW2OvQVx6gKCnfw?dwhat=garrage&dwhere=zurich	Delta Sport Cars	Wiesackerstrasse 90	 8105 Regensdorf	043 388 70 70		
zurich	garrage	N/A	http://yellow.local.ch/en/d/Adliswil/8134/Garage/Garage-Gutknecht-92YmjOlxUhXt2OcSfWK9Bw?dwhat=garrage&dwhere=zurich	Garage Gutknecht	Kilchbergstrasse 17	 8134 Adliswil	044 771 23 60		
zurich	garrage	N/A	http://yellow.local.ch/en/d/Schlieren/8952/Garage/Garage-Mario-Quarta-GmbH-soQY6ywv47-c1PH0-4WvhQ?dwhat=garrage&dwhere=zurich	Garage Mario Quarta GmbH	Gaswerkareal, Ballonstrasse 20	 8952 Schlieren	044 730 77 44		
zurich	garrage	N/A	http://yellow.local.ch/en/d/Dietlikon/8305/Garage/Garage-plus-bpgTi2-cYNAveap_jExOuQ?dwhat=garrage&dwhere=zurich	Garage plus	Industriestrasse 8	 8305 Dietlikon	044 805 23 30		
zurich	garrage	N/A	http://yellow.local.ch/en/d/Urdorf/8902/Garage/GolfShopZurich-IcttSqxUBrwXzDeGXChvhQ?dwhat=garrage&dwhere=zurich	GolfShopZürich	Steinackerstrasse 31	 8902 Urdorf	044 401 40 45		
zurich	garrage	N/A	http://yellow.local.ch/en/d/Uitikon-Waldegg/8142/Garage/Herrlig-Garage-uYl9SMHzYBB1y6sf40XuyQ?dwhat=garrage&dwhere=zurich	Herrlig-Garage	Birmensdorferstrasse 42	 8142 Uitikon Waldegg	044 492 92 00		
zurich	garrage	N/A	http://yellow.local.ch/en/d/Kloten/8302/New-and-used-cars/Hirsch-Ruckstuhl-AG-6frVNYZHYY196ymxJTm9kQ?dwhat=garrage&dwhere=zurich	Hirsch Ruckstuhl AG	Industriestrasse 6	 8302 Kloten	044 804 68 78		
zurich	garrage	N/A	http://yellow.local.ch/en/d/Rumlang/8153/Garage/Istanbul-Garage-rppW-N6y8lln-OhEv1RySw?dwhat=garrage&dwhere=zurich	Istanbul Garage	Riedgrabenstrasse 20	 8153 Rümlang	043 810 63 09		
zurich	garrage	N/A	http://yellow.local.ch/en/d/Dietikon/8953/Garage/Pantaleo-Automobile-AG-jVOmkdgpmiLt-DP6jlhpHg?dwhat=garrage&dwhere=zurich	Pantaleo Automobile AG	Birmensdorferstrasse 20	 8953 Dietikon	044 741 44 09		
zurich	garrage	N/A	http://yellow.local.ch/en/d/Uitikon-Waldegg/8142/Garage/Waldegg-Garage-Marcel-Engler-sYqH4h1JicxcQ3r0rufl4g?dwhat=garrage&dwhere=zurich	Waldegg-Garage, Marcel Engler	Zürcherstrasse 110	 8142 Uitikon Waldegg	044 491 77 05		
zurich	garrage	N/A	http://yellow.local.ch/en/d/Dubendorf/8600/Garage/Wydler-Nicola-GmbH-0oc409M54AvyBgzRaNv_Kw?dwhat=garrage&dwhere=zurich	Wydler Nicola GmbH	Stettbachstrasse 4	 8600 Dübendorf	043 299 09 11		
