cityName	searchPhrase	resultNum	ypchsite	name	address1	address2	phone	website
zurich	massage	N/A	http://yellow.local.ch/en/d/Zurich/8006/Health-and-sports-massage/Stutz-Rita-S6qehgKoV47YhrQLV5mD-Q?dwhat=massage&dwhere=zurich	Stutz Rita	Weinbergstrasse 53	 8006 Zürich	044 261 17 63	www.akupunktur-massage-zuerich.ch	
zurich	massage	N/A	http://yellow.local.ch/en/d/Zurich/8051/Health-and-sports-massage/Med-Therapie-Praxis-_dm5f5x86-yb0vvfI8Qz6A?dwhat=massage&dwhere=zurich	Med. Therapie Praxis	Glattwiesenstrasse 213	 8051 Zürich	043 558 10 18	www.medtherapiepraxis.ch	
zurich	massage	N/A	http://yellow.local.ch/en/d/Zurich/8008/Cosmetic-institute/Luxe-Beauty-Kosmetik-9kZ7v7LaYMUCKobdeaNsSw?dwhat=massage&dwhere=zurich	Luxe Beauty Kosmetik	Dufourstrasse 134A	 8008 Zürich	044 556 74 99	www.luxebeautymedizin.ch	
zurich	massage	N/A	http://yellow.local.ch/en/d/Zurich/8048/Physical-therapy/Kung-Andrea-v09WjzNGyyPVKCp7L8PNOw?dwhat=massage&dwhere=zurich	Küng Andrea	Baslerstrasse 119	 8048 Zürich	044 432 41 25	www.physiotherapie-andrea-kueng.ch	
zurich	massage	N/A	http://yellow.local.ch/en/d/Zurich/8008/Nail-cosmetics/Fitarium-jOtsYJaRjZvnlH5pMoEEiw?dwhat=massage&dwhere=zurich	Fitarium	Münchhaldenstrasse 19 /Ecke Seefeldstr.	 8008 Zürich	044 422 37 57	www.fitarium.ch	
zurich	massage	N/A	http://yellow.local.ch/en/d/Zurich/8008/Physical-therapy/Physiotherapie-Seefeld-eg-Kc2gjkpquoOsQBuBwjw?dwhat=massage&dwhere=zurich	Physiotherapie Seefeld	Seefeldstrasse 75	 8008 Zürich	044 381 10 09	www.physioseefeld.ch	
zurich	massage	N/A	http://yellow.local.ch/en/d/Zurich/8032/Health-and-sports-massage/Massage-Therapie-Zentrum-GmbH-EQxsII74oBROynjp6a5Hzw?dwhat=massage&dwhere=zurich	Massage Therapie Zentrum GmbH	Zeltweg 48	 8032 Zürich	044 252 62 62	www.massage-therapie-zentrum.ch	
zurich	massage	N/A	http://yellow.local.ch/en/d/Zurich/8044/Reflexology/Praxis-fur-manuelle-Lymphdrainage-und-Atlas-proFilax-14gRB57MQsbQJGQHyNcYCg?dwhat=massage&dwhere=zurich	Praxis für manuelle Lymphdrainage und Atlas proFilax	Toblerstrasse 60	 8044 Zürich	043 233 90 83	atlasprofilax-zh.ch	
zurich	massage	N/A	http://yellow.local.ch/en/d/Zurich/8038/Health-and-sports-massage/Bucher-Claudia-WtZ2SDqmvl8RJAkWqfksiA?dwhat=massage&dwhere=zurich	Bucher Claudia	Etzelstrasse 10	 8038 Zürich	079 812 17 06	www.buchermassagen.ch	
zurich	massage	N/A	http://yellow.local.ch/en/d/Zurich/8004/Physical-therapy/Physiotherapie-Greiner-GBGMBWhIMJoVvsGClVeWPw?dwhat=massage&dwhere=zurich	Physiotherapie Greiner	Bäckerstrasse 9	 8004 Zürich	044 241 67 60	www.physiotherapie-greiner.ch	
zurich	massage	N/A	http://yellow.local.ch/en/d/Zurich/8008/Gyrotonic/MULADHARA-V4YthJfjZ4E6yLyjSOT0CQ?dwhat=massage&dwhere=zurich	MULADHARA	Seefeldstrasse 305a	 8008 Zürich	044 381 63 00	www.muladhara.ch	
zurich	massage	N/A	http://yellow.local.ch/en/d/Zurich/8055/Ayurveda/Beauty-Wellness-InBalance-SU8aCrdJIHwsQqJTcPS86A?dwhat=massage&dwhere=zurich	Beauty & Wellness InBalance	Schweighofstrasse 410	 8055 Zürich	076 563 20 26	www.beauty-wellness-inbalance.ch	
zurich	massage	N/A	http://yellow.local.ch/en/d/Zurich/8038/Health-and-sports-massage/Van-Klaveren-Anja-Vrf2woLNRV_cIx3ynhYwtQ?dwhat=massage&dwhere=zurich	Van Klaveren Anja	Moosstrasse 8	 8038 Zürich	076 456 60 04	www.ajna-praxis.ch	
zurich	massage	N/A	http://yellow.local.ch/en/d/Zurich/8005/Coaching/Burnier-Daniel-und-Ender-Markus-B9wXWPZlA_lH_g9-mik8HQ?dwhat=massage&dwhere=zurich	Burnier Daniel und Ender Markus	Sihlquai 253	 8005 Zürich	076 387 00 90	www.praxis5.ch	
zurich	massage	N/A	http://yellow.local.ch/en/d/Zurich/8004/Physical-therapy/S-Praxis-qbcMBtoYQ58LhFdn0YsNGg?dwhat=massage&dwhere=zurich	S-Praxis	Badenerstrasse 119	 8004 Zürich	044 536 99 09	www.s-praxis.ch	
zurich	massage	N/A	http://yellow.local.ch/en/d/Zurich/8001/Personal-Training/Powerqi-vIuAecmHForE6TnZHSjEog?dwhat=massage&dwhere=zurich	Powerqi	Selnaustrasse 33	 8001 Zürich	078 840 50 55	www.powerqi.ch	
zurich	massage	N/A	http://yellow.local.ch/en/d/Zurich/8001/Health-and-sports-massage/Therapiezentrum-am-Paradeplatz-Pez-crd8c360j8jznEOxKg?dwhat=massage&dwhere=zurich	Therapiezentrum am Paradeplatz	Poststrasse 6	 8001 Zürich	044 213 12 33	www.therapiezentrum-am-paradeplatz.ch	
zurich	massage	N/A	http://yellow.local.ch/en/d/Zurich/8001/Health-and-sports-massage/Massage4u-c9tS0-_l4jqNO20GDxLNgg?dwhat=massage&dwhere=zurich	Massage4u	Sihlstrasse 9	 8001 Zürich	079 723 02 61	www.massage4u.ch	
zurich	massage	N/A	http://yellow.local.ch/en/d/Zurich/8052/Cosmetic-institute/Channoine-Cosmetic-zpYAxaSB50cRyRtIN3nhyg?dwhat=massage&dwhere=zurich	Channoine Cosmetic	Sperletweg 25	 8052 Zürich	044 300 19 73	www.channoine-partner.com/brigitte.singer	
zurich	massage	N/A	http://yellow.local.ch/en/d/Zurich/8006/Dietary-advice/Body-Concept-Institut-ObnE0OBq7Inc57fxucJSxg?dwhat=massage&dwhere=zurich	Body Concept Institut	Beckenhofstrasse 10	 8006 Zürich	044 350 19 70	www.bodyconcept-schweiz.ch	
zurich	massage	N/A	http://yellow.local.ch/en/d/Zurich/8002/Spa/Thermalbad-Spa-Zurich--CnWi39ZYNsSKYqn8hlsRw?dwhat=massage&dwhere=zurich	Thermalbad & Spa Zürich	Brandschenkestrasse 150	 8002 Zürich	044 205 96 50	www.thermalbad-zuerich.ch	
zurich	massage	N/A	http://yellow.local.ch/en/d/Zurich/8004/Health-and-sports-massage/Zorzi-Sada-Caterina-SrHa7r1wNfYRTIPoq_woDQ?dwhat=massage&dwhere=zurich	Zorzi Sada Caterina	St. Jakobstrasse 57	 8004 Zürich	044 212 75 09	www.frischundvital.ch	
zurich	massage	N/A	http://yellow.local.ch/en/d/Zurich/8004/Sauna/Stadtbad-Zurich-AG-z3vWRG9bXIIBGSlYnNWV4w?dwhat=massage&dwhere=zurich	Stadtbad Zürich AG	Stauffacherstrasse 60	 8004 Zürich	044 241 04 27	www.stadtbadzuerich.ch	
zurich	massage	N/A	http://yellow.local.ch/en/d/Zurich/8047/Physical-therapy/medmotion-AG-4FVgnxtfav6XQYZdlKajZg?dwhat=massage&dwhere=zurich	med&motion AG	Albisriederstrasse 243	 8047 Zürich	044 401 02 03	www.medandmotion.ch	
zurich	massage	N/A	http://yellow.local.ch/en/d/Zurich/8001/Spa/LABO-Spa-S2Muv_i5XcSzkQUcVFWHAQ?dwhat=massage&dwhere=zurich	LABO Spa	Talacker 41	 8001 Zürich	043 497 34 40	www.labospa.ch	
zurich	massage	N/A	http://yellow.local.ch/en/d/Zurich/8001/Health-and-sports-massage/GENKI-NV2s3cKUJZUyGMEDIfuqSw?dwhat=massage&dwhere=zurich	GENKI	In Gassen 7	 8001 Zürich	043 344 85 58	www.genki.ch	
zurich	massage	N/A	http://yellow.local.ch/en/d/Zurich/8048/Physical-therapy/Physio-7null7-4yC_htEaoGY7NhgFSPjbFQ?dwhat=massage&dwhere=zurich	Physio 7null7	Badenerstrasse 715	 8048 Zürich	043 811 43 43	www.physio7null7.ch	
zurich	massage	N/A	http://yellow.local.ch/en/d/Zurich/8048/Physical-therapy/Physiotherapie-Letzigrund-auOvYcpOUdvksVMvS6G1xA?dwhat=massage&dwhere=zurich	Physiotherapie Letzigrund	Badenerstrasse 551	 8048 Zürich	044 493 59 51	www.physiotherapieletzigrund.ch	
zurich	massage	N/A	http://yellow.local.ch/en/d/Zurich/8037/Craniosacral-therapy/Flubacher-Roman-s64BEojcwdrx5BdSO8uPBQ?dwhat=massage&dwhere=zurich	Flubacher Roman	Hönggerstrasse 117	 8037 Zürich	044 271 32 09	www.med-massagen.ch	
zurich	massage	N/A	http://yellow.local.ch/en/d/Zurich/8004/Cosmetic-institute/Wellness-Institut-DTKKxkYEwTHqTkFDe85bkg?dwhat=massage&dwhere=zurich	Wellness - Institut	Badenerstrasse 342	 8004 Zürich	079 735 38 16	www.wellness-institut-mannhart.ch	
zurich	massage	N/A	http://yellow.local.ch/en/d/Zurich/8038/Foot-care-pedicures/Pedi-Lounge-GmbH-dgZIYcy_nky0bzLKkt5BMw?dwhat=massage&dwhere=zurich	Pedi-Lounge GmbH	Nähe Post Wollishofen, Kilchbergsteig 4	 8038 Zürich	079 948 94 02	www.fusspflege-pedi-lounge.ch	
zurich	massage	N/A	http://yellow.local.ch/en/d/Zurich/8003/Health-and-sports-massage/One-eleven-thai-massage-B3gjFh_qtvy1085_cZwAvA?dwhat=massage&dwhere=zurich	One eleven - thai massage	Seebahnstrasse 111	 8003 Zürich	043 817 29 47	www.thaimassage-wiedikon.ch	
zurich	massage	N/A	http://yellow.local.ch/en/d/Zurich/8006/Health-and-sports-massage/ESALEN-Praxis-Zuri-6-G6VNQfUU_BMTWhFujh3c7A?dwhat=massage&dwhere=zurich	ESALEN Praxis Züri 6	Turnerstrasse 7 dornbreuss- Zürich	 8006 Zürich	044 363 43 72	www.massage-fredi-zuerich.ch	
zurich	massage	N/A	http://yellow.local.ch/en/d/Zurich/8049/Natural-cosmetics/Take-Time-1bBWlvFtrvW9lo4aNQTH1g?dwhat=massage&dwhere=zurich	Take Time	Limmattalstrasse 151	 8049 Zürich	044 501 80 11	www.taketime.ch	
zurich	massage	N/A	http://yellow.local.ch/en/d/Zurich/8003/Acupuncture-not-included-in-category-doctors/SIHLMED-Zentrum-fur-Integrative-Medizin-REdImmrXxzZMdI0LUi3Ryw?dwhat=massage&dwhere=zurich	SIHLMED Zentrum für Integrative Medizin	Badenerstrasse 333 / Albisriederplatz	 8003 Zürich	043 321 11 11	www.sihlmed.ch	
zurich	massage	N/A	http://yellow.local.ch/en/d/Zurich/8001/Physical-therapy/PhysioZurichCity-qgJZqrIKBfKfpJDFxTTPHg?dwhat=massage&dwhere=zurich	PhysioZürichCity	Nüschelerstrasse 45	 8001 Zürich	044 501 66 26	www.physiozuerichcity.ch	
zurich	massage	N/A	http://yellow.local.ch/en/d/Zurich/8006/Health-and-sports-massage/Wigger-Stefan-ePOCD0uiSwek43y4_C6AMw?dwhat=massage&dwhere=zurich	Wigger Stefan	Haldenbachstrasse 9	 8006 Zürich	079 786 21 27	www.stefan-wigger.ch	
zurich	massage	N/A	http://yellow.local.ch/en/d/Zurich/8001/Health-and-sports-massage/Naturheilraum-Praxis-fur-Naturheilkunde-4PaVCTKa_BojkHVILKJAJg?dwhat=massage&dwhere=zurich	Naturheilraum - Praxis für Naturheilkunde	Stampfenbachstrasse 7	 8001 Zürich	079 473 75 44	www.naturheilraum.ch	
zurich	massage	N/A	http://yellow.local.ch/en/d/Zurich/8005/Hairdresser/InStyle-AG-UqOfnihyRW82ILcHPRK1oA?dwhat=massage&dwhere=zurich	InStyle AG	Turbinenstrasse 21	 8005 Zürich	044 355 11 00	www.instyle-zueri.ch	
zurich	massage	N/A	http://yellow.local.ch/en/d/Zurich/8005/Physical-therapy/Reha-Prime-Physiotherapie-Rehabilitation-aHRqSRUElJuuijzHipzisQ?dwhat=massage&dwhere=zurich	Reha-Prime Physiotherapie & Rehabilitation	Naphtastrasse 10 Bei Bahnhof Hardbrücke	 8005 Zürich	043 411 88 44		
zurich	massage	N/A	http://yellow.local.ch/en/d/Zurich/8050/Health-and-sports-massage/Akupunktur-med-Massagen-KS8PAKhTjuMXRQxkxNZ1Bw?dwhat=massage&dwhere=zurich	Akupunktur & med. Massagen	Schulstrasse 29	 8050 Zürich	044 313 29 69	www.praxis-steiger.ch	
zurich	massage	N/A	http://yellow.local.ch/en/d/Zurich/8002/Shiatsu/Shiatsu-Chi-Gung-Vismay-Spillmann-VwR6b2X-JJ0G9hiK5x7MOg?dwhat=massage&dwhere=zurich	Shiatsu & Chi-Gung Vismay Spillmann	Bederstrasse 80	 8002 Zürich	076 585 65 62	www.chi-gung.ch	
zurich	massage	N/A	http://yellow.local.ch/en/d/Zurich/8001/Health-and-sports-massage/Bretscher-Matthias-Georg-MnbsrPZIpPwAZ8pkKum6Bg?dwhat=massage&dwhere=zurich	Bretscher Matthias Georg	Rennweg 22	 8001 Zürich	044 222 03 42	www.bodyworks.ch	
zurich	massage	N/A	http://yellow.local.ch/en/d/Zurich/8050/Health-and-sports-massage/Goldregen-eBbFau5fUbaR9p_6onVmFw?dwhat=massage&dwhere=zurich	Goldregen	Regensbergstrasse 213	 8050 Zürich	044 312 37 67	www.goldregen-massagen.ch	
zurich	massage	N/A	http://yellow.local.ch/en/d/Zurich/8032/Ayurveda/be-Ayurveda-4IJmyBkHcSmQUNN_e3aCkw?dwhat=massage&dwhere=zurich	be Ayurveda	Höhenweg 10	 8032 Zürich	076 576 66 79	www.beayurveda.ch	
zurich	massage	N/A	http://yellow.local.ch/en/d/Zurich/8048/Health-and-sports-massage/Chiida-Spa-Europe-GmbH-JbJz1JNHMGfp4YwykzTHeg?dwhat=massage&dwhere=zurich	Chiida Spa Europe GmbH	Dachslernstrasse 139	 8048 Zürich	043 268 41 22	www.chiidaspa.ch	
zurich	massage	N/A	http://yellow.local.ch/en/d/Zurich/8006/Acupressure/Gresch-Beatrice-aLSRLeKXFyuNdOqQ4_2FjA?dwhat=massage&dwhere=zurich	Gresch Beatrice	Stapferstrasse 33	 8006 Zürich	079 630 27 30	www.beatricegresch.ch	
zurich	massage	N/A	http://yellow.local.ch/en/d/Zurich/8046/Health-and-sports-massage/Viva-Gesundheitspraxis-ZOm6PhDD_Koz4749HBet-A?dwhat=massage&dwhere=zurich	Viva Gesundheitspraxis	In Böden 174	 8046 Zürich	044 371 21 40		
zurich	massage	N/A	http://yellow.local.ch/en/d/Zurich/8006/Health-and-sports-massage/T-Schumperli-Massage-Praxis-i_FjvMRwU5M-3fUQeWaC3Q?dwhat=massage&dwhere=zurich	T. Schümperli Massage Praxis	Sumatrastrasse 25	 8006 Zürich	079 255 34 92	www.massagepraxis-ts.ch	
zurich	massage	N/A	http://yellow.local.ch/en/d/Zurich/8045/Health-and-sports-massage/Andana-Massagen-KF12VSV0lnc3nHxoXY9Eng?dwhat=massage&dwhere=zurich	Andana Massagen	Staffelstrasse 10	 8045 Zürich	044 202 23 40	www.andana.ch	
zurich	massage	N/A	http://yellow.local.ch/en/d/Zurich/8037/Thai-massage/Asia-Health-Wellness-Massage-tkXn2ObkJ4EkGYz52OHP9A?dwhat=massage&dwhere=zurich	Asia Health Wellness Massage	Hönggerstrasse 82	 8037 Zürich	079 814 77 08	www.asiahealth.ch	
zurich	massage	N/A	http://yellow.local.ch/en/d/Zurich/8004/Bodywork/Somatic-Healing-Arts-CfHsG8fgsrWz1H0QBJzBDQ?dwhat=massage&dwhere=zurich	Somatic Healing Arts	Hallwylstrasse 26	 8004 Zürich	078 677 97 87	www.somatic-bodywork-zuerich.ch	
zurich	massage	N/A	http://yellow.local.ch/en/d/Zurich/8050/Health-and-sports-massage/Ganzheitliche-Therapie-8iuhds889xTpE1hfWZ6Dng?dwhat=massage&dwhere=zurich	Ganzheitliche Therapie	Ohmstrasse 28	 8050 Zürich	078 615 73 99	www.sarahwaser.ch	
zurich	massage	N/A	http://yellow.local.ch/en/d/Zurich/8006/Health-and-sports-massage/backandbellych-F2zZ5OKDea4W5TRi3bd5yQ?dwhat=massage&dwhere=zurich	backandbelly.ch	Hotzesteig 7	 8006 Zürich	076 592 68 40	www.backandbelly.ch	
zurich	massage	N/A	http://yellow.local.ch/en/d/Zurich/8055/Health-and-sports-massage/Keller-Yvonne-_PAnD_eRu98F0elH4p3Qew?dwhat=massage&dwhere=zurich	Keller Yvonne	Schweighofstrasse 403	 8055 Zürich	079 653 71 30	www.massage-am-friesenberg.ch	
zurich	massage	N/A	http://yellow.local.ch/en/d/Zurich/8052/Cosmetic-institute/maximum-care-cosmetics-gmbh-jRD7EC9g7PL59LJzZBLM1Q?dwhat=massage&dwhere=zurich	maximum care cosmetics gmbh	Glatttalstrasse 118C	 8052 Zürich	043 433 86 27	www.maximum-care.ch	
zurich	massage	N/A	http://yellow.local.ch/en/d/Zurich/8008/Naturopathy/Schnabel-Denise-90Fo8X2PCR2iB90ZTJjLjA?dwhat=massage&dwhere=zurich	Schnabel Denise	Seefeldstrasse 128	 8008 Zürich	079 305 03 02	www.naturheilpraxis-schnabel.ch	
zurich	massage	N/A	http://yellow.local.ch/en/d/Zurich/8006/Physical-therapy/PHYSIO-STUDIO-MTErNysU8nzzot3_dj-OtA?dwhat=massage&dwhere=zurich	PHYSIO STUDIO	Rötelstrasse 34	 8006 Zürich	044 350 65 49	www.physiostudio.ch	
zurich	massage	N/A	http://yellow.local.ch/en/d/Zurich/8032/Health-and-sports-massage/Praxis-Thomas-Wojtkowiak-oKHMGsSx9JnQWYORMeuOGw?dwhat=massage&dwhere=zurich	Praxis Thomas Wojtkowiak	Neptunstrasse 63	 8032 Zürich	079 347 85 47	www.emindex.ch/thomas.wojtkowiak	
zurich	massage	N/A	http://yellow.local.ch/en/d/Zurich/8057/Health-and-sports-massage/zumoberhaus-Praxis-fur-manuelle-Therapie-2ewzuGmnm34pAlI2dkbVUA?dwhat=massage&dwhere=zurich	zumoberhaus - Praxis für manuelle Therapie	Oerlikonerstrasse 54	 8057 Zürich	044 534 65 04	www.praxis-zumoberhaus.ch	
zurich	massage	N/A	http://yellow.local.ch/en/d/Zurich/8008/Medical-massage/finn-med-massage-2bBzbKsvPlQTRaXGC6mrGA?dwhat=massage&dwhere=zurich	finn-med-massage	Florastrasse 45	 8008 Zürich	079 541 79 08	www.finn-med-massage.ch	
zurich	massage	N/A	http://yellow.local.ch/en/d/Zurich/8004/Acupoint-massage/Praxis-Andrea-Brunner-WoJD9KnQzG7SqedrNCyD-w?dwhat=massage&dwhere=zurich	Praxis Andrea Brunner	Stauffacherstrasse 149 Kreis 4	 8004 Zürich	076 458 80 56	www.praxisandreabrunner.ch	
zurich	massage	N/A	http://yellow.local.ch/en/d/Zurich/8032/Health-and-sports-massage/Massagepraxis-fur-Ihr-Wohlbefinden-Petra-Benedikt-NjZ9YNSE9qKjOpMF34B3JQ?dwhat=massage&dwhere=zurich	Massagepraxis für Ihr Wohlbefinden Petra Benedikt	Hegarstrasse 9	 8032 Zürich	078 627 20 54		
zurich	massage	N/A	http://yellow.local.ch/en/d/Zurich/8050/Health-and-sports-massage/Med-Massage-Praxis-6ADQDYTtlDWpkAkeJkQCOg?dwhat=massage&dwhere=zurich	Med. Massage Praxis	Dörflistrasse 107	 8050 Zürich	044 312 19 52	www.gisler-massagen.ch	
zurich	massage	N/A	http://yellow.local.ch/en/d/Zurich/8049/Acupuncture-not-included-in-category-doctors/Linggui-Akupunktur-zsBB6uuzHQ6yh7VV7cZk6w?dwhat=massage&dwhere=zurich	Linggui Akupunktur	Limmattalstrasse 340	 8049 Zürich	043 300 48 29	www.linggui-akupunktur.ch	
zurich	massage	N/A	http://yellow.local.ch/en/d/Zurich/8037/Health-care-center/Gesundheitspraxis-Wipkingen-yIc-5kyIOJgsjM6urkmvrw?dwhat=massage&dwhere=zurich	Gesundheitspraxis Wipkingen	Trottenstrasse 3	 8037 Zürich	079 717 83 80		
zurich	massage	N/A	http://yellow.local.ch/en/d/Zurich/8050/Health-and-sports-massage/Medizinische-Massagepraxis-Lanz-Thomas-ia6ui9YyBMn_n9LQX5mcdg?dwhat=massage&dwhere=zurich	Medizinische Massagepraxis Lanz Thomas	Tramstrasse 10	 8050 Zürich	079 387 06 16	www.medizinische-massage.biz	
zurich	massage	N/A	http://yellow.local.ch/en/d/Zurich/8002/Health-and-sports-massage/Massage-Praxis-Holenstein-Yvonne-4oRWV9Tu2EYRDhIxplJVPQ?dwhat=massage&dwhere=zurich	Massage Praxis Holenstein Yvonne	Bleicherweg 64a	 8002 Zürich	078 712 94 69	www.healingtou.ch	
zurich	massage	N/A	http://yellow.local.ch/en/d/Zurich/8008/Health-and-sports-massage/Med-Massagepraxis-09kqSBv_XxOwlT41PVeqtg?dwhat=massage&dwhere=zurich	Med. Massagepraxis	Florastrasse 45	 8008 Zürich	076 421 99 09	www.branca-schmidlin.ch	
zurich	massage	N/A	http://yellow.local.ch/en/d/Zurich/8002/Health-and-sports-massage/rekonvaleszenz-DyaAuKlcDifBuDQu4tf-uQ?dwhat=massage&dwhere=zurich	rekonvaleszenz	Waffenplatzstrasse 54	 8002 Zürich	043 817 66 32	www.rekonvaleszenz.ch	
zurich	massage	N/A	http://yellow.local.ch/en/d/Zurich/8050/Health-and-sports-massage/Gesundheits-Schonheitszentrum-Rosetta-0zhlDBHitHJ2QaciwdM5Gw?dwhat=massage&dwhere=zurich	Gesundheits & Schönheitszentrum Rosetta	Schwamendingenstrasse 10 (Eingang Schaffhauserstrasse)	 8050 Zürich	044 313 00 05	www.rosetta-consulting.ch	
zurich	massage	N/A	http://yellow.local.ch/en/d/Zurich/8003/Shiatsu/Shiatsu-Bicer-IcAFSEgRsSti_DrgsORmSA?dwhat=massage&dwhere=zurich	Shiatsu Bicer	Zentrum für Komplementärmedizin, Albisriederstrasse 5	 8003 Zürich	078 622 22 51	www.shiatsu-bicer.com	
zurich	massage	N/A	http://yellow.local.ch/en/d/Zurich/8001/Physical-therapy/Rucken-Center-med-GmbH-43bsrXW5xy0VlkSiJ68CIw?dwhat=massage&dwhere=zurich	Rücken Center med. GmbH	Nüschelerstrasse 45	 8001 Zürich	044 211 60 80	www.rueckencenter.com	
zurich	massage	N/A	http://yellow.local.ch/en/d/Zurich/8050/Health-and-sports-massage/Widmermassagen-9bKDDCPW9ocxjSyDpHs96g?dwhat=massage&dwhere=zurich	Widmermassagen	Ohmstrasse 28	 8050 Zürich	043 268 93 35	www.widmermassagen.ch	
zurich	massage	N/A	http://yellow.local.ch/en/d/Zurich/8032/Craniosacral-therapy/Masetto-Alessandra-4B1L5Ewa6fwMjq2JY8bJow?dwhat=massage&dwhere=zurich	Masetto Alessandra	Gemeindestrasse 26	 8032 Zürich	079 268 09 19	www.masetto.ch	
zurich	massage	N/A	http://yellow.local.ch/en/d/Zurich/8002/Health-and-sports-massage/Antagon-AG-Ho6iJOHIZgDMag4aJfgwjQ?dwhat=massage&dwhere=zurich	Antagon AG	Lessingstrasse 3	 8002 Zürich	043 558 14 00		
zurich	massage	N/A	http://yellow.local.ch/en/d/Zurich/8001/Foot-care-pedicures/Beauty-am-Bellevue-hzqvQht8wP_UAPVHGSnjQA?dwhat=massage&dwhere=zurich	Beauty am Bellevue	Waldmannstrasse 10	 8001 Zürich	044 251 86 29		
zurich	massage	N/A	http://yellow.local.ch/en/d/Zurich/8003/Laser-cosmetic-treatment/Body-and-Face-uXHqtOY3583o-ZlPcpdWUA?dwhat=massage&dwhere=zurich	Body and Face	Schlossgasse 22	 8003 Zürich	044 462 34 00		
zurich	massage	N/A	http://yellow.local.ch/en/d/Zurich/8048/Health-and-sports-massage/Massagepraxis-Hallenbad-Altstetten-dWACRCPmtYwNgd5rpC1m7g?dwhat=massage&dwhere=zurich	Massagepraxis Hallenbad Altstetten	Dachslernstrasse 35	 8048 Zürich	044 433 07 00		
zurich	massage	N/A	http://yellow.local.ch/en/d/Zurich/8050/Spa/MONTRA-LANNA-9JS2pDn37XARIzjNh6MwlQ?dwhat=massage&dwhere=zurich	MONTRA LANNA	Schaffhauserstrasse 308	 8050 Zürich	044 482 03 07		
zurich	massage	N/A	http://yellow.local.ch/en/d/Zurich/8001/Chinese-medicine-TCM/TCM-Zurich-City-Ltd-3-KUcv2lL_cr8Zcs3pnwRw?dwhat=massage&dwhere=zurich	TCM Zürich-City Ltd	Oetenbachgasse 11	 8001 Zürich	043 497 31 88		
zurich	massage	N/A	http://yellow.local.ch/en/d/Zurich/8002/Naturopathy/Aalegria-Ort-fur-Gesundheit-u-Wohlbefinden-Csyl5bjoswILTMcYl6kt4Q?dwhat=massage&dwhere=zurich	Aalegria Ort für Gesundheit u. Wohlbefinden	Waffenplatzstrasse 84	 8002 Zürich	043 344 53 75		
zurich	massage	N/A	http://yellow.local.ch/en/d/Zurich/8008/Spa/Agaligo-Spa-hajB7r4lnrPHRQizvSeTgw?dwhat=massage&dwhere=zurich	Agaligo Spa	Bellerivestrasse 15	 8008 Zürich	076 765 01 01		
zurich	massage	N/A	http://yellow.local.ch/en/d/Zurich/8052/Health-and-sports-massage/all-adin-OLRhE5MXTohY-IckAvgfNA?dwhat=massage&dwhere=zurich	all-adin	Hertensteinstrasse 39	 8052 Zürich	079 403 47 93		
zurich	massage	N/A	http://yellow.local.ch/en/d/Zurich/8050/Physical-therapy/all-in-all-Physiotherapie-jcV9Ddb26jMjyEYuC1QxOg?dwhat=massage&dwhere=zurich	all in all Physiotherapie	Binzmühlestarsse 56	 8050 Zürich	044 666 94 94		
zurich	massage	N/A	http://yellow.local.ch/en/d/Zurich/8047/Shiatsu/Andres-Binia-8VJOJkIpRt95h1fyZjxJ2w?dwhat=massage&dwhere=zurich	Andres Binia	Hagenbuchrain 11	 8047 Zürich	079 229 30 32		
zurich	massage	N/A	http://yellow.local.ch/en/d/Zurich/8001/Respiratory-therapy/Anner-Marlene-MxrhktDjRXK-QhuQBYXSWw?dwhat=massage&dwhere=zurich	Anner Marlene	Weinbergstrasse 24	 8001 Zürich	044 251 31 12		
zurich	massage	N/A	http://yellow.local.ch/en/d/Zurich/8006/Cosmetic-institute/ANORY-beauty-and-body-care-lpqS0TjSLfbgtQ42sIzItw?dwhat=massage&dwhere=zurich	ANORY beauty and body care	Winterthurerstrasse 70	 8006 Zürich	043 810 09 22		
zurich	massage	N/A	http://yellow.local.ch/en/d/Zurich/8032/Health-and-sports-massage/Asia-Relax-SXT1RkktnpfMCkO1WR3_hA?dwhat=massage&dwhere=zurich	Asia-Relax	Klosbachstrasse 99	 8032 Zürich	044 363 55 55		
zurich	massage	N/A	http://yellow.local.ch/en/d/Zurich/8052/Health-and-sports-massage/Atelier-Arsea-4bQh7LrHTDQFg2sdDyrbGQ?dwhat=massage&dwhere=zurich	Atelier Arsea	Mattackerstrasse 55	 8052 Zürich	043 811 40 30		
zurich	massage	N/A	http://yellow.local.ch/en/d/Zurich/8002/Health-and-sports-massage/Ayala-Praxis-fur-Gesundheitsmassage-8s8yWv6EX-Y6jDBapeeeDw?dwhat=massage&dwhere=zurich	Ayala Praxis für Gesundheitsmassage	Jenatschstrasse 3	 8002 Zürich	044 202 52 26		
zurich	massage	N/A	http://yellow.local.ch/en/d/Zurich/8008/Ayurveda/Ayurveda-Beratung-fur-Ernahrung-und-Pflanzenheilkunde-Gubler-Sonja-UvX0GKsF0KxLkqMGyXuC8w?dwhat=massage&dwhere=zurich	Ayurveda Beratung für Ernährung und Pflanzenheilkunde Gubler Sonja	Dufourstrasse 106	 8008 Zürich	044 432 83 55		
zurich	massage	N/A	http://yellow.local.ch/en/d/Zurich/8008/Health-and-sports-massage/AyurvedaLeben-e2VX8fQjl7kY3_jMNAJGhg?dwhat=massage&dwhere=zurich	AyurvedaLeben	Dufourstrasse 106	 8008 Zürich	076 523 35 38		
zurich	massage	N/A	http://yellow.local.ch/en/d/Zurich/8002/Health-and-sports-massage/Balance-and-Light-21n0yCqFcKjb2rjTOjcfBw?dwhat=massage&dwhere=zurich	Balance and Light	Breitingerstrasse 21	 8002 Zürich	079 361 34 43		
zurich	massage	N/A	http://yellow.local.ch/en/d/Zurich/8037/Cosmetic-institute/Beauty-Relax-Palace-qZdRUJGiGgnZ4lsbtyJ-SQ?dwhat=massage&dwhere=zurich	Beauty & Relax Palace	Nordstrasse 233	 8037 Zürich	076 488 08 77		
zurich	massage	N/A	http://yellow.local.ch/en/d/Zurich/8048/Permanent-make-up/Beauty-Swiss-Group-GmbH-aOZZBDHIaujzZTs3qd1_EA?dwhat=massage&dwhere=zurich	Beauty Swiss Group GmbH	Altstetterstrasse 186	 8048 Zürich	043 818 51 20		
zurich	massage	N/A	http://yellow.local.ch/en/d/Zurich/8006/Cosmetic-institute/Beauty-Wave-_d2sElfgVWgdAduhjiwjgw?dwhat=massage&dwhere=zurich	Beauty-Wave	Schaffhauserstrasse 6	 8006 Zürich	044 350 37 68		
zurich	massage	N/A	http://yellow.local.ch/en/d/Zurich/8006/Health-and-sports-massage/beruhrt-naturlich-0_DCcgX9RHqUDhvzATtybQ?dwhat=massage&dwhere=zurich	berührt - natürlich	Sumatrastrasse 39	 8006 Zürich	076 340 51 72		
zurich	massage	N/A	http://yellow.local.ch/en/d/Zurich/8004/Health-and-sports-massage/Body-Care-fur-Sie-Er-U5cX3avnFQUn7dENKMPYRQ?dwhat=massage&dwhere=zurich	Body-Care für Sie + Er	Köchlistrasse 25	 8004 Zürich	044 242 41 57		
zurich	massage	N/A	http://yellow.local.ch/en/d/Zurich/8004/Counseling-for-sexual-disorders/BodyElectric-5HkJJx3Q76FdZdRU3xfukA?dwhat=massage&dwhere=zurich	BodyElectric	Kanzleistrasse 63	 8004 Zürich	044 242 77 74		
zurich	massage	N/A	http://yellow.local.ch/en/d/Zurich/8004/Health-and-sports-massage/Bodyfeel-Massage-Praxis-Zurich-FYeQA2cHVF7FfWw8_ISaeg?dwhat=massage&dwhere=zurich	Bodyfeel Massage Praxis Zürich	Nietengasse 7	 8004 Zürich	076 445 22 79		
zurich	massage	N/A	http://yellow.local.ch/en/d/Zurich/8046/Cosmetic-institute/Bosch-Rene-i561LPCWcezniGLdVtfMGA?dwhat=massage&dwhere=zurich	Bösch René	Wehntalerstrasse 387	 8046 Zürich	043 299 07 41		
zurich	massage	N/A	http://yellow.local.ch/en/d/Zurich/8037/Health-and-sports-massage/Brodmann-Manuela-qDHxgtBEtP6COWCGY7R9eQ?dwhat=massage&dwhere=zurich	Brodmann Manuela	Waidstrasse 17	 8037 Zürich	044 272 78 81		
zurich	massage	N/A	http://yellow.local.ch/en/d/Zurich/8052/Craniosacral-therapy/Buralli-Verena-Gossweiler-l3raev0HtLUwarh6afzuvQ?dwhat=massage&dwhere=zurich	Buralli Verena (-Gossweiler)	Seebacherstrasse 84	 8052 Zürich	044 302 71 53		
zurich	massage	N/A	http://yellow.local.ch/en/d/Zurich/8008/Perfumery/Celeste-Cosmetic-AG-ld5gl2nSXJwnmvdOsHs7WA?dwhat=massage&dwhere=zurich	Celeste Cosmetic AG	Seefeldstrasse 92	 8008 Zürich	044 463 62 60		
zurich	massage	N/A	http://yellow.local.ch/en/d/Zurich/8002/Acupuncture-not-included-in-category-doctors/Christian-Harringer-PKyAwextzPY2o5Une7WqFQ?dwhat=massage&dwhere=zurich	Christian Harringer	Bleicherweg 54	 8002 Zürich	044 281 31 31		
zurich	massage	N/A	http://yellow.local.ch/en/d/Zurich/8050/Health-and-sports-massage/Christin-Niklaus-Massagen-pedC413PYuh-dxBiaQ9VjA?dwhat=massage&dwhere=zurich	Christin Niklaus Massagen	Schaffhauserstrasse 343	 8050 Zürich	044 311 66 77		
zurich	massage	N/A	http://yellow.local.ch/en/d/Zurich/8055/Health-and-sports-massage/Dandliker-Maja-dil7Hyw9E5Ii9SeAOtGznA?dwhat=massage&dwhere=zurich	Dändliker Maja	Im Tiergarten 36	 8055 Zürich	079 669 21 26		
zurich	massage	N/A	http://yellow.local.ch/en/d/Zurich/8041/Cosmetic-institute/Dermarelax-CvqLhU7gsz83B5Mm2iInKg?dwhat=massage&dwhere=zurich	Dermarelax	Leimbachstrasse 36	 8041 Zürich	044 480 01 77		
zurich	massage	N/A	http://yellow.local.ch/en/d/Zurich/8004/Health-and-sports-massage/dionysBEWEGT-Sc-C2vM4CC7NipM2Z7HV-Q?dwhat=massage&dwhere=zurich	dionysBEWEGT	Zypressenstrasse 50	 8004 Zürich	076 495 69 69		
zurich	massage	N/A	http://yellow.local.ch/en/d/Zurich/8008/Health-and-sports-massage/EGEMA-cooG9sRMJ0huNwvt6-pW1A?dwhat=massage&dwhere=zurich	EGEMA	Feldeggstrasse 36	 8008 Zürich	044 380 40 40		
zurich	massage	N/A	http://yellow.local.ch/en/d/Zurich/8032/Health-and-sports-massage/Eichenberger-Katharina-_oBZI0PfaPPz9gyASdwIrw?dwhat=massage&dwhere=zurich	Eichenberger Katharina	Asylstrasse 17	 8032 Zürich	079 376 33 36		
zurich	massage	N/A	http://yellow.local.ch/en/d/Zurich/8001/Reflexology/Fischer-Nadine-QK7Lo--Moke-7osg3eyX_w?dwhat=massage&dwhere=zurich	Fischer Nadine	Preyergasse 8 4. Stock	 8001 Zürich	079 385 83 21		
zurich	massage	N/A	http://yellow.local.ch/en/d/Zurich/8001/Health-and-sports-massage/Fitnesspark-Munstergasse-fLuq4aJWcj3UmqdmOQF-NQ?dwhat=massage&dwhere=zurich	Fitnesspark Münstergasse	Blaufahnenstrasse 3	 8001 Zürich	058 568 81 81		
zurich	massage	N/A	http://yellow.local.ch/en/d/Zurich/8005/Health-and-sports-massage/Fitnesspark-Puls5-Z77JUOaF9d_Vteh8WavhgQ?dwhat=massage&dwhere=zurich	Fitnesspark Puls5	Giessereistrasse 18	 8005 Zürich	058 568 10 00		
zurich	massage	N/A	http://yellow.local.ch/en/d/Zurich/8002/Health-and-sports-massage/Fitnesspark-Stockerhof-p61NIkK283DieUWfm9ulMA?dwhat=massage&dwhere=zurich	Fitnesspark Stockerhof	Dreikönigstrasse 31A	 8002 Zürich	058 568 50 50		
zurich	massage	N/A	http://yellow.local.ch/en/d/Zurich/8038/Health-and-sports-massage/FITNESSWEG-JfWURrd6zLl9cOKI7-Cxqg?dwhat=massage&dwhere=zurich	FITNESSWEG	Erligatterweg 71	 8038 Zürich	077 431 62 69		
zurich	massage	N/A	http://yellow.local.ch/en/d/Zurich/8046/Health-and-sports-massage/Gagg-Sandra-Massagen-RHIIYnf6NDlWjPrG0FQG-Q?dwhat=massage&dwhere=zurich	Gagg Sandra - Massagen	Schauenbergstrasse 12	 8046 Zürich	079 472 88 03		
zurich	massage	N/A	http://yellow.local.ch/en/d/Zurich/8047/Spinal-column-therapy/ganzheitliche-Therapie-Sandra-Sprecher-QMRJBt9rNE3px6F50jczIA?dwhat=massage&dwhere=zurich	ganzheitliche Therapie Sandra Sprecher	Mühlezelgstrasse 53	 8047 Zürich	079 449 74 48		
zurich	massage	N/A	http://yellow.local.ch/en/d/Zurich/8047/Health-care-center/Gesundheitspraxis-Albisrieden-KDSMceqnfaisN1RLzyt8zA?dwhat=massage&dwhere=zurich	Gesundheitspraxis Albisrieden	Albisriederstrasse 256a	 8047 Zürich	044 557 92 55		
zurich	massage	N/A	http://yellow.local.ch/en/d/Zurich/8032/Health-care-center/Gesundheitspraxis-Asylstrasse-H3uu1xNkoU1ONvoSZ_FtHA?dwhat=massage&dwhere=zurich	Gesundheitspraxis Asylstrasse	Asylstrasse 119	 8032 Zürich	079 370 87 52		
zurich	massage	N/A	http://yellow.local.ch/en/d/Zurich/8052/Ayurveda/Gesundheitspraxis-Barbara-Schwager-44JtudvN8Xccg8g7VPBVag?dwhat=massage&dwhere=zurich	Gesundheitspraxis Barbara Schwager	Felsenrainstrasse 1	 8052 Zürich	044 302 25 83		
zurich	massage	N/A	http://yellow.local.ch/en/d/Zurich/8050/Health-and-sports-massage/Gesundheitspraxis-zur-Quelle-aMOa3B4TKMOWquSxoeKQGg?dwhat=massage&dwhere=zurich	Gesundheitspraxis zur Quelle	Schaffhauserstrasse 432	 8050 Zürich	076 529 64 94		
zurich	massage	N/A	http://yellow.local.ch/en/d/Zurich/8001/Health-and-sports-massage/Haas-Michael-g9yeKbkM5NjomwVtCzB2_w?dwhat=massage&dwhere=zurich	Haas Michael	Bahnhof, Stadelhoferstrasse 8	 8001 Zürich	043 243 74 41		
zurich	massage	N/A	http://yellow.local.ch/en/d/Zurich/8049/Health-and-sports-massage/Harmony-Y9X-y0R3fFX-ZZpoqckABg?dwhat=massage&dwhere=zurich	Harmony	Limmattalstrasse 234	 8049 Zürich	044 342 52 42		
zurich	massage	N/A	http://yellow.local.ch/en/d/Zurich/8003/Reflexology/Hauser-Daniel-TP-yjZz1glczntk3QiA20g?dwhat=massage&dwhere=zurich	Hauser Daniel	Albisriederstrasse 5	 8003 Zürich	043 311 02 22		
zurich	massage	N/A	http://yellow.local.ch/en/d/Zurich/8048/Health-and-well-being/Health-Beauty-Ho5ZvWRQgrNXpdzb3q3zEQ?dwhat=massage&dwhere=zurich	Health & Beauty	Im Struppen 11	 8048 Zürich	043 343 07 75		
zurich	massage	N/A	http://yellow.local.ch/en/d/Zurich/8032/Health-and-sports-massage/Hefti-Brigitte-S-RRRPJosAc01LP1uEvVshKw?dwhat=massage&dwhere=zurich	Hefti Brigitte S.	Merkurstrasse 36	 8032 Zürich	044 383 20 59		
zurich	massage	N/A	http://yellow.local.ch/en/d/Zurich/8008/Health-and-sports-massage/Hegner-Maria-Regula-tESEE7RE3XTyB133-VgKOg?dwhat=massage&dwhere=zurich	Hegner Maria-Regula	Hammerstrasse 24	 8008 Zürich	044 381 16 79		
zurich	massage	N/A	http://yellow.local.ch/en/d/Zurich/8008/Health-and-sports-massage/Hofer-Gregory--eaRsgida464LaM9DA1DGA?dwhat=massage&dwhere=zurich	Hofer Gregory	Forchstrasse 92	 8008 Zürich	044 422 49 39		
zurich	massage	N/A	http://yellow.local.ch/en/d/Zurich/8048/Cosmetic-institute/Isla-Bonita-1dSnsOX-OihO6Y16QzOfGg?dwhat=massage&dwhere=zurich	Isla-Bonita	Badenerstrasse 595	 8048 Zürich	044 433 20 30		
zurich	massage	N/A	http://yellow.local.ch/en/d/Zurich/8051/Health-and-sports-massage/Kalmar-Valeria-Simon-_vog0JuY6fNCGHSfDyxgmA?dwhat=massage&dwhere=zurich	Kalmar Valeria (-Simon)	Dübendorfstrasse 211	 8051 Zürich	044 321 76 52		
zurich	massage	N/A	http://yellow.local.ch/en/d/Zurich/8001/Cosmetic-institute/Katja-Allure-of-Beauty-NX7TO9AfvZZykueAqVtnVQ?dwhat=massage&dwhere=zurich	Katja Allure of Beauty	Rennweg 46	 8001 Zürich	044 666 08 88		
zurich	massage	N/A	http://yellow.local.ch/en/d/Zurich/8008/Health-and-sports-massage/Kaufmann-Ivo-gAylIrRIIvWBeu3jKvWTIA?dwhat=massage&dwhere=zurich	Kaufmann Ivo	Dufourstrasse 131	 8008 Zürich	044 362 86 87		
zurich	massage	N/A	http://yellow.local.ch/en/d/Zurich/8032/Health-and-sports-massage/Kuhnis-Lea-acVG59N112QsTlPmK720gg?dwhat=massage&dwhere=zurich	Kühnis Lea	Merkurstrasse 36	 8032 Zürich	043 268 06 68		
zurich	massage	N/A	http://yellow.local.ch/en/d/Zurich/8004/Alternative-Therapy/LART-NATUREL-a6nvlZnd58Asb1F3QFcF1Q?dwhat=massage&dwhere=zurich	L'ART NATUREL	Feldstrasse 145	 8004 Zürich	077 466 22 39		
zurich	massage	N/A	http://yellow.local.ch/en/d/Zurich/8008/Craniosacral-therapy/Lang-Sibilla-250TD93oagb4_8-e_Xcz0A?dwhat=massage&dwhere=zurich	Lang Sibilla	Im Seefeld, Forchstrasse 92	 8008 Zürich	043 300 33 30		
zurich	massage	N/A	http://yellow.local.ch/en/d/Zurich/8055/Health-and-sports-massage/le-massage-_rcLzRLG8BVdd5B89wnRbg?dwhat=massage&dwhere=zurich	le massage	Goldbrunnenstrasse 111	 8055 Zürich	079 223 33 70		
zurich	massage	N/A	http://yellow.local.ch/en/d/Zurich/8002/Health-and-sports-massage/Marco-Valsangiacomo-Body-Value-7WUytoNOYPj_GizcZjlv1A?dwhat=massage&dwhere=zurich	Marco Valsangiacomo Body Value	Tödistrasse 49	 8002 Zürich	079 358 95 00		
zurich	massage	N/A	http://yellow.local.ch/en/d/Zurich/8051/Health-and-sports-massage/Massage-Praxis-VDpGeMqcZRQZpxVKy0tEig?dwhat=massage&dwhere=zurich	Massage-Praxis	Friedrichstrasse 4	 8051 Zürich	044 321 21 85		
zurich	massage	N/A	http://yellow.local.ch/en/d/Zurich/8001/Health-and-well-being/MassageKunst-Olga-Kosarik-3StYoyA9mWzgzX3WkPsPhw?dwhat=massage&dwhere=zurich	MassageKunst Olga Kosarik	Waldmannstrasse 10	 8001 Zürich	076 233 88 01		
zurich	massage	N/A	http://yellow.local.ch/en/d/Zurich/8052/Health-and-sports-massage/Massagepraxis--RzMCI6ShJBy615YskLK9A?dwhat=massage&dwhere=zurich	Massagepraxis	Glatttalstrasse 118i	 8052 Zürich	078 866 60 14		
zurich	massage	N/A	http://yellow.local.ch/en/d/Zurich/8006/Lymphatic-Drainage/Massagepraxis-Martina-Rigonalli-dQkI94eEBmEumqQ-sqJ8ow?dwhat=massage&dwhere=zurich	Massagepraxis Martina Rigonalli	Sumatrastrasse 25	 8006 Zürich	076 348 16 00		
zurich	massage	N/A	http://yellow.local.ch/en/d/Zurich/8049/Health-and-sports-massage/Massagepraxis-Riedhof-3EnSFHvGbqoBgW00e8pLFg?dwhat=massage&dwhere=zurich	Massagepraxis Riedhof	Riedhofstrasse 354	 8049 Zürich	043 300 44 81		
zurich	massage	N/A	http://yellow.local.ch/en/d/Zurich/8047/Health-and-sports-massage/Massagepraxis-Sabine-Zenz-azJAqcxwQMjDGz-5ZsFogw?dwhat=massage&dwhere=zurich	Massagepraxis Sabine Zenz	Bachwiesenstrasse 117	 8047 Zürich	079 307 75 67		
zurich	massage	N/A	http://yellow.local.ch/en/d/Zurich/8003/Bodywork/May-Geraldine-CWeOBbpwDLL8x8peD3OmIA?dwhat=massage&dwhere=zurich	May Geraldine	Ottilienstrasse 17	 8003 Zürich	043 497 97 12		
zurich	massage	N/A	http://yellow.local.ch/en/d/Zurich/8002/Cosmetic-institute/medical-beauty-park-AG-diFd-IkKHiLAE8eC_YUZsg?dwhat=massage&dwhere=zurich	medical beauty park AG	Freigutstrasse 6	 8002 Zürich	044 280 08 88		
zurich	massage	N/A	http://yellow.local.ch/en/d/Zurich/8047/Health-and-sports-massage/Medizinische-Massage-Praxis-Y-6RDHoyAcMVHPwC_mOD6A?dwhat=massage&dwhere=zurich	Medizinische Massage-Praxis	Wydlerweg 13	 8047 Zürich	044 400 35 27		
zurich	massage	N/A	http://yellow.local.ch/en/d/Zurich/8055/Health-and-sports-massage/Medizinische-Massagepraxis-iydR1W7Am0aUz8eIXLZRmA?dwhat=massage&dwhere=zurich	Medizinische Massagepraxis	Im Tiergarten 36	 8055 Zürich	076 472 84 87		
zurich	massage	N/A	http://yellow.local.ch/en/d/Zurich/8050/Health-and-sports-massage/Mokei-9xll4rDxm7uEEChv4opQHw?dwhat=massage&dwhere=zurich	Mokei	Ruedi-Walter-Strasse 2A	 8050 Zürich	044 313 08 08		
zurich	massage	N/A	http://yellow.local.ch/en/d/Zurich/8064/Health-and-sports-massage/Muniz-Elida-oOBArPVlZf80utte4AXfSQ?dwhat=massage&dwhere=zurich	Muniz Elida	Bändlistrasse 29	 8064 Zürich	044 432 56 35		
zurich	massage	N/A	http://yellow.local.ch/en/d/Zurich/8004/Health-and-sports-massage/Natural-Facial-Rejuvenation-INzaJXu19bUdHT8ICyqq0A?dwhat=massage&dwhere=zurich	Natural Facial Rejuvenation	Hohlstrasse 90	 8004 Zürich	076 680 77 47		
zurich	massage	N/A	http://yellow.local.ch/en/d/Zurich/8008/Craniosacral-therapy/Naturheilraum-Praxis-fur-Naturheilkunde-ssx_BZRAAAKeL6Q8ilSl0g?dwhat=massage&dwhere=zurich	Naturheilraum - Praxis für Naturheilkunde	Dufourstrasse 106	 8008 Zürich	079 473 75 44		
zurich	massage	N/A	http://yellow.local.ch/en/d/Zurich/8046/Physical-therapy/Physio-Pilates-Praxis-mOGZz9t-MPiWmMRkapC2vw?dwhat=massage&dwhere=zurich	Physio-Pilates-Praxis	Schauenbergstrasse 12	 8046 Zürich	076 530 33 96		
zurich	massage	N/A	http://yellow.local.ch/en/d/Zurich/8041/Health-and-sports-massage/Pinti-Maya-Js-uX97rg_y2K_IhoQncxQ?dwhat=massage&dwhere=zurich	Pinti Maya	Klebestrasse 15	 8041 Zürich	079 606 01 47		
zurich	massage	N/A	http://yellow.local.ch/en/d/Zurich/8050/Health-and-sports-massage/podospa-gmbh-Massagen-uJgIXcZF4Vy1QZvS5aV7xw?dwhat=massage&dwhere=zurich	podospa gmbh Massagen	Schaffhauserstrasse 343	 8050 Zürich	044 311 66 77		
zurich	massage	N/A	http://yellow.local.ch/en/d/Zurich/8002/Lymphatic-Drainage/Praxis-Colomb-Med-Massage-Therapie-Zurich-Enge-Ik-8jbMvEPlNBkx8Di_bqg?dwhat=massage&dwhere=zurich	Praxis Colomb, Med. Massage & Therapie, Zürich- Enge	Bederstrasse 76	 8002 Zürich	079 598 72 71		
zurich	massage	N/A	http://yellow.local.ch/en/d/Zurich/8050/Health-and-sports-massage/Praxis-fur-ganzheitliche-Massage-Star-Seeds-5J2KzohdL_04v6VLK2hThg?dwhat=massage&dwhere=zurich	Praxis für ganzheitliche Massage Star Seeds	Schulstrasse 29	 8050 Zürich	079 326 50 79		
zurich	massage	N/A	http://yellow.local.ch/en/d/Zurich/8049/Health-and-sports-massage/Praxis-fur-medizinische-Massage--s3e6b7tkA_Q1ELVF5Qbcg?dwhat=massage&dwhere=zurich	Praxis für medizinische Massage	Limmattalstrasse 195	 8049 Zürich	044 342 21 67		
zurich	massage	N/A	http://yellow.local.ch/en/d/Zurich/8004/Health-and-sports-massage/Praxis-fur-Rebalancing-NQSSPJ47_JfT5tfBEkbFJA?dwhat=massage&dwhere=zurich	Praxis für Rebalancing	Zeughausstrasse 51	 8004 Zürich	079 377 61 89		
zurich	massage	N/A	http://yellow.local.ch/en/d/Zurich/8048/Health-and-sports-massage/Praxis-MORIS-ox0zhaM7weyjyNs6nMLIdA?dwhat=massage&dwhere=zurich	Praxis MORIS	Badenerstrasse 658	 8048 Zürich	078 803 56 66		
zurich	massage	N/A	http://yellow.local.ch/en/d/Zurich/8049/Health-and-sports-massage/Praxis-ReVitae-9wSNdqt5qEmMJN8K3khjyg?dwhat=massage&dwhere=zurich	Praxis ReVitae	Riedhofstrasse 354	 8049 Zürich	044 558 97 66		
zurich	massage	N/A	http://yellow.local.ch/en/d/Zurich/8057/Health-and-well-being/relaxfit-E7EejKM5HnSOYXwelg9RiA?dwhat=massage&dwhere=zurich	relaxfit	Viktoriastrasse 32	 8057 Zürich	076 341 70 60		
zurich	massage	N/A	http://yellow.local.ch/en/d/Zurich/8047/Respiratory-therapy/Respiro-Vivo-neTT6h_rtBuIrIs1nIjkew?dwhat=massage&dwhere=zurich	Respiro Vivo	Liebensteinstrasse 7	 8047 Zürich	044 433 05 29		
zurich	massage	N/A	http://yellow.local.ch/en/d/Zurich/8046/Health-and-sports-massage/Robalance-LQchKKNtB-FbDncyMiqWhQ?dwhat=massage&dwhere=zurich	Robalance	Regulastrasse 51	 8046 Zürich	044 371 67 64		
zurich	massage	N/A	http://yellow.local.ch/en/d/Zurich/8044/Physical-therapy/Rosenau-LMQtiHvfcH7VH6SYnsPYGw?dwhat=massage&dwhere=zurich	Rosenau	Gladbachstrasse 95	 8044 Zürich	044 262 44 23		
zurich	massage	N/A	http://yellow.local.ch/en/d/Zurich/8006/Health-and-sports-massage/Rosenberger-Jeannette-lvcnHuUrqcgB-NCEDMxTqA?dwhat=massage&dwhere=zurich	Rosenberger Jeannette	Ekkehardstrasse 11	 8006 Zürich	044 202 57 57		
zurich	massage	N/A	http://yellow.local.ch/en/d/Zurich/8008/Health-and-sports-massage/Sauna-und-Sporttherapie-uYuM_laY1eJ9sRVwO1ZaMw?dwhat=massage&dwhere=zurich	Sauna und Sporttherapie	Utoquai 49	 8008 Zürich	044 252 80 85		
zurich	massage	N/A	http://yellow.local.ch/en/d/Zurich/8008/Naturopathy/Schar-Yvonne-wGDXTkjUX_peRNe0zhvBaw?dwhat=massage&dwhere=zurich	Schär Yvonne	Feldeggstrasse 54	 8008 Zürich	076 580 22 95		
zurich	massage	N/A	http://yellow.local.ch/en/d/Zurich/8050/Health-and-sports-massage/Schimos-Massagen-und-Therapien-6nKEtGXbBy8LF20COl_0tg?dwhat=massage&dwhere=zurich	Schimos Massagen und Therapien	Schaffhauserstrasse 315	 8050 Zürich	044 311 80 39		
zurich	massage	N/A	http://yellow.local.ch/en/d/Zurich/8050/Foot-care-pedicures/Schlegel-Claudia-Blattler-xhH0FxipJp9FDfWCY00kAQ?dwhat=massage&dwhere=zurich	Schlegel Claudia (-Blättler)	Siewerdtstrasse 73	 8050 Zürich	076 571 08 94		
zurich	massage	N/A	http://yellow.local.ch/en/d/Zurich/8037/Health-and-sports-massage/Schroter-Francesca-A-BWXoLITcqPFCZoMA1jdQ9g?dwhat=massage&dwhere=zurich	Schröter Francesca A.	Nordstrasse 155	 8037 Zürich	044 252 71 07		
zurich	massage	N/A	http://yellow.local.ch/en/d/Zurich/8008/Health-and-sports-massage/Selb-Rahel-k5YRQu0iXGP6xIByEw3j0Q?dwhat=massage&dwhere=zurich	Selb Rahel	Delphinstrasse 24	 8008 Zürich	044 251 21 92		
zurich	massage	N/A	http://yellow.local.ch/en/d/Zurich/8004/Respiratory-therapy/sensemotion-2vEBGXG1_VBOo3AkVpGOpg?dwhat=massage&dwhere=zurich	sensemotion	Bäckerstrasse 40	 8004 Zürich	076 377 43 46		
zurich	massage	N/A	http://yellow.local.ch/en/d/Zurich/8050/Health-and-sports-massage/Sergio-Caduff-Massagen-Q-lngJmEPL3NYYJ6R7QbLQ?dwhat=massage&dwhere=zurich	Sergio Caduff Massagen	Schaffhauserstrasse 343	 8050 Zürich	044 311 66 77		
zurich	massage	N/A	http://yellow.local.ch/en/d/Zurich/8004/Health-and-sports-massage/Serratus-Studio-qAR2kGMlfl9PcmbLOHR74Q?dwhat=massage&dwhere=zurich	Serratus-Studio	Zwinglistrasse 40	 8004 Zürich	044 241 02 06		
zurich	massage	N/A	http://yellow.local.ch/en/d/Zurich/8006/Health-and-sports-massage/Sporttherapie-r9893Nc_cU92FoPlLBBZKg?dwhat=massage&dwhere=zurich	Sporttherapie	Beckenhofstrasse 60	 8006 Zürich	043 497 80 80		
zurich	massage	N/A	http://yellow.local.ch/en/d/Zurich/8032/Health-and-sports-massage/Staiger-Heidi-oB3OKEPt0N6JGD7uGrkD5A?dwhat=massage&dwhere=zurich	Staiger Heidi	Forchstrasse 173	 8032 Zürich	076 586 62 62		
zurich	massage	N/A	http://yellow.local.ch/en/d/Zurich/8006/Health-and-sports-massage/Stalder-Peter-edv3KfLH5pFYdbNVUGFw6g?dwhat=massage&dwhere=zurich	Stalder Peter	St. Moritzstrasse 9	 8006 Zürich	079 389 05 14		
zurich	massage	N/A	http://yellow.local.ch/en/d/Zurich/8008/Cosmetic-institute/Starliner-cosmetics-9WTp47MIiMd3wL44oCbsxA?dwhat=massage&dwhere=zurich	Starliner-cosmetics	Seefeldstrasse 204	 8008 Zürich	076 317 31 31		
zurich	massage	N/A	http://yellow.local.ch/en/d/Zurich/8005/Health-and-sports-massage/Staub-Silvia-hccUzoxn_5EbF6xp1M9K9g?dwhat=massage&dwhere=zurich	Staub Silvia	Konradstrasse 68	 8005 Zürich	044 273 52 22		
zurich	massage	N/A	http://yellow.local.ch/en/d/Zurich/8008/Health-and-sports-massage/Stolba-Verena-EYkmI6GmzcxzsBOC6sPcBw?dwhat=massage&dwhere=zurich	Stolba Verena	Florastrasse 45	 8008 Zürich	079 371 10 47		
zurich	massage	N/A	http://yellow.local.ch/en/d/Zurich/8008/Health-and-well-being/Tara-Wellness-Massage-5oVD-LGJPr1cphwaKMJBgg?dwhat=massage&dwhere=zurich	Tara Wellness Massage	Wildbachstrasse 62	 8008 Zürich	043 499 98 00		
zurich	massage	N/A	http://yellow.local.ch/en/d/Zurich/8001/Health-and-sports-massage/TCM-Barengo-JbsbM1J4-KzWjQ3s-5LYWA?dwhat=massage&dwhere=zurich	TCM-Barengo	Rämistrasse 38	 8001 Zürich	044 226 38 26		
zurich	massage	N/A	http://yellow.local.ch/en/d/Zurich/8048/Health-and-sports-massage/Thaipirinha-bRPr0Xa1vDwjn3A_fTHfLQ?dwhat=massage&dwhere=zurich	Thaipirinha	Badenerstrasse 713	 8048 Zürich	076 525 52 68		
zurich	massage	N/A	http://yellow.local.ch/en/d/Zurich/8047/Reflexology/Therapeutische-Massagen-m7hH29ksNSawzvaOMrVUWw?dwhat=massage&dwhere=zurich	Therapeutische Massagen	Püntstrasse 22	 8047 Zürich	076 337 33 64		
zurich	massage	N/A	http://yellow.local.ch/en/d/Zurich/8008/Health-and-sports-massage/Therapie-Massagepraxis-Mediwell-Om2RSYtOwovfNMurIX1L1A?dwhat=massage&dwhere=zurich	Therapie- & Massagepraxis Mediwell	Wiesenstrasse 11	 8008 Zürich	079 372 56 56		
zurich	massage	N/A	http://yellow.local.ch/en/d/Zurich/8006/Thai-massage/Tida-Thai-Massage-xL65VWQigIMWzmhO0GNGbg?dwhat=massage&dwhere=zurich	Tida Thai Massage	Sumatrastrasse 25 1.UG Sumatrasteig	 8006 Zürich	044 500 50 88		
zurich	massage	N/A	http://yellow.local.ch/en/d/Zurich/8006/Health-and-well-being/Timeout-Massage-gCyytk7YrOznt1W0zV7PVg?dwhat=massage&dwhere=zurich	Timeout-Massage	c/o HairCreation Zoro UG, Stolzestrasse 15	 8006 Zürich	076 361 44 82		
zurich	massage	N/A	http://yellow.local.ch/en/d/Zurich/8046/Health-and-sports-massage/Tusculum-Massagen-9eMGrkT2b1t_7asjDX809Q?dwhat=massage&dwhere=zurich	Tusculum Massagen	Furttalstrasse 21	 8046 Zürich	079 737 83 89		
zurich	massage	N/A	http://yellow.local.ch/en/d/Zurich/8001/Health-and-sports-massage/Tuys-Traditionelle-Medizinische-Thai-Massage-_Krd_pcMqtv9VHK9CG5VKA?dwhat=massage&dwhere=zurich	Tuy's Traditionelle Medizinische Thai-Massage	Niederdorfstrasse 18	 8001 Zürich	079 351 82 20		
zurich	massage	N/A	http://yellow.local.ch/en/d/Zurich/8050/Swimming-lessons/wellfit-11-Drx_xbQJJNGolMKuqpHgkg?dwhat=massage&dwhere=zurich	wellfit 11	Wallisellenstrasse 100	 8050 Zürich	044 312 53 53		
zurich	massage	N/A	http://yellow.local.ch/en/d/Zurich/8044/Health-and-sports-massage/Wellness-am-Zuriberg-OFgWKMzsOSeXR6kfG1YKAw?dwhat=massage&dwhere=zurich	Wellness am Züriberg	Tobelhofstrasse 21	 8044 Zürich	044 252 49 16		
zurich	massage	N/A	http://yellow.local.ch/en/d/Zurich/8006/Health-and-sports-massage/Widmer-Erhard-Urs-sT_wIAkN427gaer6L9hxtw?dwhat=massage&dwhere=zurich	Widmer Erhard Urs	Bolleystrasse 11	 8006 Zürich	044 361 12 22		
zurich	massage	N/A	http://yellow.local.ch/en/d/Zurich/8008/Health-and-sports-massage/wissen-wie-der-hase-lauft-TlQRF9l97n5pb2dRf1gOLQ?dwhat=massage&dwhere=zurich	wissen, wie der hase läuft	Kreuzbühlstrasse 8	 8008 Zürich	076 378 61 62		
zurich	massage	N/A	http://yellow.local.ch/en/d/Zurich/8038/Sauna/Wollishofer-Sauna-ganmXvx9kKGaYv37rkylyQ?dwhat=massage&dwhere=zurich	Wollishofer Sauna	Moosstrasse 26	 8038 Zürich	044 482 04 84		
zurich	massage	N/A	http://yellow.local.ch/en/d/Zurich/8037/Health-and-sports-massage/Wyssen-Marina-A_ua-3JNP934ctmOLGwj6A?dwhat=massage&dwhere=zurich	Wyssen Marina	Okenstrasse 10	 8037 Zürich	044 363 30 42		
zurich	massage	N/A	http://yellow.local.ch/en/d/Zurich/8008/Health-and-sports-massage/Yvonne-Ott-Massagepraxis-ximtpstFay5HyiXzqvlLiA?dwhat=massage&dwhere=zurich	Yvonne Ott Massagepraxis	Wiesenstrasse 11	 8008 Zürich	079 197 85 39		
zurich	massage	N/A	http://yellow.local.ch/en/d/Zurich/8001/Health-and-sports-massage/Zachmann-Sandra-g7A3pLhGCZNQB5fZD9rOxg?dwhat=massage&dwhere=zurich	Zachmann Sandra	Stadelhoferstrasse 40	 8001 Zürich	079 680 40 47		
zurich	massage	N/A	http://yellow.local.ch/en/d/Zurich/8055/Chinese-medicine-TCM/Praxis-fur-Traditionelle-Chinesische-Medizin-NXOisoJfw9inEOBLcQF_7g?dwhat=massage&dwhere=zurich	Praxis für Traditionelle Chinesische Medizin	Bühlstrasse 45	 8055 Zürich	079 297 76 16	www.tcmzuerich.ch	
zurich	massage	N/A	http://yellow.local.ch/en/d/Zurich/8032/Chinese-medicine-TCM/CHINGCURA-C0GPW6-Ll81w0KYMru4aBQ?dwhat=massage&dwhere=zurich	CHINGCURA	Asylstrasse 19	 8032 Zürich	043 268 08 66	www.chingcura-tcm.ch	
zurich	massage	N/A	http://yellow.local.ch/en/d/Zurich/8005/Acupuncture-not-included-in-category-doctors/Coachfrog-AG-MIHm4Dg5sqTvSqwOGDfcrQ?dwhat=massage&dwhere=zurich	Coachfrog AG	Hardstrasse 301	 8005 Zürich	044 444 50 80	www.coachfrog.ch	
zurich	massage	N/A	http://yellow.local.ch/en/d/Zurich/8004/Acupuncture-not-included-in-category-doctors/Kohler-Andrea-4GeXOCkvuuO0w5Rx_9J9Hg?dwhat=massage&dwhere=zurich	Kohler Andréa	St. Jakobstrasse 29	 8004 Zürich	078 806 28 08	praxisandreakohler.blogspot.ch	
zurich	massage	N/A	http://yellow.local.ch/en/d/Zurich/8004/Chinese-medicine-TCM/Praxis-fur-Chinesische-Medizin-Schule-fur-Tai-Chi-Chuan-Qi-Gong-ehtR0DeGkXNKvWR6NN0rwQ?dwhat=massage&dwhere=zurich	Praxis für Chinesische Medizin, Schule für Tai Chi Chuan & Qi Gong	Bäckerstrasse 40	 8004 Zürich	079 333 41 12	www.tcmpraxis-zuerich.ch	
zurich	massage	N/A	http://yellow.local.ch/en/d/Zurich/8001/Cosmetic-institute/bodyflexx-lq_YflrqLNJRfClw_UWAqA?dwhat=massage&dwhere=zurich	bodyflexx	Preyergasse 8	 8001 Zürich	043 343 90 46	www.bodyflexx.ch	
zurich	massage	N/A	http://yellow.local.ch/en/d/Zurich/8005/Massage-salon/ease-DESIGN-SPA-qRfr42BwOKKzeuN9o8fZyQ?dwhat=massage&dwhere=zurich	ease DESIGN SPA	Giessereistrasse 18 im 1. OG / Puls 5	 8005 Zürich	044 555 45 55	www.easedesignspa.ch	
zurich	massage	N/A	http://yellow.local.ch/en/d/Zurich/8037/Shiatsu/just-relaxed-GmbH-wSHTGz2xXOtzDiY_BpEBCg?dwhat=massage&dwhere=zurich	just - relaxed GmbH	Rötelstrasse 73	 8037 Zürich	044 350 13 13	www.just-relaxed.ch	
zurich	massage	N/A	http://yellow.local.ch/en/d/Zurich/8002/Medical-massage/Martina-Scharrer-Med-Massage-Endermologie-aXk1P2hno7I1sgySl3McJw?dwhat=massage&dwhere=zurich	Martina Schärrer - Med. Massage & Endermologie	Beethovenstrasse 9	 8002 Zürich	078 700 65 25	www.martina-schaerrer.ch	
zurich	massage	N/A	http://yellow.local.ch/en/d/Zurich/8001/Physical-therapy/Medbase-Sports-Medical-Center-Zurich-xgpOO2oAms8q5cUrOhZ25A?dwhat=massage&dwhere=zurich	Medbase Sports Medical Center Zürich	Löwenstrasse 29	 8001 Zürich	044 226 36 36	www.medbase.ch	
zurich	massage	N/A	http://yellow.local.ch/en/d/Zurich/8055/Naturopathy/Naturheilpraxis-Kern-Doris-8TMG_NDMgbqtlHQnAvpFUA?dwhat=massage&dwhere=zurich	Naturheilpraxis Kern Doris	Im Wyl 18	 8055 Zürich	044 340 14 16	www.naturheilpraxis-kern.ch	
zurich	massage	N/A	http://yellow.local.ch/en/d/Zurich/8050/Lymphatic-Drainage/Praxis-JARMILA-PZhNA4D9Clc8GFSiGOH2pA?dwhat=massage&dwhere=zurich	Praxis JARMILA	Holunderweg 25d	 8050 Zürich	044 557 44 86	www.massage-jarmila.ch	
zurich	massage	N/A	http://yellow.local.ch/en/d/Zurich/8001/Medical-massage/Rebalance-MCtADDax32SpFZo_0tKQnQ?dwhat=massage&dwhere=zurich	Rebalance	Kuttelgasse 1	 8001 Zürich	078 771 10 75	www.rebalance.ch	
zurich	massage	N/A	http://yellow.local.ch/en/d/Zurich/8001/Naturopathy/Akupunktur-Chinesische-Medizin-SinoQi-TCM-Zentrum-Zurich-Bahnhofplatz-zJz7IaUWvXEYu_ifusrluQ?dwhat=massage&dwhere=zurich	Akupunktur - Chinesische Medizin - SinoQi TCM Zentrum Zürich Bahnhofplatz	Lintheschergasse 21	 8001 Zürich	044 210 22 22		
zurich	massage	N/A	http://yellow.local.ch/en/d/Zurich/8050/Thai-massage/CHABA-Thaimassagen-jnesW_tXl8QY5uMa9HUrUQ?dwhat=massage&dwhere=zurich	CHABA-Thaimassagen	Funkwiesenstrasse 100	 8050 Zürich	043 321 58 39		
zurich	massage	N/A	http://yellow.local.ch/en/d/Zurich/8032/Acupuncture-not-included-in-category-doctors/Akupunktur-Massage-Schudel-Janssen-Claudia-d7A1r7haic7ybpXHQkUa7A?dwhat=massage&dwhere=zurich	Akupunktur-Massage Schudel-Janssen Claudia	Klosbachstrasse 116 2. Stock	 8032 Zürich	044 876 02 12	www.ap-massage.ch	
zurich	massage	N/A	http://yellow.local.ch/en/d/Zurich/8046/Physical-therapy/Ettlin-Muriel-wP_iK1j7gn9NKxq5FE2TOA?dwhat=massage&dwhere=zurich	Ettlin Muriel	Schauenbergstrasse 4	 8046 Zürich	044 371 55 11	www.physio-ettlin.ch	
zurich	massage	N/A	http://yellow.local.ch/en/d/Zurich/8001/Craniosacral-therapy/Ionescu-Ursula-fUJtLiHX5I9u0C6bLEOR0g?dwhat=massage&dwhere=zurich	Ionescu Ursula	Uraniastrasse 22	 8001 Zürich	079 399 38 80	www.ursula-ionescu.ch	
zurich	massage	N/A	http://yellow.local.ch/en/d/Zurich/8008/Shop/Memory-of-Siam-3-0NCsRSQSyNtt1kyTU-FQ?dwhat=massage&dwhere=zurich	Memory of Siam	Florastrasse 47	 8008 Zürich	044 515 20 02	www.memoryofsiam.ch	
zurich	massage	N/A	http://yellow.local.ch/en/d/Zurich/8055/BALI-MASSAGE-GmbH-MVDeqsJOuO_0amPe-ZHUoA?dwhat=massage&dwhere=zurich	BALI MASSAGE GmbH	Binzallee 37	 8055 Zürich	078 785 68 84		
zurich	massage	N/A	http://yellow.local.ch/en/d/Zurich/8008/Cosmetic-institute/Decaspa-Medical-Beauty-4kz33GvGgZB1J1zPDCrBjw?dwhat=massage&dwhere=zurich	Decaspa Medical Beauty	Feldeggstrasse 69	 8008 Zürich	044 806 20 02		
zurich	massage	N/A	http://yellow.local.ch/en/d/Zurich/8032/Acupuncture-not-included-in-category-doctors/I-love-TCM-David-Kucher-RtH61J6qGxTk30sOkpiiIw?dwhat=massage&dwhere=zurich	I love TCM David Kucher	Dolderstrasse 24	 8032 Zürich	076 200 06 35		
zurich	massage	N/A	http://yellow.local.ch/en/d/Zurich/8004/Massage-Lounge-s-8zgy-_2desBoetVqoSQg?dwhat=massage&dwhere=zurich	Massage Lounge	Lagerstrasse 18b	 8004 Zürich	044 515 53 19		
zurich	massage	N/A	http://yellow.local.ch/en/d/Zurich/8001/Medical-massage/PHYSIOZENTRUM-oQhwJQnhAOpb1avR97-Mbg?dwhat=massage&dwhere=zurich	PHYSIOZENTRUM	Bahnhofplatz 3	 8001 Zürich	044 271 33 66		
zurich	massage	N/A	http://yellow.local.ch/en/d/Zurich/8038/Royal-Kosmetik-Massage-Praxis-K482XmSqS0twtlT8cgOlTw?dwhat=massage&dwhere=zurich	Royal-Kosmetik-Massage Praxis	Kalchbühlstrasse 62	 8038 Zürich	076 595 00 55		
zurich	massage	N/A	http://yellow.local.ch/en/d/Zurich/8048/Structural-Integration-Rolfing/RoyalRolfing-RoyalReflex-i-FtA8h8SUwhKNwdZeTOUg?dwhat=massage&dwhere=zurich	RoyalRolfing & RoyalReflex	Bristenstrasse 20	 8048 Zürich	044 322 22 80		
zurich	massage	N/A	http://yellow.local.ch/en/d/Zurich/8004/Acupoint-massage/Schappi-Anna-Barbara-9RNCZfqGLidw1YClk01SFQ?dwhat=massage&dwhere=zurich	Schäppi Anna Barbara	Cramerstrasse 14	 8004 Zürich	044 241 00 89		
zurich	massage	N/A	http://yellow.local.ch/en/d/Zurich/8051/Vocational-college/Swiss-Beauty-Academy-GmbH-NXMhAERQoYLKMQr8xRSHCQ?dwhat=massage&dwhere=zurich	Swiss Beauty Academy GmbH	Dübendorfstrasse 2	 8051 Zürich	044 340 10 70	www.swiss-beauty-studio.ch	
zurich	massage	N/A	http://yellow.local.ch/en/d/Zurich/8038/Medicare-AG-iPWN7ShqOJS7OxZfkTX1aQ?dwhat=massage&dwhere=zurich	Medicare AG	Mutschellenstrasse 115	 8038 Zürich	044 482 48 26	www.medicareag.ch	
zurich	massage	N/A	http://yellow.local.ch/en/d/Zurich/8002/Cosmetic-institute/Aesthe-cbbs5AxvO9zbp2UYkL8gVg?dwhat=massage&dwhere=zurich	Aesthe	Beethovenstrasse 45	 8002 Zürich	043 817 66 92	www.kosmetik-zurich.ch	
zurich	massage	N/A	http://yellow.local.ch/en/d/Zurich/8003/QiBar-oZxKplgSDR_MuB3-eKBqFA?dwhat=massage&dwhere=zurich	QiBar	Albisriederstrasse 5	 8003 Zürich	079 609 23 03	www.qibar.ch	
zurich	massage	N/A	http://yellow.local.ch/en/d/Zurich/8003/Practice/TCM-Panmed-Iw9O19dkneRD0hmoj4duEw?dwhat=massage&dwhere=zurich	TCM Panmed	Albisriederstrasse 15	 8003 Zürich	043 817 46 40	www.tcm-panmed.ch	
zurich	massage	N/A	http://yellow.local.ch/en/d/Zurich/8005/Akupunktur-Tuina-Massage-Praxis-UtlWA7MGz3NBwyNIaVj6AQ?dwhat=massage&dwhere=zurich	Akupunktur & Tuina-Massage Praxis	Quellenstrasse 25	 8005 Zürich	044 508 11 35		
zurich	massage	N/A	http://yellow.local.ch/en/d/Zurich/8008/Thai-massage/Baanchantra-Thaimassage-jNdYc678I6hbmmnqDHwDQQ?dwhat=massage&dwhere=zurich	Baanchantra Thaimassage	Zollikerstrasse 204	 8008 Zürich	076 596 41 99		
zurich	massage	N/A	http://yellow.local.ch/en/d/Zurich/8008/Dietary-advice/Barmet-Pascale-Anja-71CosTFU6BoeoszKrSbjiw?dwhat=massage&dwhere=zurich	Barmet Pascale Anja	Russenweg 7	 8008 Zürich	043 444 06 06		
zurich	massage	N/A	http://yellow.local.ch/en/d/Zurich/8004/Lymphatic-Drainage/Blaser-Andrea-n-NuxIIY-v82nSuGQZTIZg?dwhat=massage&dwhere=zurich	Blaser Andrea	Hallwylstrasse 54	 8004 Zürich	044 242 75 74		
zurich	massage	N/A	http://yellow.local.ch/en/d/Zurich/8008/Podology/bodybox-vQ90eoyTPMNQeRt70GvygQ?dwhat=massage&dwhere=zurich	bodybox	Falkenstrasse 25	 8008 Zürich	078 861 64 43		
zurich	massage	N/A	http://yellow.local.ch/en/d/Zurich/8001/BoLaan-Massage-Training-Rattana-Salama--9U_WQGP7_3PmPkD34_LBQ?dwhat=massage&dwhere=zurich	BoLaan Massage & Training Rattana Salama	Bahnhofstrasse 108	 8001 Zürich	076 824 92 65		
zurich	massage	N/A	http://yellow.local.ch/en/d/Zurich/8003/Massage-salon/Cosmic-Tantra-nc1aYVlsMKSRbplBZZbsdg?dwhat=massage&dwhere=zurich	Cosmic Tantra		8003 Zürich	044 401 40 64		
zurich	massage	N/A	http://yellow.local.ch/en/d/Zurich/8050/Engler-Annemarie-Praxis-fur-Massage-Atem-und-Korpertherapie-dfLfMG9nw2jFN2W2CaFf4Q?dwhat=massage&dwhere=zurich	Engler Annemarie Praxis für Massage Atem- und Körpertherapie	Affolternstrasse 112	 8050 Zürich	044 311 51 53		
zurich	massage	N/A	http://yellow.local.ch/en/d/Zurich/8004/Erawan-Thai-Massage-7J2ap4a0y_eT9OcC2-SgCw?dwhat=massage&dwhere=zurich	Erawan Thai Massage	Anwandstrasse 50	 8004 Zürich	043 538 57 65		
zurich	massage	N/A	http://yellow.local.ch/en/d/Zurich/8004/Feel-Massage-7QxT4QbdwOGNVyyufSDa7Q?dwhat=massage&dwhere=zurich	Feel Massage	Hohlstrasse 202	 8004 Zürich	079 471 29 07		
zurich	massage	N/A	http://yellow.local.ch/en/d/Zurich/8001/Counseling-life-coaching/Frick-Hedy-dlvowjw5mCOMsfRwvH79gA?dwhat=massage&dwhere=zurich	Frick Hedy	Theaterstrasse 14	 8001 Zürich	079 541 25 82		
zurich	massage	N/A	http://yellow.local.ch/en/d/Egg-b-Zurich/8132/Foot-care-pedicures/Ganzheitliche-Gesundheitspraxis--CPqqzeJgeIcFOaXlJJHhyA?dwhat=massage&dwhere=zurich	Ganzheitliche Gesundheitspraxis -	Längistrasse 16	 8132 Egg b. Zürich	079 607 37 18		
zurich	massage	N/A	http://yellow.local.ch/en/d/Zurich/8002/Acupoint-massage/Gesundheitspraxis-Haller-Daniela-Marchionni-LDDSCH7Kd_mQBpT4ejtasQ?dwhat=massage&dwhere=zurich	Gesundheitspraxis Haller Daniela (-Marchionni)	Seestrasse 90	 8002 Zürich	079 677 44 20		
zurich	massage	N/A	http://yellow.local.ch/en/d/Zurich/8050/Foot-reflexology-and-massage/Glatthard-Gertraud-Dorsch-g3Ozc1SBpFxGYn58RJhtKQ?dwhat=massage&dwhere=zurich	Glatthard Gertraud (-Dorsch)	Burriweg 123	 8050 Zürich	044 322 11 69		
zurich	massage	N/A	http://yellow.local.ch/en/d/Zurich/8008/Tuina-massage/Gloor-Bertha--QzmltH3vtyAW8Pgt07qmA?dwhat=massage&dwhere=zurich	Gloor Bertha	Eisengasse 22	 8008 Zürich	076 431 41 19		
zurich	massage	N/A	http://yellow.local.ch/en/d/Egg-b-Zurich/8132/Health-and-sports-massage/Grob-Iren-IymgpnkxdYxJcDAD4ja3sg?dwhat=massage&dwhere=zurich	Grob Iren	Büelstrasse 104	 8132 Egg b. Zürich	079 669 35 30		
zurich	massage	N/A	http://yellow.local.ch/en/d/Zurich/8047/Foot-reflexology-and-massage/Hotz-Beatrice-W40qLAXs1zFuvXbS4Q_Ocg?dwhat=massage&dwhere=zurich	Hotz Beatrice	Hagenbuchrain 7	 8047 Zürich	044 401 55 30		
zurich	massage	N/A	http://yellow.local.ch/en/d/Zurich/8041/Baby-massage/Infant-Care-yxh4avyxoeuHjBhndEy5RQ?dwhat=massage&dwhere=zurich	Infant Care	Leimbachstrasse 43	 8041 Zürich	079 663 74 99		
zurich	massage	N/A	http://yellow.local.ch/en/d/Zurich/8003/Jacobsen-Massage-Zurich-1bLydQ0eqpgmhALHnle-kA?dwhat=massage&dwhere=zurich	Jacobsen Massage Zürich	Aemtlerstrasse 176	 8003 Zürich	076 269 36 78		
zurich	massage	N/A	http://yellow.local.ch/en/d/Zurich/8008/KAELO-Massage-31f5flWFn_NcOQiuIU-qPw?dwhat=massage&dwhere=zurich	KAELO Massage	Forchstrasse 36	 8008 Zürich	044 420 06 06		
zurich	massage	N/A	http://yellow.local.ch/en/d/Egg-b-Zurich/8132/Health-and-sports-massage/Leitess-Danielle-8qplqnX_qm7SZuLdJDqsoQ?dwhat=massage&dwhere=zurich	Leitess Danielle	Stegstrasse 9	 8132 Egg b. Zürich	044 994 74 55		
zurich	massage	N/A	http://yellow.local.ch/en/d/Zurich/8052/Massage-school/Massage-Fachschule-Zurich-x8Rm3wGrfXTevsIWwUULTQ?dwhat=massage&dwhere=zurich	Massage-Fachschule Zürich	Schaffhauserstrasse 560	 8052 Zürich	043 233 99 70		
zurich	massage	N/A	http://yellow.local.ch/en/d/Zurich/8004/Massage-LPJ-Q-xmVCQ5qV6jxfXh8NVqJg?dwhat=massage&dwhere=zurich	Massage & LPJ	St. Jakobstrasse 44	 8004 Zürich	076 703 62 52		
zurich	massage	N/A	http://yellow.local.ch/en/d/Zurich/8052/Massage-Oase-Zurich-b3BhPigpzrvSQM1pKbpteQ?dwhat=massage&dwhere=zurich	Massage Oase Zürich	Glatttalstrasse 108	 8052 Zürich	077 437 44 35		
zurich	massage	N/A	http://yellow.local.ch/en/d/Zurich/8006/Health-care-center/Medizinische-Massagen-und-Naturheilverfahren-Messer-Roland--71_TKACiO2ClNy-OFYoaQ?dwhat=massage&dwhere=zurich	Medizinische Massagen und Naturheilverfahren Messer Roland	Stampfenbachstrasse 48	 8006 Zürich	079 664 38 94		
zurich	massage	N/A	http://yellow.local.ch/en/d/Zurich/8048/Millennium-Massage-FUDuJGHGLE8swfqSGFcPhw?dwhat=massage&dwhere=zurich	Millennium-Massage	Flurstrasse 51	 8048 Zürich	044 451 86 74		
zurich	massage	N/A	http://yellow.local.ch/en/d/Zurich/8002/Medical-massage/Morell-Vera-dlKyPpCvwBLiXkbxpkQ7dQ?dwhat=massage&dwhere=zurich	Morell Vera	Gotthardstrasse 50	 8002 Zürich	044 201 66 66		
zurich	massage	N/A	http://yellow.local.ch/en/d/Zurich/8050/Foot-reflexology-and-massage/podospa-gmbh-g3CXr5KPbG7LTT0l55ETEg?dwhat=massage&dwhere=zurich	podospa gmbh	Schaffhauserstrasse 343	 8050 Zürich	044 311 66 77		
zurich	massage	N/A	http://yellow.local.ch/en/d/Zurich/8003/Foot-reflexology-and-massage/Praxis-fur-Fussreflexzonentherapie-HtaKMlyur66O7SBch2_WzA?dwhat=massage&dwhere=zurich	Praxis für Fussreflexzonentherapie	Zypressenstrasse 41	 8003 Zürich	044 493 07 93		
zurich	massage	N/A	http://yellow.local.ch/en/d/Zurich/8001/Lymphatic-Drainage/Praxis-fur-Naturheilkunde-und-Massagen-M19xRvjnG7M_DjQNCadf8Q?dwhat=massage&dwhere=zurich	Praxis für Naturheilkunde und Massagen	Sihlpraxis, Sihlstrasse 61	 8001 Zürich	043 497 31 38		
zurich	massage	N/A	http://yellow.local.ch/en/d/Zurich/8006/Chinese-medicine-TCM/Praxis-fur-Traditionelle-Chinesische-Medizin-ntqkGY6kk7uqaLVxaCz1Ow?dwhat=massage&dwhere=zurich	Praxis für Traditionelle Chinesische Medizin	Ekkehardstrasse 11	 8006 Zürich	078 666 99 30		
zurich	massage	N/A	http://yellow.local.ch/en/d/Zurich/8053/Craniosacral-therapy/Praxis-Kressig-Schori-Patricia-Energetische-Korpertherapien-YjdXe7Bz3nUWEYVI93I-Ew?dwhat=massage&dwhere=zurich	Praxis Kressig-Schori Patricia Energetische Körpertherapien	Buchzelgstrasse 32	 8053 Zürich	044 422 22 60		
zurich	massage	N/A	http://yellow.local.ch/en/d/Zurich/8006/Practice/PraxisAmPark-Chinesische-Heilkunst-UKC1B1lsB_3TtdalXgH3rw?dwhat=massage&dwhere=zurich	PraxisAmPark - Chinesische Heilkunst	Stampfenbachstrasse 123	 8006 Zürich	078 817 28 38		
zurich	massage	N/A	http://yellow.local.ch/en/d/Zurich/8008/Lymphatic-Drainage/Ressiga-Zenka-ZJHeTDMQ8mFKQ8nqKiYGTw?dwhat=massage&dwhere=zurich	Ressiga Zenka	Forchstrasse 92	 8008 Zürich	044 422 26 01		
zurich	massage	N/A	http://yellow.local.ch/en/d/Zurich/8048/Reuan-Gluay-Maai-Massage-1YvA7mJJqc9573hIqdffhQ?dwhat=massage&dwhere=zurich	Reuan Gluay Maai Massage	Badenerstrasse 595	 8048 Zürich	079 536 11 20		
zurich	massage	N/A	http://yellow.local.ch/en/d/Zurich/8048/Craniosacral-therapy/Schaumann-Praxis-iBim8J9Kqkrhoh99tCjVwg?dwhat=massage&dwhere=zurich	Schaumann Praxis	Im Struppen 5	 8048 Zürich	079 742 95 65		
zurich	massage	N/A	http://yellow.local.ch/en/d/Zurich/8047/Acupuncture-not-included-in-category-doctors/SinoQi-TCM-Zentrum-Zurich-Albisrieden-01RKYo4hL4uaKcKTwng0RA?dwhat=massage&dwhere=zurich	SinoQi TCM Zentrum Zürich Albisrieden	Albisriederstrasse 361	 8047 Zürich	044 210 33 77		
zurich	massage	N/A	http://yellow.local.ch/en/d/Zurich/8001/Tuina-massage/SinoQi-Zentrum-fur-Chinesische-Medizin-Kilchberg-grmVS0aiis9M0Pkfa6URmg?dwhat=massage&dwhere=zurich	SinoQi Zentrum für Chinesische Medizin Kilchberg	Lintheschergasse 21	 8001 Zürich	044 210 33 88		
zurich	massage	N/A	http://yellow.local.ch/en/d/Zurich/8038/Acupuncture-not-included-in-category-doctors/SinoQi-Zentrum-fur-Chinesische-Medizin-TCM-KyQzWx1DJghSygFKL3BMrw?dwhat=massage&dwhere=zurich	SinoQi Zentrum für Chinesische Medizin TCM	Seestrasse 329	 8038 Zürich	044 210 33 33		
zurich	massage	N/A	http://yellow.local.ch/en/d/Zurich/8006/Homeopathic-not-included-in-doctors-category/Stalder-Susanna-raZcwjNG6yttBh8QhBGm0A?dwhat=massage&dwhere=zurich	Stalder Susanna	Stampfenbachstrasse 117	 8006 Zürich	043 538 40 17		
zurich	massage	N/A	http://yellow.local.ch/en/d/Zurich/8001/Lymphatic-Drainage/SURYA-Professional-Medical-Massage-RHhsVZVB5G_yAH5Rj7tBoA?dwhat=massage&dwhere=zurich	SURYA Professional Medical Massage	Lintheschergasse 21	 8001 Zürich	044 552 02 03		
zurich	massage	N/A	http://yellow.local.ch/en/d/Zurich/8032/Acupoint-massage/Sutter-Mireya-2T75SChfZykB40K5VA70tg?dwhat=massage&dwhere=zurich	Sutter Mireya	Zeltweg 48	 8032 Zürich	076 475 67 86		
zurich	massage	N/A	http://yellow.local.ch/en/d/Zurich/8048/Private-school/Swiss-Pravensana-Akademie-AG-GRtHFvnXVyoz488suqPE0g?dwhat=massage&dwhere=zurich	Swiss Prävensana Akademie AG	Vulkanstrasse 120	 8048 Zürich	044 211 65 65		
zurich	massage	N/A	http://yellow.local.ch/en/d/Zurich/8047/Tara-Wellness-Massage-trS5KuubZtUfndYKR9KlVA?dwhat=massage&dwhere=zurich	Tara Wellness Massage	Letzigraben 156	 8047 Zürich	043 499 98 00		
zurich	massage	N/A	http://yellow.local.ch/en/d/Zurich/8008/Naturopathy/TCM-Naturheilpraxis-IG3Yv0Q3QHrklELw0bHEqw?dwhat=massage&dwhere=zurich	TCM & Naturheilpraxis	Seefeldstrasse 228	 8008 Zürich	044 750 08 34		
zurich	massage	N/A	http://yellow.local.ch/en/d/Zurich/8001/Lymphatic-Drainage/Therapie-Ursula-Selebam-5IGMqiosovLyy9pOfowzCQ?dwhat=massage&dwhere=zurich	Therapie Ursula Selebam	Rennweg 30	 8001 Zürich	079 608 36 46		
zurich	massage	N/A	http://yellow.local.ch/en/d/Zurich/8002/Medical-massage/Valsangiacomo-Marco-mtS3mg1Sd9x2SKIq_QOsew?dwhat=massage&dwhere=zurich	Valsangiacomo Marco	Tödistrasse 49	 8002 Zürich	044 209 60 30		
zurich	massage	N/A	http://yellow.local.ch/en/d/Zurich/8046/WM-Massage-SIMjA5-HBbAKnMyS0U5o0Q?dwhat=massage&dwhere=zurich	WM Massage	Fronwaldstrasse 94	 8046 Zürich	076 434 36 47		
zurich	massage	N/A	http://yellow.local.ch/en/d/Zurich/8005/Yolanda-Asian-Tantra-Massage-NSd9f4wnr4tTiEo1SYq06A?dwhat=massage&dwhere=zurich	Yolanda Asian Tantra Massage	Förrlibuckstrasse 12	 8005 Zürich	076 597 43 20		
zurich	massage	N/A	http://yellow.local.ch/en/d/Zurich/8001/ZUERI-HOME-MASSAGE-STUDIO-YYE6OOkTGBDi_4rRWAdsQg?dwhat=massage&dwhere=zurich	ZUERI HOME MASSAGE + STUDIO	Gottfried-Keller-Strasse 7	 8001 Zürich	079 559 90 79		
zurich	massage	N/A	http://yellow.local.ch/en/d/Zurich/8047/Shiatsu/Zurbuchen-Claudia-FCi0KHGu4Bk_AvdE8GMQjw?dwhat=massage&dwhere=zurich	Zurbuchen Claudia	Hagenbuchrain 10	 8047 Zürich	079 784 71 70		
zurich	massage	N/A	http://yellow.local.ch/en/d/Zurich/8001/Zuri-Massage-LCNi1O5_UHXScaRQ90qhHg?dwhat=massage&dwhere=zurich	Züri Massage	Obere Zäune 14	 8001 Zürich	079 814 45 67		
zurich	massage	N/A	http://yellow.local.ch/en/d/Zurich/8037/Massagesalon-Lili-5z6oSm07NvTcG3NNJklzJQ?dwhat=massage&dwhere=zurich	Massagesalon Lili	Wibichstrasse 25	 8037 Zürich	079 291 96 57	www.massagelili.ch	
zurich	massage	N/A	http://yellow.local.ch/en/d/Zurich/8050/Massagepraxis-Ruckentherapie-NtfK8YXL0tvjVrwSNbYNFg?dwhat=massage&dwhere=zurich	Massagepraxis & Rückentherapie	Andreaspark, Hagenholzstrasse 98	 8050 Zürich	043 536 84 82		
zurich	massage	N/A	http://yellow.local.ch/en/d/Zurich/8001/Acupuncture-not-included-in-category-doctors/QIMED-Nanlong-ZENTRUM-FUR-TRADITIONELLE-CHINESISCHE-MEDIZIN-hvH51-w9k9pAg4WcwCOf6g?dwhat=massage&dwhere=zurich	QIMED- Nanlong ZENTRUM FÜR TRADITIONELLE CHINESISCHE MEDIZIN	Schützengasse 4	 8001 Zürich	043 810 20 20	www.qimed-nanlong.ch	
zurich	massage	N/A	http://yellow.local.ch/en/d/Zurich/8050/Acupuncture-not-included-in-category-doctors/Akupunktur-Oerlikon-B5RzcHseuxp9fAa5mGuxTg?dwhat=massage&dwhere=zurich	Akupunktur Oerlikon	Venusstrasse 29	 8050 Zürich	044 363 90 51	www.tcm-bertozzi.ch	
zurich	massage	N/A	http://yellow.local.ch/en/d/Zurich/8057/Society/Vitaswiss-eLV2RR-4mHsJWs4y5y6xHQ?dwhat=massage&dwhere=zurich	Vitaswiss	Ringstrasse 82	 8057 Zürich	044 311 52 72	www.sauna-allenmoos.ch	
zurich	massage	N/A	http://yellow.local.ch/en/d/Zurich/8046/Foot-care-pedicures/Fusspflege-bequem-bei-Ihnen-zu-Hause-Y4AWYoCxTRlQwxH_IvtnlA?dwhat=massage&dwhere=zurich	Fusspflege bequem bei Ihnen zu Hause	Im Isengrind 11-45	 8046 Zürich	044 371 92 83		
zurich	massage	N/A	http://yellow.local.ch/en/d/Zurich/8032/INSTINCT-Switzerland-AG-QIVWDjIi3MTzNHSi7JA_PA?dwhat=massage&dwhere=zurich	INSTINCT Switzerland AG	Streulistrasse 66	 8032 Zürich	043 343 05 00		
zurich	massage	N/A	http://yellow.local.ch/en/d/Zurich/8008/yellow-garden-wellness-gsec61CSwSdoqNhTYNtgJw?dwhat=massage&dwhere=zurich	yellow garden wellness	Florastrasse 47 Seefeld	 8008 Zürich	078 602 15 76		
zurich	massage	N/A	http://yellow.local.ch/en/d/Kusnacht-ZH/8700/Personal-Training/YOU-IN-FLOW-GmbH-xTLtK2zIa_GpBGGPH8vFPg?dwhat=massage&dwhere=zurich	YOU IN FLOW GmbH	Oberwachtstrasse 8	 8700 Küsnacht ZH	078 628 19 55	www.youinflow.ch	
zurich	massage	N/A	http://yellow.local.ch/en/d/Uster/8610/Health-care-center/Eck-Anita-NJzyIc-ij2BWbX47BZllZQ?dwhat=massage&dwhere=zurich	Eck Anita	Freiestrasse 1	 8610 Uster	043 497 85 82	www.gesundheitspraxis.ch	
zurich	massage	N/A	http://yellow.local.ch/en/d/Dietlikon/8305/Shiatsu/LIMA-Behandlungsliegen-Praxiszubehor-p-aNvXbNWtnVOQStoyH3Eg?dwhat=massage&dwhere=zurich	LIMA Behandlungsliegen & Praxiszubehör	Aegertweg 7	 8305 Dietlikon	044 312 26 07	www.lima.ch	
zurich	massage	N/A	http://yellow.local.ch/en/d/Uster/8610/Health-care-center/Schuhmacher-Monika-WdMmDy_tM0F_ffY8glnsZw?dwhat=massage&dwhere=zurich	Schuhmacher Monika	Freiestrasse 1	 8610 Uster	043 497 85 81	www.gesundheitspraxis.ch	
zurich	massage	N/A	http://yellow.local.ch/en/d/Erlenbach-ZH/8703/Health-and-sports-massage/Oliva-Helen-Daeniker-JcgbCzxewc8R5c_lw8SP1Q?dwhat=massage&dwhere=zurich	Oliva Helen (-Daeniker)	Bahnhofstrasse 19	 8703 Erlenbach ZH	044 910 15 21	www.massagepraxis-helenoliva.ch	
zurich	massage	N/A	http://yellow.local.ch/en/d/Wetzikon-ZH/8623/Health-and-sports-massage/Wasana-Massage-UItUBRSk6b1-tzzAA8M3dg?dwhat=massage&dwhere=zurich	Wasana Massage	Mühlestrasse 19E	 8623 Wetzikon ZH	079 637 79 55	www.wasanamassage.com	
zurich	massage	N/A	http://yellow.local.ch/en/d/Thalwil/8800/Health-and-sports-massage/AtlasPROfilax-Massage-Praxis-5P1r0SdSJjfoTmO6_duMwQ?dwhat=massage&dwhere=zurich	AtlasPROfilax / Massage-Praxis	Tödistrasse 76	 8800 Thalwil	043 443 55 43	www.annebroquet.ch	
zurich	massage	N/A	http://yellow.local.ch/en/d/Zurich/8001/Gynaecology-and-obstetrics/Dr-med-Kochli-Lea-KLDAl8QXQDuCCM570gU3mg?dwhat=massage&dwhere=zurich	Dr. med. Köchli Lea	Rämistrasse 35	 8001 Zürich	044 260 99 80	www.frauengesundheitszentrum.ch	
zurich	massage	N/A	http://yellow.local.ch/en/d/Oberengstringen/8102/Health-and-sports-massage/Dalla-Monta-Violetta-Medizinische-Massage-6eng7ZirmIGRV3EVCPkKow?dwhat=massage&dwhere=zurich	Dalla Monta Violetta Medizinische Massage	Kirchwegsteig 9	 8102 Oberengstringen	079 862 87 46	www.dallamonta-massage.ch	
zurich	massage	N/A	http://yellow.local.ch/en/d/Wetzikon-ZH/8623/Health-and-sports-massage/Wohlfuhl-Thaimassage-7uMxCPDTRMGIrS1paKrMFw?dwhat=massage&dwhere=zurich	Wohlfühl-Thaimassage	Bahnhofstrasse 232a	 8623 Wetzikon ZH	078 659 65 33	www.wohlfuehl-thaimassage.ch	
zurich	massage	N/A	http://yellow.local.ch/en/d/Zurich/8032/Cosmetic-products/cell-premium-lounge-by-8neHmcJMZFmzghugDUzG0w?dwhat=massage&dwhere=zurich	cell premium lounge by	Witikonerstrasse 3 /Klusplatz	 8032 Zürich	044 382 31 71	www.swissskincenter.ch/partner/cell-premium-lounge	
zurich	massage	N/A	http://yellow.local.ch/en/d/Zurich/8008/Alternative-practitioner/Wermelinger-Anita-Xsm7nI0B1XSrTSpkXSnCYw?dwhat=massage&dwhere=zurich	Wermelinger Anita	Wildbachstrasse 80	 8008 Zürich	079 460 80 67	www.homoeopathie-praxis.ch	
zurich	massage	N/A	http://yellow.local.ch/en/d/Egg-b-Zurich/8132/Foot-reflexology-and-massage/Gasser-Helena-Hna1nfUAlsa2FoAbe7r_tg?dwhat=massage&dwhere=zurich	Gasser Helena	Rainstrasse 3	 8132 Egg b. Zürich	044 984 38 03	www.helenagasser-gsundheitspraxis.ch	
zurich	massage	N/A	http://yellow.local.ch/en/d/Zurich/8006/Lymphatic-Drainage/Gesundheitspraxis-Meier-Roth-6WUIDs0_yos5JB29ZU5FCg?dwhat=massage&dwhere=zurich	Gesundheitspraxis Meier-Roth	Stampfenbachstrasse 142	 8006 Zürich	043 343 92 24	www.gesundheitspraxis-roth.ch	
zurich	massage	N/A	http://yellow.local.ch/en/d/Zurich/8057/Naturopathy/Paracelsus-Schulen-Schweiz-pGwlKpvHPTM3_vuv7bbRqQ?dwhat=massage&dwhere=zurich	Paracelsus Schulen Schweiz	Berninastrasse 47A	 8057 Zürich	043 960 20 00	www.paracelsus-schulen.ch	
zurich	massage	N/A	http://yellow.local.ch/en/d/Zurich/8004/Physical-therapy/Physiotherapie-Horber-Ruth-HSFWdZBaR3w5K0dVMxApHA?dwhat=massage&dwhere=zurich	Physiotherapie Horber Ruth	Bäckerstrasse 40	 8004 Zürich	078 826 40 10	www.praxisb.ch	
zurich	massage	N/A	http://yellow.local.ch/en/d/Zurich/8002/Podology/Praxis-fur-Podologie-Kosmetik-Fussreflexzone-Demut-64zvs8JD0m3WdCnZOXLwpw?dwhat=massage&dwhere=zurich	Praxis für Podologie, Kosmetik & Fussreflexzone Demut	General-Wille-Strasse 21	 8002 Zürich	044 201 52 52	www.podologie-kosmetik.ch	
zurich	massage	N/A	http://yellow.local.ch/en/d/Zurich/8046/Homes-for-the-elderly-with-nursing-care/Senioviva-Pflegeheim-Neu-Affoltern-m0vs8B3MhUQd-pNp8wQMZA?dwhat=massage&dwhere=zurich	Senioviva Pflegeheim Neu-Affoltern	Hürststrasse 56	 8046 Zürich	044 466 88 88	www.senioviva.ch	
zurich	massage	N/A	http://yellow.local.ch/en/d/Zurich/8050/Homes-for-the-elderly-with-nursing-care/Senioviva-Pflegeheim-Oerlikon-75D3ccu7t_Q3Ik6DHdmF6Q?dwhat=massage&dwhere=zurich	Senioviva Pflegeheim Oerlikon	Regensbergstrasse 165	 8050 Zürich	044 466 88 50	www.senioviva.ch	
zurich	massage	N/A	http://yellow.local.ch/en/d/Zurich/8001/Chinese-medicine-TCM/TCM-MA-Praxis-Zurich-City-Y5l9_z2iel_MFDna4kmuLg?dwhat=massage&dwhere=zurich	TCM-MA Praxis Zürich City	Uraniastrasse 20	 8001 Zürich	044 221 95 95	www.tcm-ma.ch	
zurich	massage	N/A	http://yellow.local.ch/en/d/Zurich/8001/Acupuncture-not-included-in-category-doctors/TCM-Praxis-Suter-2bLNp7Vdj7s5X-GfqyjxPA?dwhat=massage&dwhere=zurich	TCM Praxis Suter	Weinbergstrasse 5	 8001 Zürich	079 216 61 20	www.tcmsuter.ch	
zurich	massage	N/A	http://yellow.local.ch/en/d/Zurich/8006/Orthopedics-not-included-in-doctors-category/Dr-med-Wust-Daniel-oKJToTf4GoujP5DU6MFkLQ?dwhat=massage&dwhere=zurich	Dr. med. Wüst Daniel	Stampfenbachstrasse 48	 8006 Zürich	044 361 94 77	www.orthopaedie-wuest.ch	
zurich	massage	N/A	http://yellow.local.ch/en/d/Affoltern-am-Albis/8910/Fitness-center/Gymfit-trainiere-erfolgreich-UJCoOTFcf2I1AcuGLqtMzw?dwhat=massage&dwhere=zurich	Gymfit... trainiere erfolgreich!	Lindenmoosstrasse 8	 8910 Affoltern am Albis	044 761 77 74		
zurich	massage	N/A	http://yellow.local.ch/en/d/Wetzikon-ZH/8620/Club/Massage50-erotisches-Massagestudio-1sLw8JH6yLcdNK9qzr69ng?dwhat=massage&dwhere=zurich	Massage50 erotisches Massagestudio	Bahnhofstrasse 50	 8620 Wetzikon ZH	044 972 30 30		
zurich	massage	N/A	http://yellow.local.ch/en/d/Kloten/8302/Health-and-sports-massage/PRAXIS-Massage-Balmer-I7F807wysEo639dwlucFzw?dwhat=massage&dwhere=zurich	PRAXIS Massage Balmer	Lindenstrasse 20	 8302 Kloten	079 748 27 18		
zurich	massage	N/A	http://yellow.local.ch/en/d/Zurich/8008/Permanent-make-up/AB-Face-Body-Kosmetik-BMZUqRWUPl2fof9iHP_Giw?dwhat=massage&dwhere=zurich	AB Face Body Kosmetik	Dufourstrasse 177	 8008 Zürich	044 381 81 46	www.ab-face-body-kosmetik.ch	
zurich	massage	N/A	http://yellow.local.ch/en/d/Zurich/8002/Home/Alters-und-Pflegeheim-Birkenrain-M4wTJ9jMNl9WxMEaQDgwgw?dwhat=massage&dwhere=zurich	Alters- und Pflegeheim Birkenrain	Bellariastrasse 21	 8002 Zürich	044 206 47 00	www.birkenrain.ch	
zurich	massage	N/A	http://yellow.local.ch/en/d/Zurich/8008/Chinese-medicine-TCM/China-Akupunktur-Praxis-teJUvmwLvRvnpg2aiMBpHw?dwhat=massage&dwhere=zurich	China Akupunktur Praxis	Holbeinstrasse 20	 8008 Zürich	043 268 42 42	www.china-akupunktur.ch	
zurich	massage	N/A	http://yellow.local.ch/en/d/Zurich/8032/Chinese-medicine-TCM/ChinaMed-Zentrum-Zurich-KNGq17_teII1_nYorFcnFQ?dwhat=massage&dwhere=zurich	ChinaMed Zentrum Zürich	Hottingerstrasse 14	 8032 Zürich	044 386 98 98	www.chinamed.ch	
zurich	massage	N/A	http://yellow.local.ch/en/d/Zurich/8001/Cosmetic-institute/Christine-Riedberger-GmbH-Institut-fur-Kosmetik-CtjoOb-kGmidc-BdhTAbyA?dwhat=massage&dwhere=zurich	Christine Riedberger GmbH Institut für Kosmetik	Gessnerallee 36	 8001 Zürich	044 212 88 08	www.riedberger.com	
zurich	massage	N/A	http://yellow.local.ch/en/d/Zurich/8004/Nail-cosmetics/Cindarella-Beauty4you-ZyO3ppU7mlO4Q4SJtsiM3g?dwhat=massage&dwhere=zurich	Cindarella-Beauty4you	Sihlfeldstrasse 85	 8004 Zürich	043 243 39 59	www.cindarellabeauty4you.ch	
zurich	massage	N/A	http://yellow.local.ch/en/d/Zurich/8049/Foot-care-pedicures/Eugster-Ewa-XTRq9fLVj5zmNB3F6uMCUg?dwhat=massage&dwhere=zurich	Eugster Ewa	Wieslergasse 5	 8049 Zürich	044 341 33 63	www.forever-aloevera.ch	
zurich	massage	N/A	http://yellow.local.ch/en/d/Zurich/8003/City-district-3/Dr-med-Katumba-Phillip-KM-SVarddW03QnobC4wKmvbbA?dwhat=massage&dwhere=zurich	Dr. med. Katumba Phillip K.M.	Badenerstrasse 333	 8003 Zürich	043 321 11 11	www.sihlmed.ch	
zurich	massage	N/A	http://yellow.local.ch/en/d/Zurich/8050/Physical-therapy/PhysioMade-Zurich-JbKJWtUxkIXml79MmvafLg?dwhat=massage&dwhere=zurich	PhysioMade Zürich	Thurgauerstrasse 40	 8050 Zürich	079 586 60 10	www.physiomade.ch	
zurich	massage	N/A	http://yellow.local.ch/en/d/Zurich/8032/Rosenberg-Ayurveda-Wellness-Consulting-AG-BBIO9PxQJTO3pp6hw-jL2A?dwhat=massage&dwhere=zurich	Rosenberg Ayurveda & Wellness-Consulting AG	Sempacherstrasse 48	 8032 Zürich	044 260 70 70	www.ayurveda-akademie.org	
zurich	massage	N/A	http://yellow.local.ch/en/d/Zurich/8001/Acupuncture-not-included-in-category-doctors/TCM-Praxis-fur-Chinesische-Medizin-GmbH-SP1MQDavI4uaXrDgrfJ9bg?dwhat=massage&dwhere=zurich	TCM Praxis für Chinesische Medizin GmbH	Goethestrasse 22	 8001 Zürich	044 262 88 10	www.tcmpraxiszh.ch	
zurich	massage	N/A	http://yellow.local.ch/en/d/Zurich/8001/Pharmacy/TopPharm-Apotheke-Paradeplatz-AG-U6OcXB2cUmb-Uzc8ITx4Tw?dwhat=massage&dwhere=zurich	TopPharm Apotheke Paradeplatz AG	Poststrasse 6	 8001 Zürich	044 213 12 30	www.paradeplatz.apotheke.ch	
zurich	massage	N/A	http://yellow.local.ch/en/d/Zurich/8001/Cosmetic-institute/Victory-Beauty-Lounge-mLFsezsJh13_zx6gsjv1VQ?dwhat=massage&dwhere=zurich	Victory Beauty Lounge	Seidengasse 18	 8001 Zürich	043 243 90 09	www.medizinische-kosmetik-zuerich.ch	
zurich	massage	N/A	http://yellow.local.ch/en/d/Zurich/8053/Sanitary-facilities/Werner-R-AG-eclwID3TrjY33VLL_OXSBw?dwhat=massage&dwhere=zurich	Werner R. AG	Witikonerstrasse 430	 8053 Zürich	044 422 06 88	www.werner-heizung.ch	
zurich	massage	N/A	http://yellow.local.ch/en/d/Zurich/8055/Hairdresser/Zuri-Coiffure-Kosmetik-YYv4NJ9kXaEqQ4IBKkKNuw?dwhat=massage&dwhere=zurich	Züri - Coiffure + Kosmetik	Wasserschöpfi 2	 8055 Zürich	044 462 50 65	www.zueri-ck.ch	
zurich	massage	N/A	http://yellow.local.ch/en/d/Zurich/8050/Acupuncture-not-included-in-category-doctors/TCM-Praxis-Germann-Marco-Y-hV4HXyxJHDsJce4D_8KA?dwhat=massage&dwhere=zurich	TCM-Praxis Germann Marco	Wallisellenstrasse 5	 8050 Zürich	043 810 78 88	www.tcmgermann.ch	
zurich	massage	N/A	http://yellow.local.ch/en/d/Zurich/8037/Babymassage-in-der-Newar-Tradition-2C5A7G6b2SCfdzgkZ5EX8Q?dwhat=massage&dwhere=zurich	Babymassage in der Newar-Tradition	Rütschistrasse 21	 8037 Zürich	044 361 21 95		
zurich	massage	N/A	http://yellow.local.ch/en/d/Zurich/8051/Greenmango-Thaimassage-06SMqQRmSGnNmvTZNKx74Q?dwhat=massage&dwhere=zurich	Greenmango Thaimassage	Roswiesenstrasse 4	 8051 Zürich	076 215 50 01		
zurich	massage	N/A	http://yellow.local.ch/en/d/Zurich/8032/Sound-therapy/Kinesiologie-und-Klangmassage-Rita-Limacher-8Z_DNm-HBG02xCHmv_3psA?dwhat=massage&dwhere=zurich	Kinesiologie und Klangmassage Rita Limacher	Merkurstrasse 61	 8032 Zürich	076 460 49 87		
zurich	massage	N/A	http://yellow.local.ch/en/d/Zurich/8001/Cosmetic-institute/Kosmetik-Fussmassage-Korpertherapie-N82oMwCdRa3nGXTUQOpaVw?dwhat=massage&dwhere=zurich	Kosmetik Fussmassage Körpertherapie	Rennweg 30	 8001 Zürich	044 251 20 40		
zurich	massage	N/A	http://yellow.local.ch/en/d/Zurich/8046/Massagepraxis-Carpio-ZZZr8BTHOWI0BIj3SwxRNg?dwhat=massage&dwhere=zurich	Massagepraxis Carpio	Dora-Staudinger-Strasse 13	 8046 Zürich	079 885 38 45		
zurich	massage	N/A	http://yellow.local.ch/en/d/Zurich/8005/Massagepraxis-Moni-Schneider-SHz_mfDJ0TJGpaVoeoC_1g?dwhat=massage&dwhere=zurich	Massagepraxis Moni Schneider	Fierzgasse 23	 8005 Zürich	077 454 77 15		
zurich	massage	N/A	http://yellow.local.ch/en/d/Zurich/8050/Naturheilpraxis-Massagepraxis-6CwI19TIHekqajwHkvj0Tw?dwhat=massage&dwhere=zurich	Naturheilpraxis - Massagepraxis	Schwamendingenstrasse 36	 8050 Zürich	079 123 63 63		
zurich	massage	N/A	http://yellow.local.ch/en/d/Zurich/8047/PHOCHAI-SPA-Massagepraxis-bpIAK4pMgzMmzNmRxogP9A?dwhat=massage&dwhere=zurich	PHOCHAI SPA Massagepraxis	Albisriederstrasse 277	 8047 Zürich	043 211 00 88		
zurich	massage	N/A	http://yellow.local.ch/en/d/Zurich/8037/Praxis-fur-Yoga-IK-Kinesiologie-Klangmassage-Therapie-V2gNKRPsdqaLZc9wrTXLPA?dwhat=massage&dwhere=zurich	Praxis für Yoga, IK - Kinesiologie, Klangmassage-Therapie	Kyburgstrasse 26	 8037 Zürich	079 463 49 04		
zurich	massage	N/A	http://yellow.local.ch/en/d/Zurich/8057/relaxcenter-MASSAGEPRAXIS-HAIR-REMOVE-LOFT-D-C9cv1FUPExP6xL-GiYuw?dwhat=massage&dwhere=zurich	relaxcenter MASSAGEPRAXIS & HAIR REMOVE LOFT	Oerlikonerstrasse 40	 8057 Zürich	077 416 65 40		
zurich	massage	N/A	http://yellow.local.ch/en/d/Zurich/8008/Xuma-Gesundheitsmassage-2iqWP57wD6xGjyu8whG-1g?dwhat=massage&dwhere=zurich	Xuma Gesundheitsmassage	Feldeggstrasse 50	 8008 Zürich	078 803 23 34		
zurich	massage	N/A	http://yellow.local.ch/en/d/Zurich/8052/Acupuncture-not-included-in-category-doctors/Akupunkturpraxis-U7mJxFcQnq1z4uyB4FLyLg?dwhat=massage&dwhere=zurich	Akupunkturpraxis	Brüttenweg 2a	 8052 Zürich	044 300 65 07	www.connyscherrer-akupunktur.ch	
zurich	massage	N/A	http://yellow.local.ch/en/d/Zurich/8008/Shiatsu/Bernet-Adrian-fvVFCSy9g2pV6HVMMxV07w?dwhat=massage&dwhere=zurich	Bernet Adrian	Forchstrasse 34	 8008 Zürich	079 241 58 51	www.adrianbernet.ch	
zurich	massage	N/A	http://yellow.local.ch/en/d/Zurich/8006/Weight-loss-clinic/Bodyzentrum-ZRR20OZpeAjaGCKKk8CNOw?dwhat=massage&dwhere=zurich	Bodyzentrum	Rigiplatz 1	 8006 Zürich	076 779 96 54	www.bodyzentrum.ch	
zurich	massage	N/A	http://yellow.local.ch/en/d/Zurich/8050/Chiropractor/CHIROPRAKTIK-OERLIKON-GmbH-AVWxr6NOam9SoN_d5-rx-w?dwhat=massage&dwhere=zurich	CHIROPRAKTIK OERLIKON GmbH	Franklinstrasse 1	 8050 Zürich	043 288 99 55	www.chiropraktik-oerlikon.ch	
zurich	massage	N/A	http://yellow.local.ch/en/d/Zurich/8002/Chiropractor/Chiropraktik-und-Akupunktur-vPsLVKYLcEMAELaD-RwpmA?dwhat=massage&dwhere=zurich	Chiropraktik und Akupunktur	Bodmerstrasse 6	 8002 Zürich	044 242 60 36	www.winata.ch	
zurich	massage	N/A	http://yellow.local.ch/en/d/Zurich/8057/Acupuncture-not-included-in-category-doctors/Flow-of-Life-Praxis-fur-TCM-K-P7hWbSKz8UtCQT942ZOQ?dwhat=massage&dwhere=zurich	Flow of Life - Praxis für TCM	Oerlikonerstrasse 35	 8057 Zürich	079 753 45 35	www.flow-of-life.ch	
zurich	massage	N/A	http://yellow.local.ch/en/d/Zurich/8048/Cosmetic-institute/Ladies-Style-Cosmetics-FkKGtHFT5GIZUFaX4wgqkw?dwhat=massage&dwhere=zurich	Ladies' Style Cosmetics	Badenerstrasse 663	 8048 Zürich	044 432 26 79	www.ladies-style.ch	
zurich	massage	N/A	http://yellow.local.ch/en/d/Zurich/8008/Cosmetic-institute/maya-wagen-cosmetics-XRrE52Z4zApV7SCX9t3NNA?dwhat=massage&dwhere=zurich	maya wagen cosmetics	Reinhardstrasse 10	 8008 Zürich	044 262 61 11	www.mayawagen.ch	
zurich	massage	N/A	http://yellow.local.ch/en/d/Zurich/8003/Physical-therapy/Mustafic-Jacqueline-JsQhYX0nGycFbTjNmeZcMQ?dwhat=massage&dwhere=zurich	Mustafic Jacqueline	Albisriederstrasse 19	 8003 Zürich	044 493 06 02	www.physio-albisrieden.ch	
zurich	massage	N/A	http://yellow.local.ch/en/d/Zurich/8050/Physiotherapie-Corpusana-Maurer-Tschuppert-J3ZEmRzFTi0GPsXUKxroAA?dwhat=massage&dwhere=zurich	Physiotherapie Corpusana Maurer, Tschuppert	Gubelstrasse 28	 8050 Zürich	044 310 15 39	www.corpusana.ch	
zurich	massage	N/A	http://yellow.local.ch/en/d/Zurich/8038/Physical-therapy/Physiotherapie-Kalchbuhl-W0neUMHd27lGVfvdQFquoQ?dwhat=massage&dwhere=zurich	Physiotherapie Kalchbühl	Alte Kalchbühlstrasse 25	 8038 Zürich	044 481 81 08	www.physio-kalchbuehl.ch	
zurich	massage	N/A	http://yellow.local.ch/en/d/Zurich/8038/Physical-therapy/Physiotherapie-Weinberger-vi2eyQLTpT2d9utgfRJGyA?dwhat=massage&dwhere=zurich	Physiotherapie Weinberger	Kalchbühlstrasse 79	 8038 Zürich	044 542 10 66	therapiezenter.ch	
zurich	massage	N/A	http://yellow.local.ch/en/d/Zurich/8032/Medical-group/Praxisgemeinschaft-A8UOUQzQmCF9vwWqhuO7kg?dwhat=massage&dwhere=zurich	Praxisgemeinschaft	Forchstrasse 21	 8032 Zürich	044 422 88 60	www.feldenkraispraxis.ch	
zurich	massage	N/A	http://yellow.local.ch/en/d/Zurich/8003/Orthopedic-health/Schmid-Orthopadie-Technik-X599pdmE_x9h_CtWTZQxtQ?dwhat=massage&dwhere=zurich	Schmid Orthopädie-Technik	Birmensdorferstrasse 198	 8003 Zürich	044 463 90 55	www.otz.ch	
zurich	massage	N/A	http://yellow.local.ch/en/d/Zurich/8004/Chinese-medicine-TCM/XING-LIN-TCM-ZENTRUM-Rbtk3TP0SdkWSeQEZe7ROQ?dwhat=massage&dwhere=zurich	XING LIN TCM ZENTRUM	Stauffacherstrasse 16	 8004 Zürich	044 201 89 89		
zurich	massage	N/A	http://yellow.local.ch/en/d/Zurich/8046/Beauty-By-Anna-Schwarz-PGNIwJJWHVKaV37a6vJODA?dwhat=massage&dwhere=zurich	Beauty By Anna Schwarz	Wehntalerstrasse 600	 8046 Zürich	043 322 00 22		
zurich	massage	N/A	http://yellow.local.ch/en/d/Zurich/8032/Feldenkrais-method/Egli-Nikola-Krause-s0YIcQbi_-jeSN7kDce-3g?dwhat=massage&dwhere=zurich	Egli Nikola (-Krause)	Forchstrasse 21	 8032 Zürich	044 422 88 60		
zurich	massage	N/A	http://yellow.local.ch/en/d/Zurich/8055/Bodywork/Muller-Kuhn-Gabriela-Mlm-YDLBEjwfIaHIP7dF1w?dwhat=massage&dwhere=zurich	Müller Kuhn Gabriela	Im Tiergarten 44	 8055 Zürich	044 451 11 74		
zurich	massage	N/A	http://yellow.local.ch/en/d/Zurich/8003/Praxis-fur-Naturheilkunde-diXjxJakuZqRH0VlBd2t6w?dwhat=massage&dwhere=zurich	Praxis für Naturheilkunde	Zurlindenstrasse 58	 8003 Zürich	079 663 93 30		
zurich	massage	N/A	http://yellow.local.ch/en/d/Zurich/8002/Praxis-Tao--ZC7lCrl_jtXWwp4zHxwsA?dwhat=massage&dwhere=zurich	Praxis Tao	Alfred-Escher-Strasse 22	 8002 Zürich	079 242 93 45		
zurich	massage	N/A	http://yellow.local.ch/en/d/Zurich/8032/Ruanthai-Wellness-Spa-RnV6IU5GxrabVzgFit-4vw?dwhat=massage&dwhere=zurich	Ruanthai Wellness & Spa	Kreuzstrasse 76	 8032 Zürich	044 252 63 66		
zurich	massage	N/A	http://yellow.local.ch/en/d/Zurich/8032/Feldenkrais-method/Wyder-Franziska-8X7EORhnzfIqawW842mHUg?dwhat=massage&dwhere=zurich	Wyder Franziska	Forchstrasse 21	 8032 Zürich	044 422 88 60		
zurich	massage	N/A	http://yellow.local.ch/en/d/Zurich/8008/Shiatsu/Leith-Alan-Q2Og0AGLDT42UkyxVPoWyw?dwhat=massage&dwhere=zurich	Leith Alan	Höschgasse 54	 8008 Zürich	044 381 23 81	www.leith-shiatsu.ch	
zurich	massage	N/A	http://yellow.local.ch/en/d/Zurich/8004/Praxis-fur-Komplementarmedizin-2qGXKtFbZIMmJf-iqa-p1A?dwhat=massage&dwhere=zurich	Praxis für Komplementärmedizin	Stauffacherstrasse 25	 8004 Zürich	076 439 41 04	www.naturheilpraxis-trafelet.ch	
zurich	massage	N/A	http://yellow.local.ch/en/d/Zurich/8050/Alexa-Gesundheitsmassagen-b1Hwg1eqpHKRsGTaQq_c6w?dwhat=massage&dwhere=zurich	Alexa Gesundheitsmassagen	Schwamendingenstrasse 36	 8050 Zürich	044 211 63 63		
zurich	massage	N/A	http://yellow.local.ch/en/d/Zurich/8057/Sauna/Allenmoos-mew8QL83VJ6q39KPN1c1Vg?dwhat=massage&dwhere=zurich	Allenmoos	Ringstrasse 82	 8057 Zürich	044 311 52 72		
zurich	massage	N/A	http://yellow.local.ch/en/d/Zurich/8047/Bali-Santay-5SlJd_zhGEVSGsnMXmIUYA?dwhat=massage&dwhere=zurich	Bali Santay	Altstetterstrasse 280	 8047 Zürich	076 565 77 78		
zurich	massage	N/A	http://yellow.local.ch/en/d/Zurich/8045/Qi-Gong/Barengo-Cecil-JLliYqbQE-FnhvhIAPoQ8Q?dwhat=massage&dwhere=zurich	Barengo Cecil	Uetlibergstrasse 24	 8045 Zürich	043 538 75 69		
zurich	massage	N/A	http://yellow.local.ch/en/d/Zurich/8051/Cosmetic-institute/Bijou-R3b3NX25mBybJPtgMnPt8Q?dwhat=massage&dwhere=zurich	Bijou	Winterthurerstrasse 549	 8051 Zürich	044 322 15 50		
zurich	massage	N/A	http://yellow.local.ch/en/d/Zurich/8032/Body-Health-Med-qVq_2j97yqZaBWjeCU388w?dwhat=massage&dwhere=zurich	Body Health Med	Klosbachstrasse 54	 8032 Zürich	044 381 00 33		
zurich	massage	N/A	http://yellow.local.ch/en/d/Zurich/8050/Practice/Christin-Niklaus-xGY109RZ1tCjLo03U9nMJQ?dwhat=massage&dwhere=zurich	Christin Niklaus	Schaffhauserstrasse 343	 8050 Zürich	044 311 66 77		
zurich	massage	N/A	http://yellow.local.ch/en/d/Zurich/8008/Esalen-Zurich-xb2obK601sMXjFiZDwsHSw?dwhat=massage&dwhere=zurich	Esalen Zürich	Mühlebachstrasse 46	 8008 Zürich	079 642 29 11		
zurich	massage	N/A	http://yellow.local.ch/en/d/Zurich/8046/Foot-care-pedicures/Fuess-Stubli-66IB4U_eGi8u48Rkhs4_Cw?dwhat=massage&dwhere=zurich	Fuess-Stübli	Blumenfeldstrasse 37	 8046 Zürich	044 372 20 80		
zurich	massage	N/A	http://yellow.local.ch/en/d/Zurich/8006/Hangartner-Rita-9MShk5zeEXxi2wnSmx_wbA?dwhat=massage&dwhere=zurich	Hangartner Rita	Goldauerstrasse 14	 8006 Zürich	044 364 24 28		
zurich	massage	N/A	http://yellow.local.ch/en/d/Zurich/8032/Kundert-Rita-mrLcHUGidRvpiV2CoOXDwQ?dwhat=massage&dwhere=zurich	Kundert Rita	Hegarstrasse 9	 8032 Zürich	079 672 38 11		
zurich	massage	N/A	http://yellow.local.ch/en/d/Zurich/8050/Marghitola-NM_OxOpIDVlZMei8AFw8ww?dwhat=massage&dwhere=zurich	Marghitola	Schaffhauserstrasse 359	 8050 Zürich	078 712 93 29		
zurich	massage	N/A	http://yellow.local.ch/en/d/Zurich/8057/Mayer-David-gaNEeXjUotYqUpo8qlv5Yw?dwhat=massage&dwhere=zurich	Mayer David	Schaffhauserstrasse 125	 8057 Zürich	043 343 19 58		
zurich	massage	N/A	http://yellow.local.ch/en/d/Zurich/8006/Prescott-Currie-PxX5_RnWRFIJ4ZTP7hd8qg?dwhat=massage&dwhere=zurich	Prescott Currie	Engweg 3	 8006 Zürich	044 364 10 08		
zurich	massage	N/A	http://yellow.local.ch/en/d/Zurich/8001/Beauty-center/pret-a-beaute-AG-SgSKueOg6PrQTpplmSvR5g?dwhat=massage&dwhere=zurich	pret-a-beaute AG	Rennweg 32	 8001 Zürich	044 272 18 72		
zurich	massage	N/A	http://yellow.local.ch/en/d/Zurich/8008/Acupuncture-not-included-in-category-doctors/Schneider-Christina-ofBpPkaeNVuUas2fljK1sQ?dwhat=massage&dwhere=zurich	Schneider Christina	Florastrasse 1	 8008 Zürich	044 500 27 48		
zurich	massage	N/A	http://yellow.local.ch/en/d/Zurich/8050/Practice/Sergio-Caduff-ETvORKhawOnTEGne_ABNMA?dwhat=massage&dwhere=zurich	Sergio Caduff	Schaffhauserstrasse 343	 8050 Zürich	044 311 66 77		
zurich	massage	N/A	http://yellow.local.ch/en/d/Zurich/8002/Urben-Elena-9TW6dreWedt-Ty9sjGUekw?dwhat=massage&dwhere=zurich	Urben Elena	Bleicherweg 54	 8002 Zürich	044 281 31 31		
zurich	massage	N/A	http://yellow.local.ch/en/d/Zurich/8049/Wagner-Sarah-bWYUjbtdTSvFhundfFZ3HA?dwhat=massage&dwhere=zurich	Wagner Sarah	Michelstrasse 13	 8049 Zürich	079 310 75 33		
zurich	massage	N/A	http://yellow.local.ch/en/d/Geneve/1201/Foot-reflexology-and-massage/Monin-Catherine-eTFG3RIO3VgHiBtek1muog?dwhat=massage&dwhere=zurich	Monin Catherine	rue de Zurich 36	 1201 Genève	022 731 63 22		
zurich	massage	N/A	http://yellow.local.ch/en/d/Glattpark-Opfikon/8152/Health-and-sports-massage/4-more-energy-QhawsUtVStj05COnzJXlTA?dwhat=massage&dwhere=zurich	4 more energy	Thurgauerstrasse 111	 8152 Glattpark (Opfikon)	076 422 78 82		
zurich	massage	N/A	http://yellow.local.ch/en/d/Embrach/8424/Health-and-sports-massage/Body-Spirit-Balance-FrzGKOYr_eQvaIeXSpDblQ?dwhat=massage&dwhere=zurich	Body Spirit Balance	Schützenhausstrasse 105	 8424 Embrach	079 622 55 50		
zurich	massage	N/A	http://yellow.local.ch/en/d/Kusnacht-ZH/8700/Health-and-sports-massage/Esalen-Massage-Brigitte-Wettstein-XJb5_RCdMxIyjETyl2n9Zg?dwhat=massage&dwhere=zurich	Esalen-Massage Brigitte Wettstein	Seestrasse 146	 8700 Küsnacht ZH	079 441 85 29		
zurich	massage	N/A	http://yellow.local.ch/en/d/Thalwil/8800/Fitness-center/Gesundheitspark-Thalwil-AG-AJl7jhaR-crNQvLH82sT9A?dwhat=massage&dwhere=zurich	Gesundheitspark Thalwil AG	Zürcherstrasse 65	 8800 Thalwil	043 388 41 41		
zurich	massage	N/A	http://yellow.local.ch/en/d/Winterthur/8404/Health-and-sports-massage/Gesundheitszentrum-und-Naturheilpraxis-Filiale-Feuz-Roland-X99G1brEcGtb1alS1zVrxg?dwhat=massage&dwhere=zurich	Gesundheitszentrum und Naturheilpraxis Filiale Feuz Roland	Geschäftshaus (vis à vis Migrol-Tankstelle), Industriestrasse 43	 8404 Winterthur	079 428 26 67		
zurich	massage	N/A	http://yellow.local.ch/en/d/Dubendorf/8600/Health-and-sports-massage/Konzelmann-Eunike-YaA3lsEvxzmepu7C393abA?dwhat=massage&dwhere=zurich	Konzelmann Eunike	Rainweg 1	 8600 Dübendorf	044 383 88 09		
zurich	massage	N/A	http://yellow.local.ch/en/d/Schlieren/8952/Health-and-sports-massage/Oexles-Gesundheitsfachschule-Schlieren-AG-EHbpBuFZrAG9rgB1wi7HRQ?dwhat=massage&dwhere=zurich	Oexle's Gesundheitsfachschule Schlieren AG	Bahnhofstrasse 6	 8952 Schlieren	043 433 55 88		
zurich	massage	N/A	http://yellow.local.ch/en/d/Egg-b-Zurich/8132/Health-care-center/Praxis-Egg-TYr3RDIIUblX00V00p6stQ?dwhat=massage&dwhere=zurich	Praxis Egg	Dorfplatz 1	 8132 Egg b. Zürich	043 277 05 32		
zurich	massage	N/A	http://yellow.local.ch/en/d/Zurich/8006/Hangartner-Rita-nuzLCvbzeq0chUgI17u8Eg?dwhat=massage&dwhere=zurich	Hangartner Rita	Hadlaubstrasse 83	 8006 Zürich	044 251 13 79		
zurich	massage	N/A	http://yellow.local.ch/en/d/Zurich/8047/Tendon-Edgar-8aknQRSYB1wanVCq_6exkA?dwhat=massage&dwhere=zurich	Tendon Edgar	Albisriederstrasse 180	 8047 Zürich	044 461 35 62		
zurich	massage	N/A	http://yellow.local.ch/en/d/Zurich/8008/Acupuncture-not-included-in-category-doctors/Zollinger-Jurg-ga0d99Ak3RLLGovS2ccekQ?dwhat=massage&dwhere=zurich	Zollinger Jürg	Wiesenstrasse 11	 8008 Zürich	044 381 25 69		
zurich	massage	N/A	http://yellow.local.ch/en/d/Volketswil/8604/Acupuncture-not-included-in-category-doctors/Dong-Baode-YLgRnU1q1aCvWMLTQhPmCg?dwhat=massage&dwhere=zurich	Dong Baode	In der Höh 30	 8604 Volketswil	043 810 15 60	www.akupunktur-volketswil.ch	
zurich	massage	N/A	http://yellow.local.ch/en/d/Pfaffikon-ZH/8330/Chinese-medicine-TCM/Chinesische-Tuina-Massage-Praxis-LsR-VNmv04MUZ3iLb3LzqA?dwhat=massage&dwhere=zurich	Chinesische Tuina-Massage-Praxis	Tumbelenstrasse 43	 8330 Pfäffikon ZH	044 951 15 52		
zurich	massage	N/A	http://yellow.local.ch/en/d/Oberhasli/8156/Baby-massage/Praxis-Bamboo-PJirla3-BqcectmTNxa7zw?dwhat=massage&dwhere=zurich	Praxis Bamboo	Birchstrasse 75	 8156 Oberhasli	076 412 67 67		
zurich	massage	N/A	http://yellow.local.ch/en/d/Glattpark-Opfikon/8152/Thai-massage/Sensib-G4Lq0kJqnbHn1Faf2TVCKg?dwhat=massage&dwhere=zurich	Sensib	Thurgauerstrasse 111	 8152 Glattpark (Opfikon)	044 272 40 45		
zurich	massage	N/A	http://yellow.local.ch/en/d/Nurensdorf/8309/Atlaslogy/Praxis-fur-Atlaslogie-und-Akupunkturmassage-Ledermann-Armin-bei-Minosan-GmbH-4peK-bQeAd85xEdFFmoudQ?dwhat=massage&dwhere=zurich	Praxis für Atlaslogie und Akupunkturmassage Ledermann Armin bei Minosan GmbH	Oberwilerstrasse 19	 8309 Nürensdorf	044 888 40 30		
zurich	massage	N/A	http://yellow.local.ch/en/d/Illnau/8308/Kinesiology/Das-offene-Ohr-fur-Tiere-6v3T60sYZG_cx5IQOTcAOA?dwhat=massage&dwhere=zurich	Das offene Ohr für Tiere	Soorhaldenstrasse 1B	 8308 Illnau	078 794 33 28	www.das-offene-ohr-fuer-tiere.ch	
zurich	massage	N/A	http://yellow.local.ch/en/d/Uitikon-Waldegg/8142/Cosmetic-institute/Kosmetikinstitut-Mara-Brezonjic-kHrdG2rgpDDyQncQh0B-eg?dwhat=massage&dwhere=zurich	Kosmetikinstitut Mara Brezonjic	Zürcherstrasse 4	 8142 Uitikon Waldegg	044 491 07 71	www.mara-kosmetik.ch	
zurich	massage	N/A	http://yellow.local.ch/en/d/Dubendorf/8600/Education-centre/Swiss-Wellness-Academy-FRA6r3mk0ij5BTF8mp5Ggw?dwhat=massage&dwhere=zurich	Swiss Wellness Academy	Im Schörli 3	 8600 Dübendorf	044 420 08 00	www.swa.ch	
zurich	massage	N/A	http://yellow.local.ch/en/d/Dubendorf/8600/Chinese-medicine-TCM/WU-XIAOQUN-WUSHU-CENTER-_AiqN39-KkIgPhcL4zOWHw?dwhat=massage&dwhere=zurich	WU XIAOQUN WUSHU CENTER	Wilstrasse 64	 8600 Dübendorf	043 355 00 35	www.wushu-center.ch	
zurich	massage	N/A	http://yellow.local.ch/en/d/Wallisellen/8304/Physical-therapy/Active-Physio-GmbH-PqGZtXLJ0HY3HE2JKOObyQ?dwhat=massage&dwhere=zurich	Active Physio GmbH	Rotackerstrasse 32	 8304 Wallisellen	044 558 77 50		
zurich	massage	N/A	http://yellow.local.ch/en/d/Geneve/1201/Counseling-life-coaching/Monin-Sylvie-gYm2MsRlf1CU3kbSKFRGDA?dwhat=massage&dwhere=zurich	Monin Sylvie	rue de Zurich 36	 1201 Genève	022 738 06 22		
zurich	massage	N/A	http://yellow.local.ch/en/d/Monchaltorf/8617/Permanent-make-up/Thoma-Nadine-JRZ3HAZHt3XI5zsBugAQwA?dwhat=massage&dwhere=zurich	Thoma Nadine	Usterstrasse 13	 8617 Mönchaltorf	044 948 12 35	www.kosmetikstudio-nadine.ch	
zurich	massage	N/A	http://yellow.local.ch/en/d/Uster/8610/Chinese-medicine-TCM/TCM-Energie-QU2gkisZcMCr-lvGCcAxsw?dwhat=massage&dwhere=zurich	TCM Energie	Winterthurerstrasse 18B	 8610 Uster	043 535 10 10	www.tcmenergie.ch	
zurich	massage	N/A	http://yellow.local.ch/en/d/Esslingen/8133/Cosmetic-institute/Elegance-Cosmetique-_sPIcOJiUGVqXrrII3nOEQ?dwhat=massage&dwhere=zurich	Elégance Cosmétique	Vollikerstrasse 28	 8133 Esslingen	044 984 34 34	www.elegance-cosmetique.ch	
