cityName	searchPhrase	resultNum	ypchsite	name	address1	address2	phone	website
zurich	pizza	N/A	http://yellow.local.ch/en/d/Zurich/8037/Restaurant/al-fiume-tC7bEVa8ztnCJRqwob5MbA?dwhat=pizza&dwhere=zurich	al fiume	Hönggerstrasse 43	 8037 Zürich	044 271 06 46	www.al-fiume.ch	
zurich	pizza	N/A	http://yellow.local.ch/en/d/Zurich/8055/Pizza-Take-Away/il-Basilico-ojIMejxnew7cMGGf4FEGVA?dwhat=pizza&dwhere=zurich	il Basilico	Birmensdorferstrasse 364	 8055 Zürich	044 450 88 99	www.ilbasilico.ch	
zurich	pizza	N/A	http://yellow.local.ch/en/d/Zurich/8006/Restaurant/Jimmys-Pizzeria-Bodega-jjA1OwqePkmRhzUQOT0CKw?dwhat=pizza&dwhere=zurich	Jimmy's Pizzeria-Bodega	Culmannstrasse 1	 8006 Zürich	044 251 36 51	www.jimmys-pizzeria.ch?page_id=9	
zurich	pizza	N/A	http://yellow.local.ch/en/d/Zurich/8002/Takeout/Safran-Take-Away-und-Shisha-Lounge-YIbja6T4nbPYBpfuNY-9XA?dwhat=pizza&dwhere=zurich	Safran Take Away und Shisha Lounge	Bederstrasse 94	 8002 Zürich	044 281 95 00	www.facebook.com/SafranShishaLounge	
zurich	pizza	N/A	http://yellow.local.ch/en/d/Zurich/8048/Restaurant/Pizza-Zuri-5A-dhdQR4Tw_1vw1eXv0iw?dwhat=pizza&dwhere=zurich	Pizza Züri	Badenerstrasse 558	 8048 Zürich	044 492 82 82	www.pizzazueri.ch	
zurich	pizza	N/A	http://yellow.local.ch/en/d/Zurich/8048/Restaurant/Restaurant-Bociodromo-da-Cono-DWDz47Y-BStHrtrSq73oXQ?dwhat=pizza&dwhere=zurich	Restaurant Bociodromo da Cono	Badenerstrasse 526	 8048 Zürich	044 492 46 41		
zurich	pizza	N/A	http://yellow.local.ch/en/d/Zurich/8050/Restaurant/New-Point-O0i3MbF2JCL3veoQrwP1ug?dwhat=pizza&dwhere=zurich	New Point	Binzmühlestrasse 43	 8050 Zürich	043 299 98 25		
zurich	pizza	N/A	http://yellow.local.ch/en/d/Zurich/8047/Restaurant/Restaurant-Friedbrunnen-qX2Hu8V-M2THEUpYXq-jKQ?dwhat=pizza&dwhere=zurich	Restaurant Friedbrunnen	Püntstrasse 9	 8047 Zürich	044 491 76 76		
zurich	pizza	N/A	http://yellow.local.ch/en/d/Zurich/8048/Pizza-Take-Away/Bella-Pizza-Kurier-Kgtx38O-AmcEsUgAvHXYrA?dwhat=pizza&dwhere=zurich	Bella Pizza Kurier	Badenerstrasse 816	 8048 Zürich	044 431 30 30	www.bellapizza.ch	
zurich	pizza	N/A	http://yellow.local.ch/en/d/Zurich/8004/Kebab-Doner/Flora-New-Point-aF-xIUpHgSOsoRM-QA73hw?dwhat=pizza&dwhere=zurich	Flora New Point	Albisriederplatz 5	 8004 Zürich	043 311 12 12		
zurich	pizza	N/A	http://yellow.local.ch/en/d/Zurich/8046/Pizza-Take-Away/New-Point-Pizza-Kurier-hrMVkO55uhe4DAxX5rKSeg?dwhat=pizza&dwhere=zurich	New Point Pizza Kurier	Wehntalerstrasse 634	 8046 Zürich	044 371 16 16	www.pizzakurier-newpoint.ch	
zurich	pizza	N/A	http://yellow.local.ch/en/d/Zurich/8004/Pizza-delivery/Dieci-Pizza-Kurier-Gn9kThl4a-of_v_0enqrMw?dwhat=pizza&dwhere=zurich	Dieci Pizza-Kurier	Hohlstrasse 204	 8004 Zürich	0800 81 10 10	www.pizzakurier.ch	
zurich	pizza	N/A	http://yellow.local.ch/en/d/Zurich/8006/Pizza-delivery/Dieci-Pizza-Kurier-DBI9vIwqIoY8uatQRFz2SQ?dwhat=pizza&dwhere=zurich	Dieci Pizza-Kurier	Landoltstrasse 7	 8006 Zürich	0800 81 10 10	www.pizzakurier.ch	
zurich	pizza	N/A	http://yellow.local.ch/en/d/Zurich/8045/Pizza-delivery/Dieci-Pizza-Kurier-NcooV0nse-TXQXGjJMkjUg?dwhat=pizza&dwhere=zurich	Dieci Pizza-Kurier	Eibenstrasse 24	 8045 Zürich	0800 81 10 10	www.pizzakurier.ch	
zurich	pizza	N/A	http://yellow.local.ch/en/d/Zurich/8050/Pizza-delivery/Dieci-Pizza-Kurier-zIeVks9tYPGhUK68z0hXmA?dwhat=pizza&dwhere=zurich	Dieci Pizza-Kurier	Schaffhauserstrasse 442	 8050 Zürich	0800 81 10 10	www.pizzakurier.ch	
zurich	pizza	N/A	http://yellow.local.ch/en/d/Zurich/8001/Pizzeria/Pizza-Pasta-Ciao-Ristorante-JbyAN-T-PCfN10QLcT76Ig?dwhat=pizza&dwhere=zurich	Pizza Pasta Ciao Ristorante	Weinbergstrasse 26	 8001 Zürich	044 262 33 55	www.pizzaciao.ch	
zurich	pizza	N/A	http://yellow.local.ch/en/d/Zurich/8050/Pizzeria/Pizza-Blitz-EO0GpJ7YRV-Mzb-gypSIbA?dwhat=pizza&dwhere=zurich	Pizza-Blitz	Dörflistrasse 117	 8050 Zürich	043 300 60 30	www.pizza-blitz.ch	
zurich	pizza	N/A	http://yellow.local.ch/en/d/Zurich/8006/Pizza-delivery/Dominos-Pizza-IXT1U18RSDa7WLoVL9PmvA?dwhat=pizza&dwhere=zurich	Domino's Pizza	Universitätstrasse 11	 8006 Zürich	0844 42 42 42	www.dominos.ch	
zurich	pizza	N/A	http://yellow.local.ch/en/d/Zurich/8048/Pizza-delivery/Dominos-Pizza--mr-VmD5Gx36ZCiMqotBvw?dwhat=pizza&dwhere=zurich	Domino's Pizza	Hohlstrasse 502	 8048 Zürich	0844 42 42 42	www.dominos.ch	
zurich	pizza	N/A	http://yellow.local.ch/en/d/Zurich/8050/Pizza-delivery/Dominos-Pizza-Y9boDtInwsve7a7HESIdTg?dwhat=pizza&dwhere=zurich	Domino's Pizza	Franklinstrasse 17	 8050 Zürich	0844 42 42 42	www.dominos.ch	
zurich	pizza	N/A	http://yellow.local.ch/en/d/Zurich/8051/Pizza-delivery/Dominos-Pizza-rJ9PnwkhQH_KvTj7ilTSkw?dwhat=pizza&dwhere=zurich	Domino's Pizza	Ueberlandstrasse 437	 8051 Zürich	0844 42 42 42	www.dominos.ch	
zurich	pizza	N/A	http://yellow.local.ch/en/d/Zurich/8055/Pizza-delivery/Dominos-Pizza-imAWL0-UZdfzUDawVVuYAg?dwhat=pizza&dwhere=zurich	Domino's Pizza	Goldbrunnenstrasse 115	 8055 Zürich	0844 42 42 42	www.dominos.ch	
zurich	pizza	N/A	http://yellow.local.ch/en/d/Zurich/8006/Pizza-Calimero-uYkwM7SkTgT7Skw35ag6Jg?dwhat=pizza&dwhere=zurich	Pizza Calimero	Weinbergstrasse 157	 8006 Zürich	044 364 30 30		
zurich	pizza	N/A	http://yellow.local.ch/en/d/Zurich/8032/Restaurant/Pizza-Pasta-Ciao-WLoA_r_AifQ9xEWw3tEUGQ?dwhat=pizza&dwhere=zurich	Pizza Pasta Ciao	Asylstrasse 125	 8032 Zürich	043 499 07 12		
zurich	pizza	N/A	http://yellow.local.ch/en/d/Zurich/8001/Restaurant/SAMS-Pizza-Land-wt-SrDdz5QsPWAjVhePLUA?dwhat=pizza&dwhere=zurich	SAM'S Pizza Land	Schweizergasse 6	 8001 Zürich	044 211 16 30		
zurich	pizza	N/A	http://yellow.local.ch/en/d/Zurich/8002/Restaurant/SAMS-Pizza-Land-WG4qg6stFQ-Vsi5Khg4Xeg?dwhat=pizza&dwhere=zurich	SAM'S Pizza Land	Dreikönigstrasse 21	 8002 Zürich	043 344 97 37		
zurich	pizza	N/A	http://yellow.local.ch/en/d/Zurich/8004/SO-PIZZA-ZTtI2SJ0tDkoZngRuUuNpA?dwhat=pizza&dwhere=zurich	SO PIZZA	Langstrasse 20	 8004 Zürich	043 322 00 70		
zurich	pizza	N/A	http://yellow.local.ch/en/d/Zurich/8037/CHAS-EGGE-Pizza-Take-Away-h8hrtzsbP_SjMaO5di3pRg?dwhat=pizza&dwhere=zurich	CHÄS EGGE Pizza Take Away	Nordstrasse 286	 8037 Zürich	044 273 50 80		
zurich	pizza	N/A	http://yellow.local.ch/en/d/Zurich/8050/Pizza-Take-Away/Francos-Pizzaservice-JD7AJQlD5HRe3TnaYPSwZQ?dwhat=pizza&dwhere=zurich	Franco's Pizzaservice	Wattstrasse 7	 8050 Zürich	044 312 04 40		
zurich	pizza	N/A	http://yellow.local.ch/en/d/Zurich/8002/Pizza-Take-Away/Allegrotto-Pizza-Kurier-GmbH-Cp5ncTwuoYO8g56AxsTHHA?dwhat=pizza&dwhere=zurich	Allegrotto Pizza-Kurier GmbH	Bederstrasse 102	 8002 Zürich	044 280 40 30		
zurich	pizza	N/A	http://yellow.local.ch/en/d/Zurich/8050/Pizzeria/Allegrotto-Uno-GmbH-zMnveWePs9u7Uzo89IIsbQ?dwhat=pizza&dwhere=zurich	Allegrotto Uno GmbH	Siewerdtstrasse 95	 8050 Zürich	044 222 22 33		
zurich	pizza	N/A	http://yellow.local.ch/en/d/Zurich/8003/Avanti-Pizza-udr4wju_jTNrkSpLAAqrAQ?dwhat=pizza&dwhere=zurich	Avanti Pizza	Stationsstrasse 1	 8003 Zürich	043 333 29 40		
zurich	pizza	N/A	http://yellow.local.ch/en/d/Zurich/8001/Pizzeria/Belcafe-Pizza-und-Bar-aFbc4kma5oZp0eyxbOSAGQ?dwhat=pizza&dwhere=zurich	Belcafé Pizza und Bar	Bellevueplatz	 8001 Zürich	044 251 98 00		
zurich	pizza	N/A	http://yellow.local.ch/en/d/Zurich/8008/Pizza-delivery/Bistro-Valentino-qP66F04eGflvxD4hZoVhGA?dwhat=pizza&dwhere=zurich	Bistro Valentino	Dufourstrasse 81	 8008 Zürich	044 422 89 57		
zurich	pizza	N/A	http://yellow.local.ch/en/d/Zurich/8052/Pizza-Take-Away/Blue-Pizza-Kurier-GmbH-uOcsSAMVHnlW8Ir5CWaPfA?dwhat=pizza&dwhere=zurich	Blue Pizza Kurier GmbH	Bahnhaldenstrasse 32	 8052 Zürich	043 300 12 62		
zurich	pizza	N/A	http://yellow.local.ch/en/d/Zurich/8045/Pizza-Take-Away/Brunau-Park-j1tL12TYJQNiu7hvVBYt0w?dwhat=pizza&dwhere=zurich	Brunau-Park	Giesshübelstrasse 65	 8045 Zürich	044 463 40 11		
zurich	pizza	N/A	http://yellow.local.ch/en/d/Zurich/8004/Pizza-Take-Away/Buonappetito-GmbH-oMlAGTdyAXEDdxSTBClVgQ?dwhat=pizza&dwhere=zurich	Buonappetito GmbH	Rotwandstrasse 51	 8004 Zürich	044 241 91 81		
zurich	pizza	N/A	http://yellow.local.ch/en/d/Zurich/8004/Dieci-Pizza-Kuriere-Zurich-QSqwFOOp_X-nA2AKXWbXQA?dwhat=pizza&dwhere=zurich	Dieci Pizza-Kuriere Zürich	Hohlstrasse 204	 8004 Zürich	044 242 20 70		
zurich	pizza	N/A	http://yellow.local.ch/en/d/Zurich/8006/Dieci-Pizza-Kuriere-Zurich-ZhKyqPZi3Be-3Q0HVb449w?dwhat=pizza&dwhere=zurich	Dieci Pizza-Kuriere Zürich	Landoltstrasse 7	 8006 Zürich	044 361 90 95		
zurich	pizza	N/A	http://yellow.local.ch/en/d/Zurich/8045/Dieci-Pizza-Kuriere-Zurich-yKcXRJyE7qnaarP4gEa97g?dwhat=pizza&dwhere=zurich	Dieci Pizza-Kuriere Zürich	Eibenstrasse 24	 8045 Zürich	044 482 65 65		
zurich	pizza	N/A	http://yellow.local.ch/en/d/Zurich/8050/Dieci-Pizza-Kuriere-Zurich-kJLSrbyV4dDLK6-cHzKdoA?dwhat=pizza&dwhere=zurich	Dieci Pizza-Kuriere Zürich	Schaffhauserstrasse 442	 8050 Zürich	044 308 50 40		
zurich	pizza	N/A	http://yellow.local.ch/en/d/Zurich/8051/Dominos-Pizza-GmbH-zvDqb7s0Nuf8hyWVla1n3g?dwhat=pizza&dwhere=zurich	Domino's Pizza GmbH	Ueberlandstrasse 437	 8051 Zürich	043 300 28 04		
zurich	pizza	N/A	http://yellow.local.ch/en/d/Zurich/8004/Home-delivery-service/EATch-GmbH-BN5dwXTZ8G1lOXilwHtApA?dwhat=pizza&dwhere=zurich	EAT.ch GmbH	Werdstrasse 21	 8004 Zürich	0848 74 99 21		
zurich	pizza	N/A	http://yellow.local.ch/en/d/Zurich/8037/Home-delivery-service/Flying-Pizza-vuk_kmP1cyuUw09Yu70blA?dwhat=pizza&dwhere=zurich	Flying Pizza	Nordstrasse 245	 8037 Zürich	044 440 32 32		
zurich	pizza	N/A	http://yellow.local.ch/en/d/Zurich/8002/Pizza-Take-Away/Francos-Pizzaservice-wX2Mf5Kb0e_hS16OrPCxhQ?dwhat=pizza&dwhere=zurich	Franco's Pizzaservice	Waffenplatzstrasse 15	 8002 Zürich	044 281 94 40		
zurich	pizza	N/A	http://yellow.local.ch/en/d/Zurich/8006/Pizza-Take-Away/Janni-GmbH-2z95QE8z65RdxVigpGCSJA?dwhat=pizza&dwhere=zurich	Janni GmbH	Stampfenbachstrasse 142	 8006 Zürich	0848 000 888		
zurich	pizza	N/A	http://yellow.local.ch/en/d/Zurich/8050/Pizza-Take-Away/Kurier-Pirata-JdNS8e-h8ED3f8tHFvEm2A?dwhat=pizza&dwhere=zurich	Kurier 'Pirata'	Friesstrasse 22	 8050 Zürich	044 302 11 00		
zurich	pizza	N/A	http://yellow.local.ch/en/d/Zurich/8048/La-Pizza-Buona-Rvb8eYY6z9gBkdOqrG85Fg?dwhat=pizza&dwhere=zurich	La Pizza Buona	Altstetterstrasse 239	 8048 Zürich	044 430 10 30		
zurich	pizza	N/A	http://yellow.local.ch/en/d/Zurich/8050/Pizza-delivery/Lemon-Food-drinks-8kLxmvOmSkWduWjD7Je2JA?dwhat=pizza&dwhere=zurich	Lemon Food & drinks	Regensbergstrasse 175	 8050 Zürich	044 310 38 14		
zurich	pizza	N/A	http://yellow.local.ch/en/d/Zurich/8048/Pizza-Take-Away/Letzi-Pizza-GmbH-5JFUpSp13VsjFlnlg4q-pw?dwhat=pizza&dwhere=zurich	Letzi Pizza GmbH	Badenerstrasse 541	 8048 Zürich	044 401 94 94		
zurich	pizza	N/A	http://yellow.local.ch/en/d/Zurich/8048/Home-delivery-service/Mosis-Der-Restaurant-Kurier-pyF2rSp_r-VJdw8dtNCVhg?dwhat=pizza&dwhere=zurich	Mosi's - Der Restaurant Kurier	Herostrasse 9	 8048 Zürich	0844 14 14 14		
zurich	pizza	N/A	http://yellow.local.ch/en/d/Zurich/8055/Takeout/Piratino-2-k-AFb0rbmEZqWwt2I6IINw?dwhat=pizza&dwhere=zurich	Piratino 2	Sieberstrasse 12	 8055 Zürich	044 450 29 60		
zurich	pizza	N/A	http://yellow.local.ch/en/d/Zurich/8050/PIUGUSTO-MEGA-PIZZA-B-kCRiGbIa-HBqv53hqLyA?dwhat=pizza&dwhere=zurich	PIUGUSTO MEGA PIZZA	Schaffhauserstrasse 413	 8050 Zürich	044 500 29 66		
zurich	pizza	N/A	http://yellow.local.ch/en/d/Zurich/8003/Pizza-delivery/Pizza-Blitz-r2jurwyDMtxlyenYNXWBwg?dwhat=pizza&dwhere=zurich	Pizza-Blitz	Schimmelstrasse 2	 8003 Zürich	0844 333 333		
zurich	pizza	N/A	http://yellow.local.ch/en/d/Zurich/8050/Pizza-delivery/Pizza-Blitz-pY8ytBSsD5Gpm9JXJ6MTjw?dwhat=pizza&dwhere=zurich	Pizza-Blitz	Dörflistrasse 117	 8050 Zürich	0844 333 333		
zurich	pizza	N/A	http://yellow.local.ch/en/d/Zurich/8005/Pizza-Take-Away/Pizza-Express-85RF5kwQXbD7tXtg_4ohWA?dwhat=pizza&dwhere=zurich	Pizza Express	Luisenstrasse 40	 8005 Zürich	044 273 05 55		
zurich	pizza	N/A	http://yellow.local.ch/en/d/Zurich/8004/PizzaFriends-GmbH-too9Jo_Y81hXO30v2_bLoA?dwhat=pizza&dwhere=zurich	Pizza&Friends GmbH	Morgartenstrasse 15	 8004 Zürich	044 291 26 26		
zurich	pizza	N/A	http://yellow.local.ch/en/d/Zurich/8002/Takeout/Pizza-King-City-hI53VWDK9CAvqCdIcEDcmg?dwhat=pizza&dwhere=zurich	Pizza King City	Bederstrasse 102	 8002 Zürich	044 280 18 18		
zurich	pizza	N/A	http://yellow.local.ch/en/d/Zurich/8055/Pizza-Kurier-1590-hfCk0bMB1DFpZaNl3wcXBg?dwhat=pizza&dwhere=zurich	Pizza Kurier 15.90	Birmensdorferstrasse 427	 8055 Zürich	0800 31 13 11		
zurich	pizza	N/A	http://yellow.local.ch/en/d/Zurich/8057/Pizza-Kurier-Cinque-Fratelli-75H4fLHjdDxJiZSLk2iuqg?dwhat=pizza&dwhere=zurich	Pizza Kurier Cinque Fratelli	Bucheggstrasse 156	 8057 Zürich	044 300 26 26		
zurich	pizza	N/A	http://yellow.local.ch/en/d/Zurich/8048/Takeout/Pizza-Kurier-Piratino-RaKpuCdbR1XERBh0K09ZMw?dwhat=pizza&dwhere=zurich	Pizza Kurier Piratino	Jakob-Fügli-Strasse 6	 8048 Zürich	043 311 98 48		
zurich	pizza	N/A	http://yellow.local.ch/en/d/Zurich/8003/Takeout/Pizzacasa-GmbH-7yNKrJc5xaO9kde30JWUFg?dwhat=pizza&dwhere=zurich	Pizzacasa GmbH	Badenerstrasse 281	 8003 Zürich	0 433 110 433		
zurich	pizza	N/A	http://yellow.local.ch/en/d/Zurich/8005/Food-Delivery/Pizzeria-Antonio-Gu1VJWFRJ3ivHDiBYJ89TA?dwhat=pizza&dwhere=zurich	Pizzeria Antonio	Hardturmstrasse 133	 8005 Zürich	043 818 23 88		
zurich	pizza	N/A	http://yellow.local.ch/en/d/Zurich/8003/Pizza-Take-Away/Pizzeria-da-Pepino-kiaMcK5IDe1_EunX6mo4QQ?dwhat=pizza&dwhere=zurich	Pizzeria da Pepino	Weststrasse 180	 8003 Zürich	044 461 12 31		
zurich	pizza	N/A	http://yellow.local.ch/en/d/Zurich/8006/Pizzeria/Pizzeria-Monterigi-f7Ter6lSzt8rBKoXN2b32A?dwhat=pizza&dwhere=zurich	Pizzeria Monterigi	Universitätstrasse 110	 8006 Zürich	044 362 13 33		
zurich	pizza	N/A	http://yellow.local.ch/en/d/Zurich/8032/Pizzeria/Sams-Pizza-Kurier-wzSkmRnl2zVkViKiW6eGlg?dwhat=pizza&dwhere=zurich	Sams Pizza Kurier	Hegibachstrasse 9	 8032 Zürich	044 380 28 80		
zurich	pizza	N/A	http://yellow.local.ch/en/d/Zurich/8008/Kebab-Doner/Spuntino--nATy3Z3uJl_Zoek70nOwQ?dwhat=pizza&dwhere=zurich	Spuntino	Bellerivestrasse 253	 8008 Zürich	043 499 80 80		
zurich	pizza	N/A	http://yellow.local.ch/en/d/Zurich/8008/Stripped-Pizza-Operations-AG-fKa06I64xO9Y1ajdJXN5uw?dwhat=pizza&dwhere=zurich	Stripped Pizza Operations AG	Seefeldstrasse 88	 8008 Zürich	044 382 98 55		
zurich	pizza	N/A	http://yellow.local.ch/en/d/Zurich/8055/YOYO-Pizza-V399T8wwL9xOub-_cUI1FQ?dwhat=pizza&dwhere=zurich	YOYO Pizza	Friesenbergstrasse 12	 8055 Zürich	044 451 58 28		
zurich	pizza	N/A	http://yellow.local.ch/en/d/Zurich/8050/Restaurant/Ristorante-Virtu-u0T951p1wHj5W1a7Gj9vNw?dwhat=pizza&dwhere=zurich	Ristorante Virtù	Birchstrasse 147	 8050 Zürich	044 310 33 44		
zurich	pizza	N/A	http://yellow.local.ch/en/d/Zurich/8001/Restaurant/del-Sole-jvcJCG_WnvaAKlXBBVYZsQ?dwhat=pizza&dwhere=zurich	del Sole	Löwenstrasse 64	 8001 Zürich	043 497 35 45		
zurich	pizza	N/A	http://yellow.local.ch/en/d/Zurich/8002/Restaurant/Don-Leone-jBzM5Rapde2uAbBO4pOqOQ?dwhat=pizza&dwhere=zurich	Don Leone	Waffenplatzstrasse 15	 8002 Zürich	044 281 94 30	www.donleone.ch	
zurich	pizza	N/A	http://yellow.local.ch/en/d/Zurich/8004/Restaurant/Don-Leone-vnVHV4n8grH1HnO_WI6Pow?dwhat=pizza&dwhere=zurich	Don Leone	Bäckerstrasse 31	 8004 Zürich	044 241 01 01	www.donleone.ch	
zurich	pizza	N/A	http://yellow.local.ch/en/d/Zurich/8038/Restaurant/MediterRana-BtYwpYmAYU4AUyUsLMilZg?dwhat=pizza&dwhere=zurich	MediterRana	Albisstrasse 81	 8038 Zürich	044 480 09 08	www.mediterrana.ch	
zurich	pizza	N/A	http://yellow.local.ch/en/d/Zurich/8008/Restaurant/Restaurant-Terzo-r4KmAck-lVr-xefCeFZuYg?dwhat=pizza&dwhere=zurich	Restaurant Terzo	Seefeldstrasse 214	 8008 Zürich	043 488 66 25	www.restaurant-terzo.ch	
zurich	pizza	N/A	http://yellow.local.ch/en/d/Zurich/8045/Restaurant/La-Penisola-IfBIs3dFe-g3zDlVeX0-uA?dwhat=pizza&dwhere=zurich	La Penisola	Uetlibergstrasse 132	 8045 Zürich	044 450 33 72	www.facebook.com/LaPaninotecaPizzeria	
zurich	pizza	N/A	http://yellow.local.ch/en/d/Zurich/8006/Restaurant/Ristorante-La-Casa-UK4LoSFyCTTpVs8UvHjS6A?dwhat=pizza&dwhere=zurich	Ristorante La Casa	Riedtlistrasse 2	 8006 Zürich	043 810 04 54	www.ristorante-lacasa.ch	
zurich	pizza	N/A	http://yellow.local.ch/en/d/Zurich/8006/Restaurant/Scala-9Yp29QuWH4axOS_zWC6zNg?dwhat=pizza&dwhere=zurich	Scala	Rotbuchstrasse 1	 8006 Zürich	044 363 85 50	www.pizzeria-scala.ch	
zurich	pizza	N/A	http://yellow.local.ch/en/d/Zurich/8057/Restaurant/Ristorante-Pizzeria-Tramblu-0mY2oqm3pSf6gXctSk10Hg?dwhat=pizza&dwhere=zurich	Ristorante Pizzeria Tramblu	Bucheggstrasse 103	 8057 Zürich	044 364 50 13	www.tramblu.ch	
zurich	pizza	N/A	http://yellow.local.ch/en/d/Zurich/8048/Audit-firm/Swiss-Treuhand-Siegrist-GmbH-bhjn1YBICqDUaLjz-rXbuQ?dwhat=pizza&dwhere=zurich	Swiss Treuhand Siegrist GmbH	Herostrasse 9	 8048 Zürich	043 818 69 15	www.treuhandsiegrist.ch	
zurich	pizza	N/A	http://yellow.local.ch/en/d/Zurich/8003/La-Favorita--3IUdcUH-RgtyoHNNSR5nw?dwhat=pizza&dwhere=zurich	La Favorita	Birmensdorferstrasse 169	 8003 Zürich	044 450 15 15	www.lafavorita.ch	
zurich	pizza	N/A	http://yellow.local.ch/en/d/Zurich/8052/Blue-Pizzakurrier-GmbH-Restaurant-Sunneberg-rzjW-v1gNNHGVQhMe8c37w?dwhat=pizza&dwhere=zurich	Blue Pizzakurrier GmbH (Restaurant Sunneberg)	Bahnhaldenstrasse 32	 8052 Zürich	043 443 94 92		
zurich	pizza	N/A	http://yellow.local.ch/en/d/Zurich/8049/Del-Sole-Pizzakurier-GmbH-DDdXS7_4UmdmDGp4a3rSuw?dwhat=pizza&dwhere=zurich	Del Sole Pizzakurier GmbH	Limmattalstrasse 130	 8049 Zürich	044 341 55 66		
zurich	pizza	N/A	http://yellow.local.ch/en/d/Zurich/8050/Restaurant/Binz-Garten-znOShaVmYJJO7ncxGzF3QA?dwhat=pizza&dwhere=zurich	Binz Garten	Affolternstrasse 10	 8050 Zürich	044 221 44 44	www.binzgarten.ch	
zurich	pizza	N/A	http://yellow.local.ch/en/d/Zurich/8047/Bar/Easy-Bar-Ug0vTZFiLWg9UriOFYl-Xg?dwhat=pizza&dwhere=zurich	Easy Bar	Freilagerstrasse 1	 8047 Zürich	043 211 00 44	www.easy-bar.ch	
zurich	pizza	N/A	http://yellow.local.ch/en/d/Zurich/8047/Restaurant/Grottino-83-cVkcY-NwfGtw-rxMqkZX_Q?dwhat=pizza&dwhere=zurich	Grottino 83	Letzigraben 245	 8047 Zürich	044 491 01 22	www.grottino83.ch	
zurich	pizza	N/A	http://yellow.local.ch/en/d/Zurich/8006/Pizzeria/Pizzeria-Romantica-V_sNPIYN5qN22FwFjCBWbw?dwhat=pizza&dwhere=zurich	Pizzeria Romantica	Stampfenbachstrasse 68	 8006 Zürich	044 363 26 33	www.romantica2.ch	
zurich	pizza	N/A	http://yellow.local.ch/en/d/Zurich/8045/Restaurant/Ristorante-Verona-cyg9urHUdepq3Gp8Id0GNg?dwhat=pizza&dwhere=zurich	Ristorante Verona	Uetlibergstrasse 30	 8045 Zürich	044 451 47 57	www.restaurantverona.ch	
zurich	pizza	N/A	http://yellow.local.ch/en/d/Zurich/8045/Restaurant/Schutzenhaus-Albisgutli-5GBj0ilLYS2VFIC3ylpNIg?dwhat=pizza&dwhere=zurich	Schützenhaus Albisgütli	Uetlibergstrasse 341	 8045 Zürich	043 333 30 00	www.albisguetli.ch	
zurich	pizza	N/A	http://yellow.local.ch/en/d/Zurich/8002/Restaurant/Sternen-Da-Guido-z9AGbVVnsluENKRO4KcO9Q?dwhat=pizza&dwhere=zurich	Sternen Da Guido	Seestrasse 82	 8002 Zürich	044 201 16 76	www.daguido.ch	
zurich	pizza	N/A	http://yellow.local.ch/en/d/Zurich/8052/Restaurant/Pizzeria-La-Rustica-liL5SaNEYzIEFY5mRGsJpw?dwhat=pizza&dwhere=zurich	Pizzeria La Rustica	Schaffhauserstrasse 453	 8052 Zürich	044 302 58 88		
zurich	pizza	N/A	http://yellow.local.ch/en/d/Zurich/8001/Restaurant/Positano-pJTUt9EzT4xi2vDdiznBww?dwhat=pizza&dwhere=zurich	Positano	Stampfenbachstrasse 6	 8001 Zürich	043 243 76 10		
zurich	pizza	N/A	http://yellow.local.ch/en/d/Zurich/8008/Restaurant-Sorrento-b54pGs6KtRKt9aq-JyAoKA?dwhat=pizza&dwhere=zurich	Restaurant Sorrento	Forchstrasse 2	 8008 Zürich	044 383 00 85		
zurich	pizza	N/A	http://yellow.local.ch/en/d/Zurich/8050/Pizzeria/Ristorante-Concerto-Q-MV-YEvsrHof0eEur2cGQ?dwhat=pizza&dwhere=zurich	Ristorante Concerto	Ohmstrasse 11	 8050 Zürich	043 333 50 27		
zurich	pizza	N/A	http://yellow.local.ch/en/d/Zurich/8006/Restaurant/Bistro-Bar-Silba-VtXSHonoPhKz9cmK5qVZFQ?dwhat=pizza&dwhere=zurich	Bistro Bar Silba	Schaffhauserstrasse 29	 8006 Zürich	044 364 24 77		
zurich	pizza	N/A	http://yellow.local.ch/en/d/Zurich/8048/Restaurant/Brochette-Brasserie-Cafe-o0T5XUzv3e04zHUxNAWPpg?dwhat=pizza&dwhere=zurich	Brochette Brasserie Café	Altstetterstrasse 146	 8048 Zürich	044 431 99 33		
zurich	pizza	N/A	http://yellow.local.ch/en/d/Zurich/8005/Restaurant/CAFFETTERIA-am-Limmatplatz-RISTORANTE-PKYi93BGWtQ7JZ6-lFF5Dg?dwhat=pizza&dwhere=zurich	CAFFETTERIA 'am Limmatplatz' RISTORANTE	Kornhausbrücke 2	 8005 Zürich	044 271 61 60		
zurich	pizza	N/A	http://yellow.local.ch/en/d/Zurich/8006/Restaurant/Corallo-2GY8aXLHAuOeIA9-FHoxOw?dwhat=pizza&dwhere=zurich	Corallo	Weinbergstrasse 117	 8006 Zürich	044 362 00 59		
zurich	pizza	N/A	http://yellow.local.ch/en/d/Zurich/8001/Restaurant/Di-Gioia-9BR3SlPqJLoW9R49ev1gnA?dwhat=pizza&dwhere=zurich	Di Gioia	Brandschenkestrasse 5	 8001 Zürich	044 201 90 80		
zurich	pizza	N/A	http://yellow.local.ch/en/d/Zurich/8049/Restaurant/Il-Pantheon-VXHbU99j5ci8v4iY3qQYyA?dwhat=pizza&dwhere=zurich	Il Pantheon	Limmattalstrasse 400	 8049 Zürich	044 341 10 70		
zurich	pizza	N/A	http://yellow.local.ch/en/d/Zurich/8002/Restaurant/La-Mimosa-7PgcdHq6dAzmvxaDhVWNVw?dwhat=pizza&dwhere=zurich	La Mimosa	General-Wille-Strasse 8	 8002 Zürich	044 202 70 40		
zurich	pizza	N/A	http://yellow.local.ch/en/d/Zurich/8003/Restaurant/Michelangelo-X2CHbjTzwcLws7m4EUKoQQ?dwhat=pizza&dwhere=zurich	Michelangelo	Gertrudstrasse 37	 8003 Zürich	044 451 32 31		
zurich	pizza	N/A	http://yellow.local.ch/en/d/Zurich/8046/Restaurant/Pippone-bgAw7L8whDP9nH6GoCebAw?dwhat=pizza&dwhere=zurich	Pippone	Schauenbergstrasse 8	 8046 Zürich	044 371 55 25		
zurich	pizza	N/A	http://yellow.local.ch/en/d/Zurich/8004/Restaurant/Pizzeria-ETNA-YhywMLpnuZr_LjjbxiqHlA?dwhat=pizza&dwhere=zurich	Pizzeria ETNA	Hardplatz 7	 8004 Zürich	044 400 51 61		
zurich	pizza	N/A	http://yellow.local.ch/en/d/Zurich/8003/Restaurant/Pizzeria-Ristorante-Taverne-da-Angelo-8ZhCNm7s2n7SOp-NyV5kmA?dwhat=pizza&dwhere=zurich	Pizzeria Ristorante Taverne da Angelo	Badenerstrasse 275	 8003 Zürich	044 451 04 67		
zurich	pizza	N/A	http://yellow.local.ch/en/d/Zurich/8052/Restaurant/Restaurant-Pizzeria-Fantasia-ekqYaCmQ_di1-wWMdqaj9g?dwhat=pizza&dwhere=zurich	Restaurant Pizzeria Fantasia	Seebacherstrasse 167	 8052 Zürich	043 443 95 25		
zurich	pizza	N/A	http://yellow.local.ch/en/d/Zurich/8032/Restaurant/Romerblick-9ioi08AZWL9wC-dqoocM2Q?dwhat=pizza&dwhere=zurich	Römerblick	Asylstrasse 58	 8032 Zürich	044 253 15 90		
zurich	pizza	N/A	http://yellow.local.ch/en/d/Zurich/8052/Restaurant/Vesuvio-Pizzeria-Da-Antonio-rOk4JftiGIaruIOBrEl0gg?dwhat=pizza&dwhere=zurich	Vesuvio Pizzeria Da Antonio	Glatttalstrasse 40	 8052 Zürich	044 301 14 30		
zurich	pizza	N/A	http://yellow.local.ch/en/d/Zurich/8002/Allegrotto-U819w3XE6_BCwiDsHfUkTQ?dwhat=pizza&dwhere=zurich	Allegrotto	Bederstrasse 102	 8002 Zürich	0844 80 40 30		
zurich	pizza	N/A	http://yellow.local.ch/en/d/Egg-b-Zurich/8132/Pizza-Take-Away/Giallo-Pizza-Pasta-UWCgFqmPXX51RoUvEJaZBQ?dwhat=pizza&dwhere=zurich	Giallo Pizza & Pasta	Gewerbestrasse 16	 8132 Egg b. Zürich	044 994 80 94		
zurich	pizza	N/A	http://yellow.local.ch/en/d/Zurich/8046/XXXL-Shop-B0bX4JnFCqwj8knFkGXCrA?dwhat=pizza&dwhere=zurich	XXXL Shop	Wehntalerstrasse 634	 8046 Zürich	044 371 16 16		
zurich	pizza	N/A	http://yellow.local.ch/en/d/Schlieren/8952/Pizza-delivery/Pizza-e-Pasta-La-Qualita-GmbH-g1pYP-Ft_IEXLZGzOZYNaA?dwhat=pizza&dwhere=zurich	Pizza e Pasta La Qualità GmbH	Brandstrasse 37	 8952 Schlieren	044 730 00 22		
zurich	pizza	N/A	http://yellow.local.ch/en/d/Jona/8645/Dieci-Pizza-Kuriere-Zurich-QM9UylzQIviW9s7jw1hFkg?dwhat=pizza&dwhere=zurich	Dieci Pizza-Kuriere Zürich	Eichwiesstrasse 20	 8645 Jona	0800 81 10 10		
zurich	pizza	N/A	http://yellow.local.ch/en/d/Kloten/8302/Takeout/Pizza-Kurier-Kloten-Express-eOo5VuMPj2vHmespgTHTew?dwhat=pizza&dwhere=zurich	Pizza Kurier Kloten Express	Kirchgasse 36	 8302 Kloten	043 255 60 00		
