cityName	searchPhrase	resultNum	ypchsite	name	address1	address2	phone	website
zurich	nails	N/A	http://yellow.local.ch/en/d/Zurich/8004/Nail-cosmetics/NailStudio-Diva-aFKkyKO2sQslEUY5ZqjUOw?dwhat=nails&dwhere=zurich	NailStudio Diva	Badenerstrasse 131	 8004 Zürich	077 960 97 57	www.studiodiva.ch	
zurich	nails	N/A	http://yellow.local.ch/en/d/Zurich/8038/Cosmetic-institute/elleixier-cosmeticstudio-HqzpfZMzaevCDPDjZI3LlQ?dwhat=nails&dwhere=zurich	elle'ixier cosmeticstudio	Seestrasse 336	 8038 Zürich	044 251 63 60	www.elleixier-cosmetic.ch/home	
zurich	nails	N/A	http://yellow.local.ch/en/d/Zurich/8001/Hairdresser/En-Vogue-Coiffure-rMzUhKztAVR7OwBN22O5RA?dwhat=nails&dwhere=zurich	En Vogue Coiffure	Bahnhofstrasse 35	 8001 Zürich	044 211 66 44	www.envoguecoiffure.com	
zurich	nails	N/A	http://yellow.local.ch/en/d/Zurich/8001/Nail-cosmetics/estomed-clinics-EDjOFDKxK792nDiFA6tlIQ?dwhat=nails&dwhere=zurich	estomed clinics	Usteristrasse 23	 8001 Zürich	044 212 06 06	www.estomed-clinics.ch	
zurich	nails	N/A	http://yellow.local.ch/en/d/Zurich/8038/Hairdresser/Hairs-Beauty-and-Nails-GmbH-VUqzmP1Gp9PTl9C-kopu1w?dwhat=nails&dwhere=zurich	Hair's Beauty and Nails GmbH	Kalchbühlstrasse 75	 8038 Zürich	044 480 16 06	www.hairs.ch	
zurich	nails	N/A	http://yellow.local.ch/en/d/Zurich/8005/Hairdresser/InStyle-AG-UqOfnihyRW82ILcHPRK1oA?dwhat=nails&dwhere=zurich	InStyle AG	Turbinenstrasse 21	 8005 Zürich	044 355 11 00	www.instyle-zueri.ch	
zurich	nails	N/A	http://yellow.local.ch/en/d/Zurich/8006/Nail-cosmetics/loira-HXcn0FJgCrmdMuEgYpB7Ig?dwhat=nails&dwhere=zurich	loira	Weinbergstrasse 68	 8006 Zürich	044 362 63 00	www.loirahairstyling.ch	
zurich	nails	N/A	http://yellow.local.ch/en/d/Zurich/8005/Hairdresser/Memo-Men-sHIZEYzrJwWOGLWioL8hIg?dwhat=nails&dwhere=zurich	Memo Men	Josefstrasse 53	 8005 Zürich	043 366 96 16	www.memomen.ch	
zurich	nails	N/A	http://yellow.local.ch/en/d/Zurich/8051/Vocational-college/Swiss-Beauty-Academy-GmbH-NXMhAERQoYLKMQr8xRSHCQ?dwhat=nails&dwhere=zurich	Swiss Beauty Academy GmbH	Dübendorfstrasse 2	 8051 Zürich	044 340 10 70	www.swiss-beauty-studio.ch	
zurich	nails	N/A	http://yellow.local.ch/en/d/Zurich/8001/Nail-cosmetics/Beauty-Wellness-Oasis-GmbH-NwvSu9dgR-TJHIy0s0scOQ?dwhat=nails&dwhere=zurich	Beauty + Wellness Oasis GmbH	Löwenstrasse 53	 8001 Zürich	044 242 38 90	www.beautywellnessoasis.com	
zurich	nails	N/A	http://yellow.local.ch/en/d/Zurich/8004/Nail-cosmetics/Cindarella-Beauty4you-ZyO3ppU7mlO4Q4SJtsiM3g?dwhat=nails&dwhere=zurich	Cindarella-Beauty4you	Sihlfeldstrasse 85	 8004 Zürich	043 243 39 59	www.cindarellabeauty4you.ch	
zurich	nails	N/A	http://yellow.local.ch/en/d/Zurich/8048/Hairdresser/Coiffeur-Nail-Cristina-NfGlJeMzBKwxlvwg7wyHHA?dwhat=nails&dwhere=zurich	Coiffeur & Nail Cristina	Kelchweg 3	 8048 Zürich	078 728 69 63	www.coiffeur-nail-cristina.ch	
zurich	nails	N/A	http://yellow.local.ch/en/d/Zurich/8008/Nail-cosmetics/Fitarium-jOtsYJaRjZvnlH5pMoEEiw?dwhat=nails&dwhere=zurich	Fitarium	Münchhaldenstrasse 19 /Ecke Seefeldstr.	 8008 Zürich	044 422 37 57	www.fitarium.ch	
zurich	nails	N/A	http://yellow.local.ch/en/d/Zurich/8057/Hairdresser/Passion-for-Beauty-GejniG-g1D8GtWWnFPxzkw?dwhat=nails&dwhere=zurich	Passion for Beauty	Schaffhauserstrasse 75	 8057 Zürich	044 271 11 27	coiffeur-passion-for-beauty.jimdo.com	
zurich	nails	N/A	http://yellow.local.ch/en/d/Zurich/8008/Nail-cosmetics/PediNail-Sanitini-Natalia-tBvmpXH2zHv5noBYIM5Ttw?dwhat=nails&dwhere=zurich	PediNail Sanitini Natalia	Forchstrasse 4	 8008 Zürich	043 499 88 48	www.pedinail-zuerich.ch	
zurich	nails	N/A	http://yellow.local.ch/en/d/Zurich/8001/Hairdresser/Pedro-Sanchez-Boutique-Coiffeur-GmbH-R5_P-uUUBto_YR9EAN9j-g?dwhat=nails&dwhere=zurich	Pedro Sanchez Boutique Coiffeur GmbH	Kämbelgasse 4	 8001 Zürich	043 544 88 60	www.pedrosanchez.ch	
zurich	nails	N/A	http://yellow.local.ch/en/d/Zurich/8004/Cosmetic-institute/Wellness-Institut-DTKKxkYEwTHqTkFDe85bkg?dwhat=nails&dwhere=zurich	Wellness - Institut	Badenerstrasse 342	 8004 Zürich	079 735 38 16	www.wellness-institut-mannhart.ch	
zurich	nails	N/A	http://yellow.local.ch/en/d/Zurich/8001/Hairdresser/Best-Hair-Ihr-Coiffeur-im-Herzen-von-Zurich-IJ2lx9gXuiZlxuA1IbUGIg?dwhat=nails&dwhere=zurich	Best Hair - Ihr Coiffeur im Herzen von Zürich	Bahnhofstrasse 57	 8001 Zürich	044 221 31 30	www.best-hair.ch	
zurich	nails	N/A	http://yellow.local.ch/en/d/Zurich/8004/Hairdresser/Coiffure-Dedos-Estetica-n2-Tyt4mvQClh1929M1qsA?dwhat=nails&dwhere=zurich	Coiffure Dedos & Estetica	Militärstrasse 84	 8004 Zürich	044 241 40 05		
zurich	nails	N/A	http://yellow.local.ch/en/d/Zurich/8038/Hairdresser/Draga-Coiffure-pY8cxnB66uNZXtURVQo-EA?dwhat=nails&dwhere=zurich	Draga Coiffure	Kilchbergsteig 5	 8038 Zürich	043 243 11 88	www.draga-coiffeur.ch	
zurich	nails	N/A	http://yellow.local.ch/en/d/Zurich/8038/Nail-cosmetics/Violet-Nails-Z9kqxSKY84OPbAzSiqku0w?dwhat=nails&dwhere=zurich	Violet Nails	Albisstrasse 88	 8038 Zürich	076 525 68 78	www.violetnails.ch	
zurich	nails	N/A	http://yellow.local.ch/en/d/Zurich/8048/Nail-cosmetics/Akyado-Nail-Lounge-Zurich-ZlRkAM80W6pTpZS8DDQwvw?dwhat=nails&dwhere=zurich	Akyado Nail Lounge Zürich	Altstetterstrasse 193	 8048 Zürich	079 486 15 33	zurich.akyado-lounge.ch/index.php	
zurich	nails	N/A	http://yellow.local.ch/en/d/Zurich/8001/Nail-cosmetics/chic-nails-beauty-AG-KQ9vIF-W-5rfDwUpaO8ICw?dwhat=nails&dwhere=zurich	chic nails & beauty AG	Stüssihofstatt 14	 8001 Zürich	044 261 02 00	www.chicnails.ch	
zurich	nails	N/A	http://yellow.local.ch/en/d/Zurich/8002/Nail-cosmetics/Longfinger-Nail-Studio-8cNAOuHSwCFpNQ9KSLhA0w?dwhat=nails&dwhere=zurich	Longfinger Nail-Studio	General-Wille-Strasse 8	 8002 Zürich	044 201 46 57	www.longfinger.ch	
zurich	nails	N/A	http://yellow.local.ch/en/d/Zurich/8004/Nail-cosmetics/Nail-Studio-Claudia-Fpoa6BjMz3hisHLE1KKZ1A?dwhat=nails&dwhere=zurich	Nail-Studio Claudia	Werdstrasse 60	 8004 Zürich	044 291 10 40	www.nailstudio-claudia.ch	
zurich	nails	N/A	http://yellow.local.ch/en/d/Zurich/8008/Nail-cosmetics/Nobel-Lifestyle-p9YvSWN8lhqkD-GaiZYAIg?dwhat=nails&dwhere=zurich	Nobel Lifestyle	Neumünster Residenz, Signaustrasse 10	 8008 Zürich	043 819 30 00	www.nobel-lifestyle.ch	
zurich	nails	N/A	http://yellow.local.ch/en/d/Zurich/8001/Foot-care-pedicures/Real-Nails-GmbH-nQnJ7cS_aJJgs6NNtu3W4w?dwhat=nails&dwhere=zurich	Real Nails GmbH	Selnaustrasse 33	 8001 Zürich	044 221 93 24		
zurich	nails	N/A	http://yellow.local.ch/en/d/Zurich/8002/Nail-cosmetics/Beauty-Care-HairNailKosmetik-8xhIwlhcUFvgSZV656fb2A?dwhat=nails&dwhere=zurich	Beauty Care Hair,Nail,Kosmetik	Waffenplatzstrasse 51	 8002 Zürich	043 222 48 09		
zurich	nails	N/A	http://yellow.local.ch/en/d/Zurich/8004/Cosmetic-institute/Bia-Cosmetic-Nails-GmbH-wV9MOfaotzKKino1h81Nkw?dwhat=nails&dwhere=zurich	Bia Cosmetic & Nails GmbH	Lagerstrasse 40	 8004 Zürich	043 243 95 90	www.biacosmetic.ch	
zurich	nails	N/A	http://yellow.local.ch/en/d/Zurich/8006/Nail-cosmetics/BeautyLab-wD-2OXE0KGmrjSQBc6qBLw?dwhat=nails&dwhere=zurich	BeautyLab	Stampfenbachstrasse 151	 8006 Zürich	076 329 06 21	www.beautylab-zuerich.ch	
zurich	nails	N/A	http://yellow.local.ch/en/d/Zurich/8050/Nail-cosmetics/BV-Nails-4wTOL_gVfAtSr9-HLXx4Ag?dwhat=nails&dwhere=zurich	BV-Nails	Gubelstrasse 41	 8050 Zürich	043 288 95 13	www.bvnails.ch	
zurich	nails	N/A	http://yellow.local.ch/en/d/Zurich/8050/Hairdresser/Creazione-Brunelli-QhDvK1IoYeF3EX0kqtAabg?dwhat=nails&dwhere=zurich	Creazione Brunelli	Regensbergstrasse 180	 8050 Zürich	043 288 92 08	www.creazione-brunelli.ch	
zurich	nails	N/A	http://yellow.local.ch/en/d/Zurich/8001/Nail-cosmetics/Fashion-Nails-GmbH-B3z9c_ZhUElfROICWQbc4g?dwhat=nails&dwhere=zurich	Fashion Nails GmbH	Bahnhofstrasse 108	 8001 Zürich	043 535 48 15	www.nailstudio-fashion.ch	
zurich	nails	N/A	http://yellow.local.ch/en/d/Zurich/8004/Foot-care-pedicures/Marcias-Beauty-Studio-U4Ftwjd0DNmO_erj9yGbbQ?dwhat=nails&dwhere=zurich	Marcia's Beauty Studio	Hohlstrasse 192	 8004 Zürich	044 884 09 10	www.facebook.com/marciasbeautystudio	
zurich	nails	N/A	http://yellow.local.ch/en/d/Zurich/8008/Permanent-make-up/PURE-NAILDESIGN-n2mtmld2hkywGzY3V33F3g?dwhat=nails&dwhere=zurich	PURE NAILDESIGN	Seefeldstrasse 64	 8008 Zürich	076 323 98 61	www.purenaildesign.ch	
zurich	nails	N/A	http://yellow.local.ch/en/d/Zurich/8055/Nail-cosmetics/Tanias-Nailart-iBPuOIlGoiO_sJqpobBw8Q?dwhat=nails&dwhere=zurich	Tania's Nailart	Goldbrunnenstrasse 107	 8055 Zürich	076 400 14 43	www.t-nailart.ch	
zurich	nails	N/A	http://yellow.local.ch/en/d/Zurich/8050/Nail-cosmetics/Villa-della-Rosa-XSikn7Cui89Fu2JhgmOccg?dwhat=nails&dwhere=zurich	Villa della Rosa	Gujerstrasse 1	 8050 Zürich	043 243 08 08	www.kosmetik-4you.ch	
zurich	nails	N/A	http://yellow.local.ch/en/d/Zurich/8005/Cosmetic-institute/Abricot-Kosmetik-Nails-o6GHq8fMQ0BXu2Fu8sN7kg?dwhat=nails&dwhere=zurich	Abricot Kosmetik & Nails	Limmatstrasse 206	 8005 Zürich	043 366 92 03		
zurich	nails	N/A	http://yellow.local.ch/en/d/Zurich/8053/Nail-cosmetics/AK-Beauty-Lounge-nnBzb6ylcPtMCIDNRn9PvQ?dwhat=nails&dwhere=zurich	AK Beauty Lounge	Witikonerstrasse 365	 8053 Zürich	079 888 61 93		
zurich	nails	N/A	http://yellow.local.ch/en/d/Zurich/8004/Nail-cosmetics/Fabulous-Nails-WKN0hTDXqfRlKj0lOhWPsA?dwhat=nails&dwhere=zurich	Fabulous Nails	Werdstrasse 34	 8004 Zürich	043 317 90 15		
zurich	nails	N/A	http://yellow.local.ch/en/d/Zurich/8048/LUME-Nails-RkxtxVO6yZwheqOg-Jt47A?dwhat=nails&dwhere=zurich	LUME Nails	Badenerstrasse 588	 8048 Zürich	076 730 03 30		
zurich	nails	N/A	http://yellow.local.ch/en/d/Zurich/8046/Nail-cosmetics/My-Nice-Nails-GmbH-ASCHragnxRQcMgGmdzYi6w?dwhat=nails&dwhere=zurich	My Nice Nails GmbH	Nettie-Sutro-Strasse 9	 8046 Zürich	044 520 88 08		
zurich	nails	N/A	http://yellow.local.ch/en/d/Zurich/8057/Nail-cosmetics/Adriana-Nails-_b0C-5cT4yXi3QW1zTLcAA?dwhat=nails&dwhere=zurich	Adriana Nails	Schaffhauserstrasse 235	 8057 Zürich	044 311 55 77		
zurich	nails	N/A	http://yellow.local.ch/en/d/Zurich/8004/Nail-cosmetics/ALL4YOU-44iws4spIeZq8PvznunfpQ?dwhat=nails&dwhere=zurich	ALL4YOU	Bäckerstrasse 28	 8004 Zürich	043 535 10 50		
zurich	nails	N/A	http://yellow.local.ch/en/d/Zurich/8046/Cosmetic-institute/Amanda-Nails-GmbH-Z0L8hta2LYBCqz8aTY3q4Q?dwhat=nails&dwhere=zurich	Amanda Nails GmbH	Wehntalerstrasse 294	 8046 Zürich	043 811 32 39		
zurich	nails	N/A	http://yellow.local.ch/en/d/Zurich/8055/Angel-Nails--YYStuyCgVo9ESsK2xHkHA?dwhat=nails&dwhere=zurich	Angel Nails	Goldbrunnenstrasse 107	 8055 Zürich	076 377 20 06		
zurich	nails	N/A	http://yellow.local.ch/en/d/Zurich/8003/Nail-cosmetics/Angie-Nails-e8NdvCZtmsW85zuEIA6o0g?dwhat=nails&dwhere=zurich	Angie Nails	Zurlindenstrasse 49	 8003 Zürich	044 240 40 60		
zurich	nails	N/A	http://yellow.local.ch/en/d/Zurich/8004/Nail-cosmetics/ART-OF-M3-atwRzVpomnWeFZEB3-QqDw?dwhat=nails&dwhere=zurich	ART OF M3	Badenerstrasse 278	 8004 Zürich	076 490 67 75		
zurich	nails	N/A	http://yellow.local.ch/en/d/Zurich/8001/Nail-cosmetics/Art-of-Nail-rDCcSRroEDJnB9tcZFEzEg?dwhat=nails&dwhere=zurich	Art of Nail	Seidengasse 18	 8001 Zürich	076 576 00 29		
zurich	nails	N/A	http://yellow.local.ch/en/d/Zurich/8050/Nail-cosmetics/Beauty-Nail-by-Patty-XKcx63XL6zlm424rUPWaCA?dwhat=nails&dwhere=zurich	Beauty & Nail by Patty	Schwamendingenstrasse 42	 8050 Zürich	043 333 40 51		
zurich	nails	N/A	http://yellow.local.ch/en/d/Zurich/8048/Nail-cosmetics/Beauty-Oase-LT-j8NVTgO_D_PQzC8RH8g?dwhat=nails&dwhere=zurich	Beauty Oase	Badenerstrasse 711	 8048 Zürich	044 730 00 46		
zurich	nails	N/A	http://yellow.local.ch/en/d/Zurich/8037/Cosmetic-institute/Beauty-Relax-Palace-qZdRUJGiGgnZ4lsbtyJ-SQ?dwhat=nails&dwhere=zurich	Beauty & Relax Palace	Nordstrasse 233	 8037 Zürich	076 488 08 77		
zurich	nails	N/A	http://yellow.local.ch/en/d/Zurich/8002/Cosmetic-institute/Beauty-Republic-MXCbkIZ4dnzeL5lWJ-sdsQ?dwhat=nails&dwhere=zurich	Beauty Republic	Seestrasse 11	 8002 Zürich	043 344 57 55		
zurich	nails	N/A	http://yellow.local.ch/en/d/Zurich/8055/Nail-cosmetics/Beauty-Star-rSc_q0raFHl-WqO1D-qTsg?dwhat=nails&dwhere=zurich	Beauty Star	Birmensdorferstrasse 391	 8055 Zürich	079 700 57 27		
zurich	nails	N/A	http://yellow.local.ch/en/d/Zurich/8048/Permanent-make-up/Beauty-Swiss-Group-GmbH-aOZZBDHIaujzZTs3qd1_EA?dwhat=nails&dwhere=zurich	Beauty Swiss Group GmbH	Altstetterstrasse 186	 8048 Zürich	043 818 51 20		
zurich	nails	N/A	http://yellow.local.ch/en/d/Zurich/8049/Nail-cosmetics/Becker-Natalie-Nl0y1M02OcsHyR3ci7Blbw?dwhat=nails&dwhere=zurich	Becker Natalie	Regensdorferstrasse 168	 8049 Zürich	043 542 45 46		
zurich	nails	N/A	http://yellow.local.ch/en/d/Zurich/8004/Nail-cosmetics/CALIFOR-SA-Nail-Design-jGaqYDZymtUNaKrdX9-lEw?dwhat=nails&dwhere=zurich	CALIFOR SA Nail Design	Wyssgasse 6 /Haltestelle Bezirksgebäude	 8004 Zürich	044 242 90 76		
zurich	nails	N/A	http://yellow.local.ch/en/d/Zurich/8008/Nail-cosmetics/CC-Rose-6ezUYJwthVW7sRo4GvM7Nw?dwhat=nails&dwhere=zurich	CC Rose	Seefeldstrasse 92	 8008 Zürich	044 381 30 80		
zurich	nails	N/A	http://yellow.local.ch/en/d/Zurich/8050/City-Nails-RwWLsskcsur9I1KSD6W4zw?dwhat=nails&dwhere=zurich	City Nails	Franklinstrasse 3	 8050 Zürich	076 505 87 86		
zurich	nails	N/A	http://yellow.local.ch/en/d/Zurich/8050/Hairdresser/Coiffeur-Filiz-obX1A8xI9ngcctOVoWnxig?dwhat=nails&dwhere=zurich	Coiffeur Filiz	Dorflindenstrasse 2	 8050 Zürich	043 333 46 04		
zurich	nails	N/A	http://yellow.local.ch/en/d/Zurich/8037/Hairdresser/COIFFURE-Sonja-k0vz2aafewKBgpXh_qikfQ?dwhat=nails&dwhere=zurich	COIFFURE Sonja	Nordstrasse 237	 8037 Zürich	079 588 96 10		
zurich	nails	N/A	http://yellow.local.ch/en/d/Zurich/8006/Nail-cosmetics/daria-nails-3G3IP8qakuW5to8QXqrVTQ?dwhat=nails&dwhere=zurich	daria nails	LINA nails & beauty, Schaffhauserstrasse 25	 8006 Zürich	077 436 01 92		
zurich	nails	N/A	http://yellow.local.ch/en/d/Zurich/8004/Foot-care-pedicures/donna-beauty-world-apdbAUUYUFuYQpnK-HzufQ?dwhat=nails&dwhere=zurich	donna beauty world	Badenerstrasse 458	 8004 Zürich	044 400 34 49		
zurich	nails	N/A	http://yellow.local.ch/en/d/Zurich/8048/Nail-cosmetics/Evangelista-Nails-Rd23Fc3_CG3tCPGCz2SEXw?dwhat=nails&dwhere=zurich	Evangelista Nails	Kelchweg 3	 8048 Zürich	044 492 50 52		
zurich	nails	N/A	http://yellow.local.ch/en/d/Zurich/8049/Nail-cosmetics/Feminin-touch-rgS-LzfcS2gwQ1ezvIYN9A?dwhat=nails&dwhere=zurich	Feminin touch	Limmattalstrasse 189	 8049 Zürich	044 340 08 85		
zurich	nails	N/A	http://yellow.local.ch/en/d/Zurich/8047/Nail-cosmetics/Florida-Nail-BzqE5scHHM0eM7K1_fK2Fw?dwhat=nails&dwhere=zurich	Florida Nail	Wydäckerring 69	 8047 Zürich	079 392 41 50		
zurich	nails	N/A	http://yellow.local.ch/en/d/Zurich/8050/Hairdresser/Fluela-4-Hair-Nails-GmbH-rABqbDYJxFtH9aBET1lHZg?dwhat=nails&dwhere=zurich	Flüela 4 Hair & Nails GmbH	Sophie-Taeuber-Strasse 4	 8050 Zürich	044 310 88 20		
zurich	nails	N/A	http://yellow.local.ch/en/d/Zurich/8037/Graffiti-Nails-Beauty-K1jieDOnYqY-gG_6YjBHMA?dwhat=nails&dwhere=zurich	Graffiti Nails & Beauty	Röschibachstrasse 22	 8037 Zürich	043 558 47 74		
zurich	nails	N/A	http://yellow.local.ch/en/d/Zurich/8050/Hairdresser/Hair-Spring-z8InQaKi_yJikSWS5OpGnQ?dwhat=nails&dwhere=zurich	Hair Spring	Schulstrasse 44 /im swissôtel	 8050 Zürich	044 311 73 00		
zurich	nails	N/A	http://yellow.local.ch/en/d/Zurich/8006/Hairdresser/Hairstyle-Naildesign-Michele-uzYrQULqBbuVY5FhMf26mA?dwhat=nails&dwhere=zurich	Hairstyle & Naildesign Michèle	Schaffhauserstrasse 6	 8006 Zürich	079 898 88 36		
zurich	nails	N/A	http://yellow.local.ch/en/d/Zurich/8004/Ilaria-Cosmetic-Nails-GmbH-ZwwW_W6i_5T2uINWqMLlaA?dwhat=nails&dwhere=zurich	Ilaria Cosmetic & Nails GmbH	Zypressenstrasse 58	 8004 Zürich	044 555 90 19		
zurich	nails	N/A	http://yellow.local.ch/en/d/Zurich/8006/Eyelash-extensions/ILOVEMYNAILS-1oNpTaoonXYNdCG-0Hea1A?dwhat=nails&dwhere=zurich	ILOVEMYNAILS	Stampfenbachstrasse 78	 8006 Zürich	044 559 42 26		
zurich	nails	N/A	http://yellow.local.ch/en/d/Zurich/8003/Permanent-make-up/Inspiration-XUPWBVF3OjYdcxjEuWXlwA?dwhat=nails&dwhere=zurich	Inspiration	Zweierstrasse 166	 8003 Zürich	044 451 79 39		
zurich	nails	N/A	http://yellow.local.ch/en/d/Zurich/8050/Nail-cosmetics/Intensity-Cosmetic-Nails-5AGReHRcni7zwwr1mx02vg?dwhat=nails&dwhere=zurich	Intensity Cosmetic & Nails	Unterfeldstrasse 17	 8050 Zürich	044 320 05 15		
zurich	nails	N/A	http://yellow.local.ch/en/d/Zurich/8002/Jenni-Nails-9B2n2D2i1x0gp1kzfWbj1g?dwhat=nails&dwhere=zurich	Jenni Nails	Brandschenkestrasse 132	 8002 Zürich	077 476 97 35		
zurich	nails	N/A	http://yellow.local.ch/en/d/Zurich/8004/Nail-cosmetics/Magdalena-Nails-QY31oynXWiOofBs8wlvC9g?dwhat=nails&dwhere=zurich	Magdalena Nails	Hallwylstrasse 31	 8004 Zürich	079 336 31 29		
zurich	nails	N/A	http://yellow.local.ch/en/d/Zurich/8055/Magic-Nails-GmbH-GhACEBB7zW-8qcLO0zefew?dwhat=nails&dwhere=zurich	Magic Nails GmbH	Birmensdorferstrasse 279	 8055 Zürich	056 664 93 43		
zurich	nails	N/A	http://yellow.local.ch/en/d/Zurich/8006/Nail-cosmetics/N-Lounge-Nails-LY7Xy7J8ZEqomSTMlnuv5w?dwhat=nails&dwhere=zurich	N Lounge Nails	Stampfenbachstrasse 103	 8006 Zürich	044 350 41 30		
zurich	nails	N/A	http://yellow.local.ch/en/d/Zurich/8052/Nail-cosmetics/Nagel-Studio-Pink-2mzXD0qnqHZQQZtkU9ZCGQ?dwhat=nails&dwhere=zurich	Nagel-Studio Pink	Schaffhauserstrasse 475	 8052 Zürich	044 302 39 88		
zurich	nails	N/A	http://yellow.local.ch/en/d/Zurich/8032/Nail-cosmetics/Nail-Artist-Michele-Bernet-uH7EVrQ37t5ZWtYZJTckRw?dwhat=nails&dwhere=zurich	Nail Artist Michèle Bernet	Hofackerstrasse 75	 8032 Zürich	078 707 54 45		
zurich	nails	N/A	http://yellow.local.ch/en/d/Zurich/8048/Nail-cosmetics/Nail-by-Jasna-Ai36KNRl4UsbDt0Xv49feQ?dwhat=nails&dwhere=zurich	Nail by Jasna	Altstetterstrasse 132	 8048 Zürich	043 311 91 20		
zurich	nails	N/A	http://yellow.local.ch/en/d/Zurich/8003/Nail-cosmetics/Nail-Cosmetic-Sunplace-nUU4Fc6vmloDvXnwkb0C2g?dwhat=nails&dwhere=zurich	Nail-Cosmetic Sunplace	Birmensdorferstrasse 155	 8003 Zürich	044 463 83 63		
zurich	nails	N/A	http://yellow.local.ch/en/d/Zurich/8004/Nail-cosmetics/Nail-Design-kY9AV23AYFvVT9IdSP5lKg?dwhat=nails&dwhere=zurich	Nail Design	Wyssgasse 6 /Haltestelle Bezirksgebäude	 8004 Zürich	044 242 90 76		
zurich	nails	N/A	http://yellow.local.ch/en/d/Zurich/8001/Nail-cosmetics/Nailboutique-L3aLASgfrdwlYEOlNLRixg?dwhat=nails&dwhere=zurich	Nailboutique	Oetenbachgasse 3	 8001 Zürich	044 211 11 16		
zurich	nails	N/A	http://yellow.local.ch/en/d/Zurich/8050/Nail-cosmetics/Nailstudio-Weidmann-NKk4NM9Auccq4MJtwssKkg?dwhat=nails&dwhere=zurich	Nailstudio Weidmann	Saatlenzelg 22	 8050 Zürich	079 750 47 14		
zurich	nails	N/A	http://yellow.local.ch/en/d/Zurich/8006/New-York-Nails-Nail-Studio-iNjzqM1iCQY_tMJw43giGg?dwhat=nails&dwhere=zurich	New York Nails Nail Studio	Universitätstrasse 116	 8006 Zürich	044 501 80 65		
zurich	nails	N/A	http://yellow.local.ch/en/d/Zurich/8006/Cosmetic-institute/Omnicosmetic-mcesn_3a35KdYNakt3cYRg?dwhat=nails&dwhere=zurich	Omnicosmetic	Schaffhauserstrasse 10	 8006 Zürich	044 350 37 10		
zurich	nails	N/A	http://yellow.local.ch/en/d/Zurich/8004/Nail-cosmetics/Paradise-Nails-IIW24mCQ9WPqcy-1djlzAQ?dwhat=nails&dwhere=zurich	Paradise Nails	Kasernenstrasse 11	 8004 Zürich	043 539 77 05		
zurich	nails	N/A	http://yellow.local.ch/en/d/Zurich/8003/Nail-cosmetics/podovita-ag-ex6sp6E62fAKDBwgXVqZ-w?dwhat=nails&dwhere=zurich	podovita ag	Gerhardstrasse 1	 8003 Zürich	044 461 37 76		
zurich	nails	N/A	http://yellow.local.ch/en/d/Zurich/8006/Cosmetic-institute/Queen-Nails-QjsTwODnD9RxJwOxRQkjug?dwhat=nails&dwhere=zurich	Queen Nails	Stampfenbachstrasse 57 bei der Schönheitsgalerie Millionhair	 8006 Zürich	076 370 28 08		
zurich	nails	N/A	http://yellow.local.ch/en/d/Zurich/8001/Royal-Nails-Akademie-GmbH-EBnZ0DrIoieKVikAUsXBAg?dwhat=nails&dwhere=zurich	Royal Nails Akademie GmbH	Limmatquai 116	 8001 Zürich	044 251 38 38		
zurich	nails	N/A	http://yellow.local.ch/en/d/Zurich/8048/Nail-cosmetics/RR-Nails-nPmcQWPQ6DmPVyf_pyqk4Q?dwhat=nails&dwhere=zurich	RR Nails	Flurstrasse 2	 8048 Zürich	079 303 78 19		
zurich	nails	N/A	http://yellow.local.ch/en/d/Zurich/8048/RR-Nails-nS3xr7arSe07Vhqah0S2NQ?dwhat=nails&dwhere=zurich	RR Nails	Flurstrasse 6	 8048 Zürich	043 343 04 81		
zurich	nails	N/A	http://yellow.local.ch/en/d/Zurich/8051/Saigon-Nails-Inhaberin-B-Nguyen-gekPXmSeT223FFmKFVdccQ?dwhat=nails&dwhere=zurich	Saigon Nails - Inhaberin B. Nguyen	Winterthurerstrasse 537	 8051 Zürich	043 300 28 00		
zurich	nails	N/A	http://yellow.local.ch/en/d/Zurich/8032/Signature-Nails-by-Simone-hvLrT1MM4jjThJ5QuO0iEg?dwhat=nails&dwhere=zurich	Signature Nails by Simone	Veilchenstrasse 22	 8032 Zürich	078 851 97 78		
zurich	nails	N/A	http://yellow.local.ch/en/d/Zurich/8050/Hairdresser/Spring-Markus-aAhIhRzZtLH4PbE2e0JsOA?dwhat=nails&dwhere=zurich	Spring Markus	Schulstrasse 44 /im swissôtel	 8050 Zürich	044 311 73 00		
zurich	nails	N/A	http://yellow.local.ch/en/d/Zurich/8050/Naildesign/Swiss-Nails-7O1zgE1jltaciaQGHJEndA?dwhat=nails&dwhere=zurich	Swiss Nails	Neumarkt Oerlikon, Hofwiesenstrasse 350	 8050 Zürich	044 313 93 59		
zurich	nails	N/A	http://yellow.local.ch/en/d/Zurich/8050/Swiss-Nails-Taxi-iLVIKjzxRgm1nYdDFDRjlA?dwhat=nails&dwhere=zurich	Swiss Nails-Taxi	Hofwiesenstrasse 350	 8050 Zürich	076 263 38 68		
zurich	nails	N/A	http://yellow.local.ch/en/d/Zurich/8001/Nail-cosmetics/The-Nail-Bar-hTGmdbi3w4Z1Z11XdXG2Ug?dwhat=nails&dwhere=zurich	The Nail Bar	Münstergasse 23	 8001 Zürich	044 261 03 30		
zurich	nails	N/A	http://yellow.local.ch/en/d/Zurich/8051/Nail-cosmetics/TINA-BEAUTY-STYLE-P7_vPHcfR8Pu3Cw8sbGIlA?dwhat=nails&dwhere=zurich	TINA BEAUTY STYLE	Saatlenstrasse 17	 8051 Zürich	043 321 53 76		
zurich	nails	N/A	http://yellow.local.ch/en/d/Zurich/8050/Nail-cosmetics/Total-Nail-msrogVekbnFehXCaGh0k6g?dwhat=nails&dwhere=zurich	Total Nail	Wallisellenstrasse 300	 8050 Zürich	079 101 50 12		
zurich	nails	N/A	http://yellow.local.ch/en/d/Zurich/8008/Foot-care-pedicures/Zsofia-Szabo-Nails-Beauty-NIshAMI0pL21athaN4fupg?dwhat=nails&dwhere=zurich	Zsofia Szabo Nails & Beauty	Höschgasse 46	 8008 Zürich	079 510 53 43		
zurich	nails	N/A	http://yellow.local.ch/en/d/Zurich/8001/Hairdresser/Coiffure-Noblesse-zHdVE5kOf2OMPXsDk_g5ow?dwhat=nails&dwhere=zurich	Coiffure Noblesse	Strehlgasse 29	 8001 Zürich	044 211 60 73	www.coiffure-noblesse.ch	
zurich	nails	N/A	http://yellow.local.ch/en/d/Zurich/8046/Beauty-By-Anna-Schwarz-PGNIwJJWHVKaV37a6vJODA?dwhat=nails&dwhere=zurich	Beauty By Anna Schwarz	Wehntalerstrasse 600	 8046 Zürich	043 322 00 22		
zurich	nails	N/A	http://yellow.local.ch/en/d/Zurich/8055/Hairdresser/EstroVerso-Hair-Design-OldN_ZsUoteOb6aS014SPw?dwhat=nails&dwhere=zurich	EstroVerso Hair Design	Goldbrunnenstrasse 107	 8055 Zürich	044 462 02 80		
zurich	nails	N/A	http://yellow.local.ch/en/d/Zurich/8004/Hairdresser/American-Barber-Beauty-Chantal-pAzSWJKYuoPwivl-dhVbZg?dwhat=nails&dwhere=zurich	American Barber & Beauty Chantal	Militärstrasse 79	 8004 Zürich	044 291 44 66		
zurich	nails	N/A	http://yellow.local.ch/en/d/Zurich/8003/Amazonia-GmbH-qJ3yHbROfSk2XX1ge4eGxA?dwhat=nails&dwhere=zurich	Amazonia GmbH	Birmensdorferstrasse 95	 8003 Zürich	044 450 42 05		
zurich	nails	N/A	http://yellow.local.ch/en/d/Zurich/8006/Hairdresser/MILLIONHAIR-Schonheitsgalerie-KtBnWuBAvKW36SCALISA9Q?dwhat=nails&dwhere=zurich	MILLIONHAIR Schönheitsgalerie	Stampfenbachstrasse 57	 8006 Zürich	044 350 62 50		
zurich	nails	N/A	http://yellow.local.ch/en/d/Zurich/8049/Hairdresser/Coiffeur-Sunflower-mmoFEdCcmXiDoMsp0GKzIA?dwhat=nails&dwhere=zurich	Coiffeur Sunflower	Am Wasser 143	 8049 Zürich	044 341 72 32		
zurich	nails	N/A	http://yellow.local.ch/en/d/Zurich/8045/Hairdresser/cut-sirup-MJlphgokoSBSPHeFeuuLag?dwhat=nails&dwhere=zurich	cut & sirup	Kalanderplatz 1	 8045 Zürich	043 344 55 58		
zurich	nails	N/A	http://yellow.local.ch/en/d/Zurich/8048/Cosmetic-products/DOBI-INTER-AG-Hpc1RGNgXKfmE1HdNAZ63Q?dwhat=nails&dwhere=zurich	DOBI - INTER AG	Badenerstrasse 569	 8048 Zürich	062 855 22 22		
zurich	nails	N/A	http://yellow.local.ch/en/d/Zurich/8032/Eingang-Nail-Studio-_2YbWSD7-3vAB6WVqKSmgw?dwhat=nails&dwhere=zurich	Eingang Nail Studio	Witikonerstrasse 42	 8032 Zürich			
zurich	nails	N/A	http://yellow.local.ch/en/d/Zurich/8047/Laderach-Silvia-pG47KePXIUBu063avFei3Q?dwhat=nails&dwhere=zurich	Läderach Silvia	Wydäckerring 69	 8047 Zürich	079 392 41 50		
zurich	nails	N/A	http://yellow.local.ch/en/d/Zurich/8050/Nail-Pigment-Cosmetic-xj7ijGifo_GGLjbDvc2Bzw?dwhat=nails&dwhere=zurich	Nail- & Pigment Cosmetic	Gubelhangstrasse 22	 8050 Zürich	044 312 05 45		
zurich	nails	N/A	http://yellow.local.ch/en/d/Zurich/8003/Solarium/Sunplace-2lOGQz5MtnOPBq2dE0fnUQ?dwhat=nails&dwhere=zurich	Sunplace	Birmensdorferstrasse 155	 8003 Zürich	044 463 83 63		
zurich	nails	N/A	http://yellow.local.ch/en/d/Kilchberg-ZH/8802/Nail-cosmetics/ImMega-cosmetic-nail-lash-wax-o7Kq0qiHeFJkh2DRNMefDw?dwhat=nails&dwhere=zurich	ImMega cosmetic-nail-lash-wax	Hochweidstrasse 10	 8802 Kilchberg ZH	043 539 29 71	immega-cosmetic.ch	
zurich	nails	N/A	http://yellow.local.ch/en/d/Pfaffhausen/8118/Cosmetic-institute/Expert-Procosmetic-Naildesign-4Af9S4OZV4UfrTlZqSArIA?dwhat=nails&dwhere=zurich	Expert Procosmetic & Naildesign	Rütistrasse 10	 8118 Pfaffhausen	079 486 26 93		
zurich	nails	N/A	http://yellow.local.ch/en/d/Uitikon-Waldegg/8142/Cosmetic-institute/Art-Cosmetic-Bqe6z__Kpz39JQdj2vBEtA?dwhat=nails&dwhere=zurich	Art Cosmetic	Zürcherstrasse 6	 8142 Uitikon Waldegg	043 818 68 00		
zurich	nails	N/A	http://yellow.local.ch/en/d/Hinwil/8340/Nail-cosmetics/Beauty-Nails-mobil-NzxZIQ7s1ZdSJAySAtQgZA?dwhat=nails&dwhere=zurich	Beauty Nails mobil	Girenbadstrasse 10	 8340 Hinwil	076 567 18 00		
zurich	nails	N/A	http://yellow.local.ch/en/d/Wallisellen/8304/Nail-cosmetics/Gilio-Nails-B9LqgOBMMehLf6nPjFgfBg?dwhat=nails&dwhere=zurich	Gilio Nails	Richtiplatz 2	 8304 Wallisellen	076 566 81 15		
zurich	nails	N/A	http://yellow.local.ch/en/d/Bruttisellen/8306/Hairdresser-supply/HNC-AG-Zu40aMqkiUb3X9vIbBnwcA?dwhat=nails&dwhere=zurich	HNC AG	Zürichstrasse 72	 8306 Brüttisellen	044 805 50 60		
zurich	nails	N/A	http://yellow.local.ch/en/d/Rumlang/8153/Hairdresser/Beauty-Experience-DPIB1VgKp5-dnXfNWQCqsg?dwhat=nails&dwhere=zurich	Beauty Experience	Glattalstrasse 232	 8153 Rümlang	043 810 65 85	www.beauty-experience.ch	
zurich	nails	N/A	http://yellow.local.ch/en/d/Uster/8610/Cosmetic-institute/Sunyas-Beauty-Club-xio5_ACsuqa7RpXoBZR4iA?dwhat=nails&dwhere=zurich	Sunya's Beauty Club	Seestrasse 8	 8610 Uster	044 942 03 30	www.sunya.ch	
