cityName	searchPhrase	resultNum	ypchsite	name	address1	address2	phone	website
zurich	hotel	N/A	http://yellow.local.ch/en/d/Zurich/8005/Hotel/Sheraton-Zurich-Hotel-x_1YMRfCeWXh6kCHPDSBdg?dwhat=hotel&dwhere=zurich	Sheraton Zürich Hotel	Pfingstweidstrasse 100	 8005 Zürich	044 285 40 00	www.sheratonzurichhotel.com	
zurich	hotel	N/A	http://yellow.local.ch/en/d/Zurich/8008/Hotel/Hotel-NI-MO-gNpfARq9EmlI-A9DzQV39g?dwhat=hotel&dwhere=zurich	Hotel NI-MO	Seefeldstrasse 16	 8008 Zürich	044 370 30 30	www.hotel-nimo.ch	
zurich	hotel	N/A	http://yellow.local.ch/en/d/Zurich/8001/Steakhouse/Deja-Vu-Gastro-GmbH-ehGr7sFfY8q6EoQKfKu_-A?dwhat=hotel&dwhere=zurich	Deja Vu Gastro GmbH	Niederdorfstrasse 19	 8001 Zürich	043 321 84 84		
zurich	hotel	N/A	http://yellow.local.ch/en/d/Zurich/8001/Hotel/Widder-Hotel-6HiUIZNmJjPTbE8xKQde2A?dwhat=hotel&dwhere=zurich	Widder Hotel	Rennweg 7	 8001 Zürich	044 224 25 26	www.widderhotel.ch	
zurich	hotel	N/A	http://yellow.local.ch/en/d/Zurich/8004/Travel-agency/Airline-Tourism-Center-GmbH-GWSPMfraNayvTP-4ybAOzg?dwhat=hotel&dwhere=zurich	Airline- & Tourism Center GmbH	Badenerstrasse 15	 8004 Zürich	044 286 99 99	www.aviareps.com	
zurich	hotel	N/A	http://yellow.local.ch/en/d/Zurich/8048/Restaurant/Restaurant-Buckhuser-zTBLSFuEzZl22mACtKzHFw?dwhat=hotel&dwhere=zurich	Restaurant Buckhuser	Buckhauserstrasse 36	 8048 Zürich	058 204 87 87	www.buckhuser.ch/de	
zurich	hotel	N/A	http://yellow.local.ch/en/d/Zurich/8001/Hotel/Hotel-Florhof-UjYRkPa5sYxRMK8i-Po0zw?dwhat=hotel&dwhere=zurich	Hotel Florhof	Florhofgasse 4	 8001 Zürich	044 250 26 26	www.hotelflorhof.ch	
zurich	hotel	N/A	http://yellow.local.ch/en/d/Zurich/8002/Hotel/Hotel-Ascot-jB54hHkN-caFZlFIu4iH1g?dwhat=hotel&dwhere=zurich	Hotel Ascot	Tessinerplatz 9	 8002 Zürich	044 208 14 14	www.ascot.ch	
zurich	hotel	N/A	http://yellow.local.ch/en/d/Zurich/8001/Hotel/Kindli-mAqcDrSlk1UNBEDaoCITwg?dwhat=hotel&dwhere=zurich	Kindli	Pfalzgasse 1	 8001 Zürich	043 888 76 76	www.kindli.ch	
zurich	hotel	N/A	http://yellow.local.ch/en/d/Zurich/8001/Hotel/Baur-au-Lac-tXtrArC-DBQW7GTSu_mwXg?dwhat=hotel&dwhere=zurich	Baur au Lac	Talstrasse 1	 8001 Zürich	044 220 50 20	www.bauraulac.ch	
zurich	hotel	N/A	http://yellow.local.ch/en/d/Zurich/8001/Hotel/Hotel-St-Gotthard-hS87OxBDil70keXFItpKtg?dwhat=hotel&dwhere=zurich	Hotel St. Gotthard	Bahnhofstrasse 87	 8001 Zürich	044 227 77 00	www.hotelstgotthard.ch	
zurich	hotel	N/A	http://yellow.local.ch/en/d/Zurich/8001/Hotel/Storchen-Zurich-zOVQdAlNAed86Yheh6wIAw?dwhat=hotel&dwhere=zurich	Storchen Zürich	Weinplatz 2	 8001 Zürich	044 227 27 27	www.storchen.ch	
zurich	hotel	N/A	http://yellow.local.ch/en/d/Zurich/8002/Hotel/Sheraton-Zurich-Neues-Schloss-Hotel-ArabellaHotelbetriebeAG-JgdeMQfZUvQFPmyfCyUkiw?dwhat=hotel&dwhere=zurich	Sheraton Zürich Neues Schloss Hotel, ArabellaHotelbetriebeAG	Stockerstrasse 17	 8002 Zürich	044 202 66 02	www.sheratonneuesschloss.com	
zurich	hotel	N/A	http://yellow.local.ch/en/d/Zurich/8032/Hotel/Hotel-Hottingen-hU4LZ-kRDgfR5g-u5DPtdA?dwhat=hotel&dwhere=zurich	Hotel Hottingen	Hottingerstrasse 31 /Cäcilienstr.10	 8032 Zürich	044 256 19 19	www.hotelhottingen.ch	
zurich	hotel	N/A	http://yellow.local.ch/en/d/Zurich/8045/Hotel/Four-Points-by-Sheraton-Sihlcity-J5IP4q48MUWyUtR1QAM5cA?dwhat=hotel&dwhere=zurich	Four Points by Sheraton Sihlcity	Kalandergasse 1	 8045 Zürich	044 554 00 00	www.fourpointszurich.com	
zurich	hotel	N/A	http://yellow.local.ch/en/d/Zurich/8001/Hotel/Glockenhof-HBg9EuSq2GFomwFrbelXKw?dwhat=hotel&dwhere=zurich	Glockenhof	Sihlstrasse 31	 8001 Zürich	044 225 91 91	www.glockenhof.ch	
zurich	hotel	N/A	http://yellow.local.ch/en/d/Zurich/8002/Hotel/Park-Hyatt-Zurich-v2ywuzYJ9PZIbNoHm7dnog?dwhat=hotel&dwhere=zurich	Park Hyatt Zürich	Dreikönigstrasse 25	 8002 Zürich	043 883 12 34	www.zurich.park.hyatt.com	
zurich	hotel	N/A	http://yellow.local.ch/en/d/Zurich/8001/Hotel/Hotel-California-9LZFc9B6AjhNFmc5Ap_Uhw?dwhat=hotel&dwhere=zurich	Hotel California	Am Hechtplatz, Schifflände 18	 8001 Zürich	044 262 40 50		
zurich	hotel	N/A	http://yellow.local.ch/en/d/Zurich/8001/Hotel/Limmathof-g-eKPMtV8Zsk69NbW722dQ?dwhat=hotel&dwhere=zurich	Limmathof	Limmatquai 142	 8001 Zürich	044 267 60 40	www.limmathof.com	
zurich	hotel	N/A	http://yellow.local.ch/en/d/Zurich/8001/Hotel/Hirschen-eCl-bjY6i-VfRquHVVhMRA?dwhat=hotel&dwhere=zurich	Hirschen	Niederdorfstrasse 13	 8001 Zürich	043 268 33 33		
zurich	hotel	N/A	http://yellow.local.ch/en/d/Zurich/8008/Restaurant/Eden-au-Lac-6JBA5csZl_Kxv-N8FGztTg?dwhat=hotel&dwhere=zurich	Eden au Lac	Utoquai 45	 8008 Zürich	044 266 25 25		
zurich	hotel	N/A	http://yellow.local.ch/en/d/Zurich/8008/Hotel/Opera-d5sfz7y4-wb6LDQ79vcDbw?dwhat=hotel&dwhere=zurich	Opera	Dufourstrasse 5	 8008 Zürich	044 258 99 99	www.operahotel.ch	
zurich	hotel	N/A	http://yellow.local.ch/en/d/Zurich/8001/Hotel/Hotel-DaVinci-rYaveemcxhlzNfxivex-zQ?dwhat=hotel&dwhere=zurich	Hotel DaVinci	Mühlegasse 3	 8001 Zürich	044 251 06 25		
zurich	hotel	N/A	http://yellow.local.ch/en/d/Zurich/8004/Restaurant/Greulich-Design-Lifestyle-Hotel-inVxBcV9DyG27LFbLlReLA?dwhat=hotel&dwhere=zurich	Greulich Design & Lifestyle Hotel	Herman-Greulich-Strasse 56	 8004 Zürich	043 243 42 43		
zurich	hotel	N/A	http://yellow.local.ch/en/d/Zurich/8005/Hotel/Hotel-ibis-Zurich-City-West-N2WQyzDcw5aco4cInzk5Tw?dwhat=hotel&dwhere=zurich	Hotel ibis Zurich City West	Schiffbaustrasse 11	 8005 Zürich	044 276 21 00		
zurich	hotel	N/A	http://yellow.local.ch/en/d/Zurich/8048/Apartments-studios/HITrental-AG-pflMjL8sKlXJSdondYeubg?dwhat=hotel&dwhere=zurich	HITrental AG	Hohlstrasse 413	 8048 Zürich	041 311 29 22	www.hitrental.ch	
zurich	hotel	N/A	http://yellow.local.ch/en/d/Zurich/8003/Hotel/Mercure-Hotel-Stoller-Zurich-FhL_m63EYtSnSEQfSzJqtw?dwhat=hotel&dwhere=zurich	Mercure Hotel Stoller Zürich	Badenerstrasse 357	 8003 Zürich	044 405 47 47		
zurich	hotel	N/A	http://yellow.local.ch/en/d/Zurich/8001/Inn/St-Josef-lezloTO2jY6rB2tfzxeMpg?dwhat=hotel&dwhere=zurich	St. Josef	Hirschengraben 64	 8001 Zürich	044 250 57 57	www.st-josef.ch	
zurich	hotel	N/A	http://yellow.local.ch/en/d/Zurich/8050/Hotel/Holiday-Inn-Zurich-Messe-CYbvuIWp3k3YRaGnQnwkqA?dwhat=hotel&dwhere=zurich	Holiday Inn Zürich Messe	Wallisellenstrasse 48	 8050 Zürich	044 316 11 00		
zurich	hotel	N/A	http://yellow.local.ch/en/d/Zurich/8002/Hotel/Hotel-Glarnischhof-we8nEvtmLyMVJeAFZuNt8w?dwhat=hotel&dwhere=zurich	Hotel Glärnischhof	Claridenstrasse 30	 8002 Zürich	044 286 22 22		
zurich	hotel	N/A	http://yellow.local.ch/en/d/Zurich/8044/Hotel/Sorell-Hotel-Rigiblick-b8_Zm_BXOmzb2cOHV2IqdA?dwhat=hotel&dwhere=zurich	Sorell Hotel Rigiblick	Germaniastrasse 99	 8044 Zürich	043 255 15 70		
zurich	hotel	N/A	http://yellow.local.ch/en/d/Zurich/8008/Hotel/Ambassador-uI9kA8ZsNPEt5AgtQLq_QA?dwhat=hotel&dwhere=zurich	Ambassador	Falkenstrasse 6	 8008 Zürich	044 258 98 98	www.ambassadorhotel.ch	
zurich	hotel	N/A	http://yellow.local.ch/en/d/Zurich/8002/Hotel/Engimatt-YuDsUYbrIAR8AX6qvtCzLQ?dwhat=hotel&dwhere=zurich	Engimatt	Engimattstrasse 14	 8002 Zürich	044 284 16 16	www.engimatt.ch	
zurich	hotel	N/A	http://yellow.local.ch/en/d/Zurich/8001/Restaurant/Hotel-Central-Plaza-Owepu5ByxfqBPhGvz2MUbw?dwhat=hotel&dwhere=zurich	Hotel Central Plaza	Hotel Central Plaza, Central 1	 8001 Zürich	044 256 56 56	www.central.ch	
zurich	hotel	N/A	http://yellow.local.ch/en/d/Zurich/8050/Hotel/Hotel-ibis-Zurich-Messe-Airport-TB57JXzeTQp_9S8x_CzCBA?dwhat=hotel&dwhere=zurich	Hotel ibis Zürich Messe Airport	Heidi-Abel-Weg 5	 8050 Zürich	044 307 47 00	www.ibis.com	
zurich	hotel	N/A	http://yellow.local.ch/en/d/Zurich/8008/Hotel/LADYS-FIRST-dZAnL6n-wCglWBAlPoCO8w?dwhat=hotel&dwhere=zurich	LADY'S FIRST	Mainaustrasse 24	 8008 Zürich	044 380 80 10	www.ladysfirst.ch	
zurich	hotel	N/A	http://yellow.local.ch/en/d/Zurich/8008/Apartment-building/APARTHOTEL-Familie-H-Hugenschmidt-xmlnzJGy-qNmF0xVEB0K-Q?dwhat=hotel&dwhere=zurich	APARTHOTEL Familie H. Hugenschmidt	Karlstrasse 5+ 3	 8008 Zürich	044 422 11 75	www.aparthotel.ch	
zurich	hotel	N/A	http://yellow.local.ch/en/d/Zurich/8001/Hotel/Hotel-Adler-Zurich-vpJ7w4dUsQkM4U1Vwf8gVA?dwhat=hotel&dwhere=zurich	Hotel Adler Zürich	Rosengasse 10 /am Hirschenplatz	 8001 Zürich	044 266 96 96	www.hotel-adler.ch	
zurich	hotel	N/A	http://yellow.local.ch/en/d/Zurich/8032/Hotel/The-Dolder-Grand-G7pc9gPFN1gI0z5b7TcF_g?dwhat=hotel&dwhere=zurich	The Dolder Grand	Kurhausstrasse 65	 8032 Zürich	044 456 60 00		
zurich	hotel	N/A	http://yellow.local.ch/en/d/Zurich/8005/Hotel/Renaissance-Zurich-Tower-Hotel-4_a-Os0T2ktMhWuJ6SEClQ?dwhat=hotel&dwhere=zurich	Renaissance Zürich Tower Hotel	Turbinenstrasse 20	 8005 Zürich	044 630 30 30		
zurich	hotel	N/A	http://yellow.local.ch/en/d/Zurich/8001/Hotel/Marktgasse-Hotel-Zurich-Q1h658IrFCED-cbdlYFueg?dwhat=hotel&dwhere=zurich	Marktgasse Hotel Zürich	Marktgasse 17	 8001 Zürich	044 266 10 10	www.marktgassehotel.ch	
zurich	hotel	N/A	http://yellow.local.ch/en/d/Zurich/8048/Hotel/BEST-WESTERN-Hotel-Spirgarten-1lKE5D2kHp1EPqRs7nBf3w?dwhat=hotel&dwhere=zurich	BEST WESTERN Hotel Spirgarten	Lindenplatz 5	 8048 Zürich	044 438 15 15		
zurich	hotel	N/A	http://yellow.local.ch/en/d/Zurich/8006/Restaurant/Krone-Unterstrass-Zurich-VT88pxlqAVyWFbVJTmyhVA?dwhat=hotel&dwhere=zurich	Krone Unterstrass Zürich	Schaffhauserstrasse 1	 8006 Zürich	044 360 56 56		
zurich	hotel	N/A	http://yellow.local.ch/en/d/Zurich/8002/Hotel/Sheraton-Zurich-Neues-Schloss-Hotel-XSfAK4q_qwXGCW0bLYwMFA?dwhat=hotel&dwhere=zurich	Sheraton Zürich Neues Schloss Hotel	Stockerstrasse 17	 8002 Zürich	044 286 94 00		
zurich	hotel	N/A	http://yellow.local.ch/en/d/Zurich/8001/Hotel/Apartments-Swiss-Star-AG-1D1rC1MsollT50o1hAGUlw?dwhat=hotel&dwhere=zurich	Apartments Swiss Star AG	Mühlegasse 7	 8001 Zürich	043 255 57 57		
zurich	hotel	N/A	http://yellow.local.ch/en/d/Zurich/8003/Hotel/Apartments-Swiss-Star-AG-5h4GmiUMQBBZJZYvIOt_bA?dwhat=hotel&dwhere=zurich	Apartments Swiss Star AG	Dubsstrasse 30	 8003 Zürich	043 255 57 57		
zurich	hotel	N/A	http://yellow.local.ch/en/d/Zurich/8003/Hotel/Apartments-Swiss-Star-AG-k0ztMTAHLbVl0ZRsEbBXNA?dwhat=hotel&dwhere=zurich	Apartments Swiss Star AG	Zelgstrasse 19	 8003 Zürich	043 255 57 57		
zurich	hotel	N/A	http://yellow.local.ch/en/d/Zurich/8004/Hotel/Apartments-Swiss-Star-AG-8-kCP5IdDnEw_HvjtT0YxA?dwhat=hotel&dwhere=zurich	Apartments Swiss Star AG	Morgartenstrasse 15	 8004 Zürich	043 255 57 57		
zurich	hotel	N/A	http://yellow.local.ch/en/d/Zurich/8004/Hotel/Apartments-Swiss-Star-AG-GT1f2jHlDCkZOfwW_XTamA?dwhat=hotel&dwhere=zurich	Apartments Swiss Star AG	Badenerstrasse 362	 8004 Zürich	043 255 57 57		
zurich	hotel	N/A	http://yellow.local.ch/en/d/Zurich/8006/Hotel/Apartments-Swiss-Star-AG-YADsHo86UTqVsnJEqdgsLQ?dwhat=hotel&dwhere=zurich	Apartments Swiss Star AG	Universitätstrasse 80/82	 8006 Zürich	043 255 57 57		
zurich	hotel	N/A	http://yellow.local.ch/en/d/Zurich/8050/Hotel/Apartments-Swiss-Star-AG-j3LiU7UDOiMJPz4J2kw8sQ?dwhat=hotel&dwhere=zurich	Apartments Swiss Star AG	Friesstrasse 8	 8050 Zürich	043 255 57 57		
zurich	hotel	N/A	http://yellow.local.ch/en/d/Zurich/8050/Hotel/Apartments-Swiss-Star-AG-Om3Zrw8SeP7YCASHykSs4g?dwhat=hotel&dwhere=zurich	Apartments Swiss Star AG	Gubelstrasse 64	 8050 Zürich	043 255 57 57		
zurich	hotel	N/A	http://yellow.local.ch/en/d/Zurich/8050/Hotel/Apartments-Swiss-Star-AG-hKz2lB80Ku_27DnIxD2X6A?dwhat=hotel&dwhere=zurich	Apartments Swiss Star AG	Friesstrasse 14	 8050 Zürich	043 255 57 57		
zurich	hotel	N/A	http://yellow.local.ch/en/d/Zurich/8008/Hotel/Hotel-Europe-QKGGyMDTf4xd76mZC2akew?dwhat=hotel&dwhere=zurich	Hotel Europe	Dufourstrasse 4	 8008 Zürich	043 456 86 86		
zurich	hotel	N/A	http://yellow.local.ch/en/d/Zurich/8001/Hotel/Hotel-Townhouse-jtz9DvyesaGTtfIqHXUN2A?dwhat=hotel&dwhere=zurich	Hotel Townhouse	Schützengasse 7	 8001 Zürich	044 200 95 95		
zurich	hotel	N/A	http://yellow.local.ch/en/d/Zurich/8032/Hotel/Plattenhof-kxMXov9ddukm3kxJqYjXfg?dwhat=hotel&dwhere=zurich	Plattenhof	Plattenstrasse 26	 8032 Zürich	044 251 19 10		
zurich	hotel	N/A	http://yellow.local.ch/en/d/Zurich/8050/Hotel/Swissotel-Zurich-PfZMk7VcQMv3h7e24Mcs6g?dwhat=hotel&dwhere=zurich	Swissôtel Zürich	Schulstrasse 44	 8050 Zürich	044 317 31 11		
zurich	hotel	N/A	http://yellow.local.ch/en/d/Zurich/8006/Conference-facilities/Zurich-Marriott-Hotel-YuaXbhgd5tAd9OVB7bOJUA?dwhat=hotel&dwhere=zurich	Zürich Marriott Hotel	Neumühlequai 42	 8006 Zürich	044 360 70 70		
zurich	hotel	N/A	http://yellow.local.ch/en/d/Hotel/Alborghetti-Tschumi-Hotel-Event-Consulting-hotelbooker-oquWFjNsrZW7iSPL50hnng?dwhat=hotel&dwhere=zurich	Alborghetti- Tschumi Hotel + Event Consulting, hotelbooker	P.O. Box 1326	 8038 Zürich	044 482 01 83		
zurich	hotel	N/A	http://yellow.local.ch/en/d/Zurich/8001/Hotel/Alexander-WzqUhtYzHNQsyYBbiLaCtA?dwhat=hotel&dwhere=zurich	Alexander	Niederdorfstrasse 40	 8001 Zürich	044 251 82 03		
zurich	hotel	N/A	http://yellow.local.ch/en/d/Zurich/8001/Hotel/Altstadt-oEMhBngipESoZAY1fTpZOQ?dwhat=hotel&dwhere=zurich	Altstadt	Kirchgasse 4	 8001 Zürich	044 250 53 53		
zurich	hotel	N/A	http://yellow.local.ch/en/d/Zurich/8003/Hotel/Apartments-Swiss-Star-AG-04sJvU4hgaDG-PB10OpcVg?dwhat=hotel&dwhere=zurich	Apartments Swiss Star AG	Gertrudstrasse 12	 8003 Zürich	043 255 57 57		
zurich	hotel	N/A	http://yellow.local.ch/en/d/Zurich/8003/Hotel/Apartments-Swiss-Star-AG-olBZPfSLTS6tdxIy8Fc4EA?dwhat=hotel&dwhere=zurich	Apartments Swiss Star AG	Weststrasse 152	 8003 Zürich	043 255 57 57		
zurich	hotel	N/A	http://yellow.local.ch/en/d/Zurich/8003/Hotel/Apartments-Swiss-Star-AG-C5fa3sz7DLQRN5L-eEsEqw?dwhat=hotel&dwhere=zurich	Apartments Swiss Star AG	Aemtlerstrasse 160	 8003 Zürich	043 255 57 57		
zurich	hotel	N/A	http://yellow.local.ch/en/d/Zurich/8004/Hotel/Apartments-Swiss-Star-AG-oFYaJH09iO5S4Vke5M1Sdg?dwhat=hotel&dwhere=zurich	Apartments Swiss Star AG	Dienerstrasse 20/22	 8004 Zürich	043 255 57 57		
zurich	hotel	N/A	http://yellow.local.ch/en/d/Zurich/8004/Hotel/Apartments-Swiss-Star-AG-cuCUH_KZPbvWP5VYnrFpPQ?dwhat=hotel&dwhere=zurich	Apartments Swiss Star AG	Brauerstrasse 24	 8004 Zürich	043 255 57 57		
zurich	hotel	N/A	http://yellow.local.ch/en/d/Zurich/8004/Hotel/Apartments-Swiss-Star-AG-s-VVAK2rHooaHOsT_4RBAQ?dwhat=hotel&dwhere=zurich	Apartments Swiss Star AG	Anwandstrasse 10	 8004 Zürich	043 255 57 57		
zurich	hotel	N/A	http://yellow.local.ch/en/d/Zurich/8006/Hotel/Apartments-Swiss-Star-AG-uwLEPcTWlMRn-rPjuOpybg?dwhat=hotel&dwhere=zurich	Apartments Swiss Star AG	Winterthurerstrasse 151/157	 8006 Zürich	043 255 57 57		
zurich	hotel	N/A	http://yellow.local.ch/en/d/Zurich/8050/Hotel/Apartments-Swiss-Star-AG-6n6pm19DLHfSoX6mOly2xg?dwhat=hotel&dwhere=zurich	Apartments Swiss Star AG	Baumackerstrasse 47	 8050 Zürich	043 255 57 57		
zurich	hotel	N/A	http://yellow.local.ch/en/d/Zurich/8001/Hotel/Arlette-utKNQIZFAdrJxYQQuc1jig?dwhat=hotel&dwhere=zurich	Arlette	Stampfenbachstrasse 26	 8001 Zürich	044 252 00 32		
zurich	hotel	N/A	http://yellow.local.ch/en/d/Zurich/8002/Hotel/B2-Boutique-Hotel-Spa-ZkVRqzhNpPlTTX7hHfxcEA?dwhat=hotel&dwhere=zurich	B2 Boutique Hotel + Spa	Brandschenkestrasse 152	 8002 Zürich	044 567 67 67		
zurich	hotel	N/A	http://yellow.local.ch/en/d/Zurich/8001/Hotel/BASILEA-8VIKFwH15f2SRy6xIcJVPA?dwhat=hotel&dwhere=zurich	BASILEA	Zähringerstrasse 25 /beim Central	 8001 Zürich	044 256 76 00		
zurich	hotel	N/A	http://yellow.local.ch/en/d/Zurich/8001/Hotel/Boutique-Hotel-Herzkammer-TxZ0qLGZZWx4OTGX7ftZIA?dwhat=hotel&dwhere=zurich	Boutique-Hotel Herzkammer	Oetenbachgasse 13	 8001 Zürich	044 221 07 87		
zurich	hotel	N/A	http://yellow.local.ch/en/d/Zurich/8006/Hotel/Bristol-garni-8MRsy3A1_XV7XImTuUVfGQ?dwhat=hotel&dwhere=zurich	Bristol garni	Stampfenbachstrasse 34	 8006 Zürich	044 258 44 44		
zurich	hotel	N/A	http://yellow.local.ch/en/d/Zurich/8001/Hotel/City-Backpacker-Hotel-Biber-Xn_oyQfpVpRAiQgYB0QKVw?dwhat=hotel&dwhere=zurich	City Backpacker / Hotel Biber	Niederdorfstrasse 5	 8001 Zürich	044 251 90 15		
zurich	hotel	N/A	http://yellow.local.ch/en/d/Zurich/8001/Hotel/Comfort-Hotel-Royal-kWo03S6ferwkwIRzHECn7w?dwhat=hotel&dwhere=zurich	Comfort Hotel Royal	Leonhardstrasse 6	 8001 Zürich	044 266 59 59		
zurich	hotel	N/A	http://yellow.local.ch/en/d/Zurich/8001/Hotel/Comfort-Inn-Royal-MU_LD0hOkiD8SDQulWLbzw?dwhat=hotel&dwhere=zurich	Comfort Inn Royal	Leonhardstrasse 6	 8001 Zürich	044 266 59 59		
zurich	hotel	N/A	http://yellow.local.ch/en/d/Zurich/8050/Conference-facilities/Courtyard-by-Marriott-Zurich-Nord-HcpTPyYfHiJdkwD6T7c_1Q?dwhat=hotel&dwhere=zurich	Courtyard by Marriott Zürich Nord	Max-Bill-Platz 19	 8050 Zürich	044 564 04 04		
zurich	hotel	N/A	http://yellow.local.ch/en/d/Zurich/8004/Hotel/Crowne-Plaza-Zurich-JBU5SnakZqPBavTzk6UXrg?dwhat=hotel&dwhere=zurich	Crowne Plaza Zurich	Badenerstrasse 420	 8004 Zürich	044 404 44 44		
zurich	hotel	N/A	http://yellow.local.ch/en/d/Zurich/8004/Hotel/easyHotel-Zurich--jRcr-5AAaKdBfd8RL5ugw?dwhat=hotel&dwhere=zurich	easyHotel Zürich	Zwinglistrasse 14	 8004 Zürich	043 322 05 51		
zurich	hotel	N/A	http://yellow.local.ch/en/d/Zurich/8006/Seminar/EMA-house-The-Zurich-All-Suite-Hotel-ZzqbIVzETQmk27brHfjVzQ?dwhat=hotel&dwhere=zurich	EMA house-The Zurich All Suite Hotel	Nordstrasse 1	 8006 Zürich	044 368 36 68		
zurich	hotel	N/A	http://yellow.local.ch/en/d/Zurich/8002/Hotel/Flemings-Hotel-Zurich-QHj40oaX8OS8Epz2-B9jxw?dwhat=hotel&dwhere=zurich	Fleming's Hotel Zürich	Brandschenkestrasse 10	 8002 Zürich	044 563 00 00		
zurich	hotel	N/A	http://yellow.local.ch/en/d/Zurich/8008/Hotel/Frauenhotel-AG-0058yvhrwRweEr2KP8bThw?dwhat=hotel&dwhere=zurich	Frauenhotel AG	Mainaustrasse 24	 8008 Zürich	044 380 80 10		
zurich	hotel	N/A	http://yellow.local.ch/en/d/Zurich/8004/Hotel/Gregory-JMd2n3GtRc0d2Ztgr7mcAQ?dwhat=hotel&dwhere=zurich	Gregory	Schöneggstrasse 6	 8004 Zürich	044 241 22 02		
zurich	hotel	N/A	http://yellow.local.ch/en/d/Zurich/8001/Hotel/Hotel-City-Zurich-QgAYZLPaH0Mb5g-tRCJjOw?dwhat=hotel&dwhere=zurich	Hotel City Zürich	Löwenstrasse 34	 8001 Zürich	044 217 17 17		
zurich	hotel	N/A	http://yellow.local.ch/en/d/Zurich/8006/Hotel/Hotel-Continental-Zurich-MGallery-Collection-EJBv7LOelcjHsFt8foGsUA?dwhat=hotel&dwhere=zurich	Hotel Continental Zurich - MGallery Collection	Stampfenbachstrasse 60	 8006 Zürich	044 360 60 60		
zurich	hotel	N/A	http://yellow.local.ch/en/d/Zurich/8001/Hotel/Hotel-Helmhaus-8EYengbV6eEare8ESwirHA?dwhat=hotel&dwhere=zurich	Hotel Helmhaus	Schifflände 30	 8001 Zürich	044 266 95 95		
zurich	hotel	N/A	http://yellow.local.ch/en/d/Zurich/8005/Hotel/Hotel-ibis-budget-Zurich-City-West-CkoT2z2jbp_UObUpLLC3ig?dwhat=hotel&dwhere=zurich	Hotel ibis budget Zurich City West	Technoparkstrasse 2	 8005 Zürich	044 276 20 00		
zurich	hotel	N/A	http://yellow.local.ch/en/d/Zurich/8055/Hotel/Hotel-Neufeld-3pCLHrmCvlIxDNQH8mhXmw?dwhat=hotel&dwhere=zurich	Hotel Neufeld	Friesenbergstrasse 15	 8055 Zürich	043 960 73 73		
zurich	hotel	N/A	http://yellow.local.ch/en/d/Zurich/8005/Hotel/Hotel-Novotel-Zurich-City-West-PacpZsi2fUOcS_8gB4EfyA?dwhat=hotel&dwhere=zurich	Hotel Novotel Zurich City West	Schiffbaustrasse 13	 8005 Zürich	044 276 22 00		
zurich	hotel	N/A	http://yellow.local.ch/en/d/Zurich/8050/Hotel/Hotel-Oerlikon-INN-Xs66IycgHNKTUCskuyuneA?dwhat=hotel&dwhere=zurich	Hotel Oerlikon INN	Edisonstrasse 11	 8050 Zürich	058 680 24 24		
zurich	hotel	N/A	http://yellow.local.ch/en/d/Zurich/8004/Restaurant/Hotel-Restaurant-Helvetia-JX4YyHAitoLoxVD9x5Vquw?dwhat=hotel&dwhere=zurich	Hotel Restaurant Helvetia	Stauffacherquai 1	 8004 Zürich	044 297 99 99		
zurich	hotel	N/A	http://yellow.local.ch/en/d/Zurich/8004/Hotel/Hotel-Rothaus-PBYBm9QerK6-TnK007ieew?dwhat=hotel&dwhere=zurich	Hotel Rothaus	Sihlhallenstrasse 1	 8004 Zürich	043 322 10 50		
zurich	hotel	N/A	http://yellow.local.ch/en/d/Zurich/8001/Hotel/Hotel-Schweizerhof-Zurich-iarQVI0s6sZU6WDHGbItrg?dwhat=hotel&dwhere=zurich	Hotel Schweizerhof Zürich	Bahnhofplatz 7	 8001 Zürich	044 218 88 88		
zurich	hotel	N/A	http://yellow.local.ch/en/d/Zurich/8008/Hotel/Hotel-Seehof-ClBOPDIX8HBNTH20QXDOzg?dwhat=hotel&dwhere=zurich	Hotel Seehof	Seehofstrasse 11	 8008 Zürich	044 254 57 57		
zurich	hotel	N/A	http://yellow.local.ch/en/d/Zurich/8004/Hotel/Hotel-St-Georges-51CVdde2JYyw4_Bx-EDnYw?dwhat=hotel&dwhere=zurich	Hotel St-Georges	Weberstrasse 11	 8004 Zürich	044 241 11 44		
zurich	hotel	N/A	http://yellow.local.ch/en/d/Zurich/8001/Hotel/Hotel-Zurcherhof-mwHb5VnTxdsjvcEv5iY4zA?dwhat=hotel&dwhere=zurich	Hotel Zürcherhof	Zähringerstrasse 21	 8001 Zürich	044 269 44 44		
zurich	hotel	N/A	http://yellow.local.ch/en/d/Zurich/8001/Hotel/Krone-Limmatquai-DgIXdjiZzQpmuWI6_k1TcQ?dwhat=hotel&dwhere=zurich	Krone-Limmatquai	Limmatquai 88	 8001 Zürich	044 251 42 22		
zurich	hotel	N/A	http://yellow.local.ch/en/d/Zurich/8052/Hotel/Landhus-889Q66TsV6pHS3wAdpXWZA?dwhat=hotel&dwhere=zurich	Landhus	Katzenbachstrasse 10	 8052 Zürich	044 308 34 00		
zurich	hotel	N/A	http://yellow.local.ch/en/d/Zurich/8001/Hotel/Leoneck-Hotel-sBEKfJ3kP-Rg9tFOaL2ZPg?dwhat=hotel&dwhere=zurich	Leoneck Hotel	Leonhardstrasse 1	 8001 Zürich	044 254 22 22		
zurich	hotel	N/A	http://yellow.local.ch/en/d/Zurich/8001/Hotel/Limmatblick-yGJ8TRXg9w3CgdngPWR2uQ?dwhat=hotel&dwhere=zurich	Limmatblick	Limmatquai 136	 8001 Zürich	044 254 60 00		
zurich	hotel	N/A	http://yellow.local.ch/en/d/Zurich/8004/Hotel/Olympia-qZdZj0RFUu8IejsU0i752A?dwhat=hotel&dwhere=zurich	Olympia	Badenerstrasse 324	 8004 Zürich	044 491 77 66		
zurich	hotel	N/A	http://yellow.local.ch/en/d/Zurich/8001/Hotel/Otter-x9h3SLU30IvAVueHLOd6dw?dwhat=hotel&dwhere=zurich	Otter	Oberdorfstrasse 7	 8001 Zürich	044 251 22 07		
zurich	hotel	N/A	http://yellow.local.ch/en/d/Hotel/Radisson-BLU-gFM1u98u3tCtflhJegZRFw?dwhat=hotel&dwhere=zurich	Radisson BLU	P.O. Box 295	 8058 Zürich	044 800 40 40		
zurich	hotel	N/A	http://yellow.local.ch/en/d/Zurich/8048/Hotel/RAMADA-Hotel-Zurich-City-TDr3gVqlKm9rfGdb7HPT4w?dwhat=hotel&dwhere=zurich	RAMADA Hotel Zürich City	Badenerstrasse 537	 8048 Zürich	044 437 99 00		
zurich	hotel	N/A	http://yellow.local.ch/en/d/Zurich/8004/Hotel/Regina-Hotel-74PKoOBvcu5inNJF7PyOZQ?dwhat=hotel&dwhere=zurich	Regina Hotel	Hohlstrasse 16/18	 8004 Zürich	044 298 55 55		
zurich	hotel	N/A	http://yellow.local.ch/en/d/Zurich/8006/Restaurant/Restaurant-Rigihof-MttZ2l0tLGXVqzQM_-NSpQ?dwhat=hotel&dwhere=zurich	Restaurant Rigihof	Universitätstrasse 101	 8006 Zürich	044 360 12 00		
zurich	hotel	N/A	http://yellow.local.ch/en/d/Zurich/8001/Hotel/Rossli-g0EdfVqV2eTb-YT1pB-4ow?dwhat=hotel&dwhere=zurich	Rössli	Rössligasse 7	 8001 Zürich	044 256 70 50		
zurich	hotel	N/A	http://yellow.local.ch/en/d/Zurich/8001/Hotel/Savoy-Baur-en-Ville-Y2i1y7Mgoau-4rd_d--OAA?dwhat=hotel&dwhere=zurich	Savoy Baur en Ville	Poststrasse 12	 8001 Zürich	044 215 25 25		
zurich	hotel	N/A	http://yellow.local.ch/en/d/Zurich/8001/Hotel/Schafli-UnsPOy70LyakQlCadqsnbQ?dwhat=hotel&dwhere=zurich	Schäfli	Badergasse 6	 8001 Zürich	044 251 41 44		
zurich	hotel	N/A	http://yellow.local.ch/en/d/Zurich/8001/Hotel/Scheuble-SkBGlCgLkUD5MqOihI1nGg?dwhat=hotel&dwhere=zurich	Scheuble	Mühlegasse 17	 8001 Zürich	044 268 48 00		
zurich	hotel	N/A	http://yellow.local.ch/en/d/Zurich/8008/Hotel/Seefeld-Appartement-AG-NdaZv3a_TGEEKETBN7PZ0A?dwhat=hotel&dwhere=zurich	Seefeld Appartement AG	Höschgasse 62	 8008 Zürich	079 689 82 48		
zurich	hotel	N/A	http://yellow.local.ch/en/d/Zurich/8008/Hotel/Seegarten-X7GeEoYF088abqvqQfH6xg?dwhat=hotel&dwhere=zurich	Seegarten	Seegartenstrasse 14 /Ecke Dufourstr.	 8008 Zürich	044 388 37 37		
zurich	hotel	N/A	http://yellow.local.ch/en/d/Zurich/8006/Hotel/Sorell-Hotel-Rex-dlEjSyekOuQiqnqQck-Q5w?dwhat=hotel&dwhere=zurich	Sorell Hotel Rex	Weinbergstrasse 92	 8006 Zürich	044 360 25 25		
zurich	hotel	N/A	http://yellow.local.ch/en/d/Zurich/8001/Hotel/Sorell-Hotel-Rutli-SHG4Ys4Gsxag2lyc2iaU7A?dwhat=hotel&dwhere=zurich	Sorell Hotel Rütli	Zähringerstrasse 43	 8001 Zürich	044 254 58 00		
zurich	hotel	N/A	http://yellow.local.ch/en/d/Zurich/8008/Hotel/Sorell-Hotel-Seefeld-8glTBMo59AuT3HqZs7j8xg?dwhat=hotel&dwhere=zurich	Sorell Hotel Seefeld	Seefeldstrasse 63	 8008 Zürich	044 387 41 41		
zurich	hotel	N/A	http://yellow.local.ch/en/d/Zurich/8001/Hotel/Sorell-Hotel-Seidenhof-EXh8YX7qKq-_J2cfUnDv6g?dwhat=hotel&dwhere=zurich	Sorell Hotel Seidenhof	Sihlstrasse 9	 8001 Zürich	044 228 75 00		
zurich	hotel	N/A	http://yellow.local.ch/en/d/Zurich/8044/Conference-Hotels/Sorell-Hotel-Zurichberg-UnqbX6zXiZInKV8Cf5Ih5w?dwhat=hotel&dwhere=zurich	Sorell Hotel Zürichberg	Orellistrasse 21	 8044 Zürich	044 268 35 35		
zurich	hotel	N/A	http://yellow.local.ch/en/d/Zurich/8001/Hotel/stattHotel-0HEyIGXqhGuW0nI00JO65g?dwhat=hotel&dwhere=zurich	stattHotel	Schneggengasse 8	 8001 Zürich	043 268 59 30		
zurich	hotel	N/A	http://yellow.local.ch/en/d/Zurich/8008/Hotel/Steigenberger-Hotel-Bellerive-au-Lac-hlVTijGkkCHXJ04hDYEMrA?dwhat=hotel&dwhere=zurich	Steigenberger Hotel Bellerive au Lac	Utoquai 47	 8008 Zürich	044 254 40 00		
zurich	hotel	N/A	http://yellow.local.ch/en/d/Zurich/8050/Hotel/Sternen-Oerlikon-6nP38BGlj3NQoNueHfdHJA?dwhat=hotel&dwhere=zurich	Sternen Oerlikon	Schaffhauserstrasse 335	 8050 Zürich	043 300 65 65		
zurich	hotel	N/A	http://yellow.local.ch/en/d/Zurich/8006/Hotel/Sunnehus-bmh69PqaQymT0JOVkyFVwg?dwhat=hotel&dwhere=zurich	Sunnehus	Sonneggstrasse 17	 8006 Zürich	044 250 27 27		
zurich	hotel	N/A	http://yellow.local.ch/en/d/Zurich/8055/Hotel/The-Guests-House-AG-CCMAlG8z7Jm0LqVG5gcSXQ?dwhat=hotel&dwhere=zurich	The Guests' House AG	Döltschihalde 49	 8055 Zürich	044 454 54 54		
zurich	hotel	N/A	http://yellow.local.ch/en/d/Zurich/8001/Hotel/Villette-Hotel-City-Center-Bellevue-2FR8rpitmHJmi5AxnZziow?dwhat=hotel&dwhere=zurich	Villette Hotel City-Center Bellevue	Kruggasse 4	 8001 Zürich	044 251 23 35		
zurich	hotel	N/A	http://yellow.local.ch/en/d/Zurich/8005/Hotel/Walhalla-Hotel-3lLSAV26ZQunER0HNjL3UQ?dwhat=hotel&dwhere=zurich	Walhalla Hotel	Limmatstrasse 5	 8005 Zürich	044 446 54 00		
zurich	hotel	N/A	http://yellow.local.ch/en/d/Zurich/8001/Hotel/Wellenberg-HqPJc5byXuwurcEjWTzO1w?dwhat=hotel&dwhere=zurich	Wellenberg	Niederdorfstrasse 10 /am Hirschenplatz	 8001 Zürich	043 888 44 44		
zurich	hotel	N/A	http://yellow.local.ch/en/d/Zurich/8005/Hotel/X-TRA-5z_P1wXdr1YIwf8l6jjL6g?dwhat=hotel&dwhere=zurich	X-TRA	Limmatstrasse 118	 8005 Zürich	044 448 15 95		
zurich	hotel	N/A	http://yellow.local.ch/en/d/Uetliberg/8143/Hotel/UTO-KULM-73gZu6XtMRx0sm92mvN_6g?dwhat=hotel&dwhere=zurich	UTO KULM	Top of Zürich	 8143 Uetliberg	044 457 66 66		
zurich	hotel	N/A	http://yellow.local.ch/en/d/Egg-b-Zurich/8132/Restaurant/Gasthof-St-Antonius-naBqdjQGnA4MFwEmTzdIrA?dwhat=hotel&dwhere=zurich	Gasthof St. Antonius	Flurstrasse 3	 8132 Egg b. Zürich	044 984 11 11		
zurich	hotel	N/A	http://yellow.local.ch/en/d/Zurich/8057/Apartment-hotel/Guggach-AG-GFA2LJuSNWhzAAhwiu8HFQ?dwhat=hotel&dwhere=zurich	Guggach AG	Rötelstrasse 150 /am Bucheggpl.	 8057 Zürich	044 363 32 10	www.apartment-guggach.ch	
zurich	hotel	N/A	http://yellow.local.ch/en/d/Zurich/8001/Hotel-du-Theatre-By-Fassbind-7S_QPPR7ibOTUsG30jKH9g?dwhat=hotel&dwhere=zurich	Hotel du Théâtre By Fassbind	Seilergraben 69	 8001 Zürich	044 267 26 70	www.byfassbind.com	
zurich	hotel	N/A	http://yellow.local.ch/en/d/Zurich/8032/Conference-Hotels/Trigon-kpR00M8WlyTZS8wb6dPomA?dwhat=hotel&dwhere=zurich	Trigon	Heuelstrasse 7	 8032 Zürich	043 268 44 27	www.trigon-zentrum.ch	
zurich	hotel	N/A	http://yellow.local.ch/en/d/Zurich/8048/PLACID-HOTEL-ZURICH-O_EAqfejWREJK_JKCZYAfw?dwhat=hotel&dwhere=zurich	PLACID HOTEL ZURICH	Buckhauserstrasse 36	 8048 Zürich	058 204 90 90	www.placid.ch	
zurich	hotel	N/A	http://yellow.local.ch/en/d/Zurich/8008/Bar/Steigenberger-Hotel-Bellerive-au-Lac-fCQ3-6VX931qbAJUufT49w?dwhat=hotel&dwhere=zurich	Steigenberger Hotel Bellerive au Lac	Utoquai 47	 8008 Zürich	044 254 40 00		
zurich	hotel	N/A	http://yellow.local.ch/en/d/Zurich/8004/Restaurant/Hotel-Crowne-Plaza-Zurich-6lQ_wbYGw5h_WoiihqVocw?dwhat=hotel&dwhere=zurich	Hotel Crowne Plaza Zurich	Badenerstrasse 420	 8004 Zürich	044 404 44 44		
zurich	hotel	N/A	http://yellow.local.ch/en/d/Zurich/8001/Weinschenke-Hotel-Hirschen-u7GvyqIiO4EJzstcvfY05A?dwhat=hotel&dwhere=zurich	Weinschenke Hotel Hirschen	Niederdorfstrasse 13	 8001 Zürich	043 268 33 33		
zurich	hotel	N/A	http://yellow.local.ch/en/d/Zurich/8001/Hotel-Marta-AG-4Cid_S7ahd5BaWd3MX1YFg?dwhat=hotel&dwhere=zurich	Hotel Marta AG	Zähringerstrasse 36	 8001 Zürich	044 269 95 95	www.hotelmarta.ch	
zurich	hotel	N/A	http://yellow.local.ch/en/d/Zurich/8032/Hotel-Swiss-Night-am-Kunsthaus-By-Fassbind-KP2ziDalDxIBe41hKpEFxg?dwhat=hotel&dwhere=zurich	Hotel Swiss Night am Kunsthaus By Fassbind	Steinwiesstrasse 8	 8032 Zürich	044 512 49 99	www.byfassbind.com	
zurich	hotel	N/A	http://yellow.local.ch/en/d/Zurich/8005/Hotel-Rivington-Sons-0jVGC9CN4Lyw5jW7W-SsOA?dwhat=hotel&dwhere=zurich	Hotel Rivington & Sons	Hardstrasse 201	 8005 Zürich	043 366 90 82		
zurich	hotel	N/A	http://yellow.local.ch/en/d/Thalwil/8800/Hotel/Hotel-SEDARTIS-hnbIIo9IPLSx_8OK8hWPsw?dwhat=hotel&dwhere=zurich	Hotel SEDARTIS	Bahnhofstrasse 16	 8800 Thalwil	043 388 33 00	www.sedartis.ch	
zurich	hotel	N/A	http://yellow.local.ch/en/d/Forch/8127/Hotel/Landgasthof-Hotel-Wassberg-_1goutsGg2zln9qb6ylRjA?dwhat=hotel&dwhere=zurich	Landgasthof Hotel Wassberg	Wassbergstrasse 62	 8127 Forch	043 366 20 40	www.hotel-wassberg.ch	
zurich	hotel	N/A	http://yellow.local.ch/en/d/Kusnacht-ZH/8700/Restaurant/Romantik-Seehotel-Sonne-TXaKdjyob6qIG3WMvuv7bg?dwhat=hotel&dwhere=zurich	Romantik Seehotel Sonne	Seestrasse 120	 8700 Küsnacht ZH	044 914 18 18	www.sonne.ch	
zurich	hotel	N/A	http://yellow.local.ch/en/d/Geneve/1201/Hotel/Hotel-Novotel-Geneve-Centre-KOZXlHmEqmhC4nsSf4pqLg?dwhat=hotel&dwhere=zurich	Hotel Novotel Geneve Centre	rue de Zurich 19	 1201 Genève	022 909 90 00		
zurich	hotel	N/A	http://yellow.local.ch/en/d/Zurich/8006/Recruiters/Adecco-Hotel-Catering-1YEyfD9wDwv_rDNfGO8u_A?dwhat=hotel&dwhere=zurich	Adecco Hotel & Catering	Stampfenbachstrasse 138	 8006 Zürich	058 233 39 00		
zurich	hotel	N/A	http://yellow.local.ch/en/d/Zurich/8005/25hours-Hotel-Zurich-West-7MxE3WGKmZo8yWmqlGLtmw?dwhat=hotel&dwhere=zurich	25hours Hotel Zürich West	Pfingstweidstrasse 102	 8005 Zürich	044 577 25 25		
zurich	hotel	N/A	http://yellow.local.ch/en/d/Zurich/8057/Apartment-hotel/Accademia-Apartments-ehGJYuhFOuy_tSf3Tcqr8w?dwhat=hotel&dwhere=zurich	Accademia Apartments	Langensteinenstrasse 2	 8057 Zürich	043 300 50 00		
zurich	hotel	N/A	http://yellow.local.ch/en/d/Zurich/8008/Alpha-Hotel-Management-AG-RGZnRdE-6gdwxYe14oSI3w?dwhat=hotel&dwhere=zurich	Alpha Hotel Management AG	Dufourstrasse 31	 8008 Zürich	044 262 33 11		
zurich	hotel	N/A	http://yellow.local.ch/en/d/Zurich/8050/Glass-and-porcellan-articles/B-N-Service-AG-ba5FXpcMs_txaDAEfouu3Q?dwhat=hotel&dwhere=zurich	B & N Service AG	Neunbrunnenstrasse 50	 8050 Zürich	044 262 31 00		
zurich	hotel	N/A	http://yellow.local.ch/en/d/Zurich/8001/Cafes/Cafe-Gourmet-Hotel-Schweizerhof-Zurich-uX-2ZWThDsYyAbpqupN4gQ?dwhat=hotel&dwhere=zurich	Café Gourmet Hotel Schweizerhof Zürich	Bahnhofplatz 7	 8001 Zürich	044 218 88 88		
zurich	hotel	N/A	http://yellow.local.ch/en/d/Zurich/8001/Christian-Scotoni-Unterneh-mungen-GmbH-Hotel-Wellenberg-MZ0JU0CzggG8TrQzqfQJag?dwhat=hotel&dwhere=zurich	Christian Scotoni Unterneh-mungen GmbH Hotel Wellenberg	Niederdorfstrasse 10	 8001 Zürich	043 243 73 94		
zurich	hotel	N/A	http://yellow.local.ch/en/d/Zurich/8032/Dolder-Hotel-AG-u7A69dldhE14bCfM6ChIHg?dwhat=hotel&dwhere=zurich	Dolder Hotel AG	Kurhausstrasse 65	 8032 Zürich	044 456 69 00		
zurich	hotel	N/A	http://yellow.local.ch/en/d/Zurich/8002/HMG-Hotel-Management-Services-Sarl-mRUISUnXvzc79475Ir3U7A?dwhat=hotel&dwhere=zurich	HMG Hotel Management Services Sàrl	Brandschenkestrasse 10	 8002 Zürich	044 562 60 00		
zurich	hotel	N/A	http://yellow.local.ch/en/d/Zurich/8055/Hotel-Atlantis-by-Giardino-nhejhrTSNdMIFJTJ1I3YDw?dwhat=hotel&dwhere=zurich	Hotel Atlantis by Giardino	Döltschiweg 234	 8055 Zürich	044 456 55 55		
zurich	hotel	N/A	http://yellow.local.ch/en/d/Zurich/8057/Hotel-Coronado-ubOMif1jnLqX7bOse0HTLg?dwhat=hotel&dwhere=zurich	Hotel Coronado	Schaffhauserstrasse 137	 8057 Zürich	044 360 26 26		
zurich	hotel	N/A	http://yellow.local.ch/en/d/Zurich/8006/Hotel-Serviced-Apartments-Astor-ZRILlTygWdScLFXjaHRhKw?dwhat=hotel&dwhere=zurich	Hotel + Serviced Apartments Astor	Weinbergstrasse 44	 8006 Zürich	044 251 35 60		
zurich	hotel	N/A	http://yellow.local.ch/en/d/Zurich/8055/Hotel-Steffani-AG-SFl7ILOOZgNWH9IdF2yIkw?dwhat=hotel&dwhere=zurich	Hotel Steffani AG	Birmensdorferstrasse 668	 8055 Zürich	043 928 71 56		
zurich	hotel	N/A	http://yellow.local.ch/en/d/Zurich/8049/ICT-Hotel-Consulting-Stephan-Gisler-cFbZyjfLwcX2BLgRnGqLeA?dwhat=hotel&dwhere=zurich	ICT Hotel Consulting, Stephan Gisler	Imbisbühlstrasse 130	 8049 Zürich	078 656 99 60		
zurich	hotel	N/A	http://yellow.local.ch/en/d/Zurich/8001/International-Hotel-Licensing-Company-Sar-l-asyLajxNTXiykcl4L-89LA?dwhat=hotel&dwhere=zurich	International Hotel Licensing Company S.à.r l.	Bahnhofplatz 14	 8001 Zürich	044 723 51 00		
zurich	hotel	N/A	http://yellow.local.ch/en/d/Zurich/8002/lth-link-to-hotel-ag-ViE6uMe5XHo6DB9bP75RKA?dwhat=hotel&dwhere=zurich	lth link to hotel ag	Bürglistrasse 8	 8002 Zürich	044 928 20 35		
zurich	hotel	N/A	http://yellow.local.ch/en/d/Zurich/8002/MMC-Hotel-AG-jweml0_HHYzwCPB91NKz-A?dwhat=hotel&dwhere=zurich	MMC Hotel AG	Tessinerplatz 9	 8002 Zürich	043 344 55 37		
zurich	hotel	N/A	http://yellow.local.ch/en/d/Dietikon/8953/Hotel/Conti-j1-TulcZNl2rrIpjZThsrg?dwhat=hotel&dwhere=zurich	Conti	Heimstrasse 41	 8953 Dietikon	044 745 86 86	www.conti.ch	
zurich	hotel	N/A	http://yellow.local.ch/en/d/Geneve/1201/Hotel/Quatre-Nations-jVWGhJ3iQbetNLtpeQPdbQ?dwhat=hotel&dwhere=zurich	Quatre Nations	rue de Zurich 43	 1201 Genève	022 732 02 24		
zurich	hotel	N/A	http://yellow.local.ch/en/d/Kappel-am-Albis/8926/Hotel/Seminarhotel-Kloster-Kappel-ctEuow_m9EdiyqhJBTInMQ?dwhat=hotel&dwhere=zurich	Seminarhotel Kloster Kappel		8926 Kappel am Albis	044 764 88 10		
zurich	hotel	N/A	http://yellow.local.ch/en/d/Horgen/8810/Hotel/Bocken-bvlyFSi7zl42xFeS5174LQ?dwhat=hotel&dwhere=zurich	Bocken	Bockenweg 4	 8810 Horgen	044 727 55 55	www.bocken.ch	
zurich	hotel	N/A	http://yellow.local.ch/en/d/Adliswil/8134/Restaurant/Hotel-Ibis-Zurich-Adliswil-720EwUCjrN468rSntvqhfQ?dwhat=hotel&dwhere=zurich	Hotel Ibis Zürich - Adliswil	Zürichstrasse 105	 8134 Adliswil	044 711 85 85		
zurich	hotel	N/A	http://yellow.local.ch/en/d/Glattbrugg/8152/Hotel/NH-Zurich-Airport-Hotel-8zqJQH9HJmc9IZBmufvzGg?dwhat=hotel&dwhere=zurich	NH Zurich Airport Hotel	Schaffhauserstrasse 101	 8152 Glattbrugg	044 808 50 00		
zurich	hotel	N/A	http://yellow.local.ch/en/d/Bulach/8180/Restaurant/zum-Goldenen-Kopf-B-nIEYpXuAJbJWNeoT3Ndw?dwhat=hotel&dwhere=zurich	zum Goldenen Kopf	Marktgasse 9	 8180 Bülach	044 872 46 46		
zurich	hotel	N/A	http://yellow.local.ch/en/d/Zurich/8003/Cosmetic-institute/K33-Hairhotel-k0iORjyvKZ1gXkQ-D53l9g?dwhat=hotel&dwhere=zurich	K33 Hairhotel	Zentralstrasse 119a	 8003 Zürich	044 462 71 00	www.k33.ch	
zurich	hotel	N/A	http://yellow.local.ch/en/d/Zurich/8002/Arabella-Hotelbetriebe-AG-jZTA2HPBZI4-lArWgd6Zww?dwhat=hotel&dwhere=zurich	Arabella Hotelbetriebe AG	Stockerstrasse 17	 8002 Zürich	043 222 40 26		
zurich	hotel	N/A	http://yellow.local.ch/en/d/Zurich/8002/Continuation-of-ones-education/Belvoirpark-Hotelfachschule-Amh8Mdl9tm2jpnQaQgyC9w?dwhat=hotel&dwhere=zurich	Belvoirpark Hotelfachschule	Seestrasse 141	 8002 Zürich	044 286 88 11	www.belvoirpark.ch	
zurich	hotel	N/A	http://yellow.local.ch/en/d/Zurich/8001/Restaurant/Restaurant-Swiss-Chuchi-Zurich-xCG0lTxFJvWtAcrutREs8w?dwhat=hotel&dwhere=zurich	Restaurant Swiss Chuchi Zürich	am Hirschengraben, Rosengasse 10	 8001 Zürich	044 266 96 66	www.hotel-adler.ch	
zurich	hotel	N/A	http://yellow.local.ch/en/d/Zurich/8051/Safes-Strongrooms/BRUHIN-TRESORBAU-hKkAMiOXW9mq8ylf_ITpeQ?dwhat=hotel&dwhere=zurich	BRUHIN - TRESORBAU	Heerenwiesen 18	 8051 Zürich	044 322 51 66	www.bruhin-tresorbau.ch	
zurich	hotel	N/A	http://yellow.local.ch/en/d/Zurich/8032/Cleaning-company/AF-Reinigungs-AG-TZqJs7B8hKtQd9V0tpyNKw?dwhat=hotel&dwhere=zurich	AF Reinigungs AG	Forchstrasse 136	 8032 Zürich	044 422 31 59	www.afrag.ch	
zurich	hotel	N/A	http://yellow.local.ch/en/d/Zurich/8038/Interior-architecture/Arndt-Geiger-Herrmann-AG-D89yu0uiVvZOV-tEDy-CdA?dwhat=hotel&dwhere=zurich	Arndt Geiger Herrmann AG	Mythenquai 345	 8038 Zürich	044 488 60 60	www.agh.ch	
zurich	hotel	N/A	http://yellow.local.ch/en/d/Zurich/8001/Architectural-firm/atelier-10punkt3-ag-2IW0Tdw9YQGNvarRf8D08A?dwhat=hotel&dwhere=zurich	atelier 10punkt3 ag	Löwenstrasse 53	 8001 Zürich	044 381 22 33	www.10punkt3.ch	
zurich	hotel	N/A	http://yellow.local.ch/en/d/Zurich/8004/Printer/FLYERALARM-Schweiz-GmbH-1bQF8iDlI1Jfn4byLng8pg?dwhat=hotel&dwhere=zurich	FLYERALARM (Schweiz) GmbH	Kasernenstrasse 1	 8004 Zürich	044 583 15 67	www.flyeralarm.ch	
zurich	hotel	N/A	http://yellow.local.ch/en/d/Zurich/8032/Travel-agency/Legends-Travel-GmbH-dqzFNaIiEiXvc-oKgOW5Cw?dwhat=hotel&dwhere=zurich	Legends Travel GmbH	Klosbachstrasse 45	 8032 Zürich	044 250 44 77	www.legendstravel.ch	
zurich	hotel	N/A	http://yellow.local.ch/en/d/Zurich/8057/Keys-services/Master-Key-ImqS2nkRb-GJqfPLQh4y4Q?dwhat=hotel&dwhere=zurich	Master Key	Berninaplatz 1	 8057 Zürich	044 312 12 32	schluesseldienst.ch	
zurich	hotel	N/A	http://yellow.local.ch/en/d/Zurich/8051/Garage/Pneuhaus-Luegisland-AG-miQiiDNVZEgVzPyrbtaSrg?dwhat=hotel&dwhere=zurich	Pneuhaus Luegisland AG	Dübendorfstrasse 26	 8051 Zürich	044 322 55 33	www.pneuhaus.ch	
zurich	hotel	N/A	http://yellow.local.ch/en/d/Zurich/8052/Surveying-office/Schenkel-Vermessungen-AG-dVmR-sZZtr70K5zFf5unpA?dwhat=hotel&dwhere=zurich	Schenkel Vermessungen AG	Sandacker 21	 8052 Zürich	044 361 07 00	www.schenkelvermessungen.ch	
zurich	hotel	N/A	http://yellow.local.ch/en/d/Zurich/8004/Taxi/7x7-Fahrdienste-AG-zb26Kp70nWw5Ibk0jScuDQ?dwhat=hotel&dwhere=zurich	7x7 Fahrdienste AG	Zypressenstrasse 76	 8004 Zürich	044 777 77 77	www.7x7.ch	
zurich	hotel	N/A	http://yellow.local.ch/en/d/Zurich/8003/Health-counselling/Betten-Zuri-AG-WGhmEGWTYUpizJAzyP5Vng?dwhat=hotel&dwhere=zurich	Betten-Züri AG	Letzigraben 89	 8003 Zürich	043 311 06 66	www.betten-zueri.ch	
zurich	hotel	N/A	http://yellow.local.ch/en/d/Zurich/8045/Garage/Garage-Wiedikon-Bruno-Cajacob-AG-TBlXLKpj0xd2Km4xRJtLiA?dwhat=hotel&dwhere=zurich	Garage Wiedikon Bruno Cajacob AG	Grubenstrasse 32	 8045 Zürich	044 463 22 33	www.garagewiedikonag.ch	
zurich	hotel	N/A	http://yellow.local.ch/en/d/Zurich/8005/Secondhand-goods/Heilsarmee-brockich-Zurich-j4Chg3yUNHr4aNQcQVQoCQ?dwhat=hotel&dwhere=zurich	Heilsarmee brocki.ch/Zürich	Geroldstrasse 29	 8005 Zürich	044 271 08 92	www.brocki.ch	
zurich	hotel	N/A	http://yellow.local.ch/en/d/Zurich/8001/Numismatics/Hess-Divo-AG-ljwl_tUphefH813qCHSoHw?dwhat=hotel&dwhere=zurich	Hess Divo AG	Löwenstrasse 55	 8001 Zürich	044 225 40 90	www.hessdivo.com	
zurich	hotel	N/A	http://yellow.local.ch/en/d/Zurich/8001/Pharmacy/Leonhards-Apotheke-T3ER6EeTaE2g5V4Bxt8GaA?dwhat=hotel&dwhere=zurich	Leonhards-Apotheke	Stampfenbachstrasse 7	 8001 Zürich	044 252 44 20	www.leonhards.apotheke.ch	
zurich	hotel	N/A	http://yellow.local.ch/en/d/Zurich/8049/Travel-agency/Reiseburo-Layer-7bhBOBNMMfpm3NKFceYDeA?dwhat=hotel&dwhere=zurich	Reisebüro Layer	Rütihofstrasse 15	 8049 Zürich	043 960 20 02	www.hlayer.ch	
zurich	hotel	N/A	http://yellow.local.ch/en/d/Zurich/8003/Private-school/SanArena-Rettungsschule-gcWu-pmGFTsAi4qEUU9CQQ?dwhat=hotel&dwhere=zurich	SanArena Rettungsschule	Zentralstrasse 12	 8003 Zürich	044 461 61 61	www.sanarena.ch	
zurich	hotel	N/A	http://yellow.local.ch/en/d/Zurich/8002/Relocation-Service/Sgier-Partner-GmbH-jlJuia6dtVF5FN2bsKXYmw?dwhat=hotel&dwhere=zurich	Sgier & Partner GmbH	Tödistrasse 67	 8002 Zürich	044 228 78 90	www.sgierpartner.ch	
zurich	hotel	N/A	http://yellow.local.ch/en/d/Zurich/8008/Telecommunications/TelcomNet-GmbH-u1qX0bMgVtsox63oaLEv7Q?dwhat=hotel&dwhere=zurich	TelcomNet GmbH	Ottenweg 24	 8008 Zürich	044 480 25 15	www.telcomnet-zuerich.ch	
zurich	hotel	N/A	http://yellow.local.ch/en/d/Zurich/8001/Language-schools/WORDCULTURE-GmbH-ZJcw1FJ0gA-l9iXkXU406g?dwhat=hotel&dwhere=zurich	WORDCULTURE GmbH	Selnaustrasse 2	 8001 Zürich	044 396 70 80	www.wordculture.ch	
zurich	hotel	N/A	http://yellow.local.ch/en/d/Zurich/8001/Goldsmith-silversmith/Wullschleger-John-R-Utw3fqqgP5RiORx7LaZ_oQ?dwhat=hotel&dwhere=zurich	Wullschleger John R.	Rennweg 12	 8001 Zürich	044 212 48 58	www.goldschmiede-wullschleger.ch	
zurich	hotel	N/A	http://yellow.local.ch/en/d/Zurich/8002/Florist/Bahnhof-Enge-p3Lp8Z0JNG_U9mnKVd5YzQ?dwhat=hotel&dwhere=zurich	Bahnhof Enge	Tessinerplatz 10	 8002 Zürich	044 201 51 27	www.luethiblumen.ch	
zurich	hotel	N/A	http://yellow.local.ch/en/d/Zurich/8002/Cellulite-treatment/Deluxe-Cosmetic-GmbH-U-3nMZ0mafUEjNW44JT_1g?dwhat=hotel&dwhere=zurich	Deluxe Cosmetic GmbH	Brandschenkestrasse 132	 8002 Zürich	043 344 58 00	www.de-luxe.ch	
zurich	hotel	N/A	http://yellow.local.ch/en/d/Zurich/8008/Copy-shop/OK-Druck-Seefeld-8ZovEglhSLfo9Bi123J_fA?dwhat=hotel&dwhere=zurich	OK Druck Seefeld	Kreuzstrasse 42	 8008 Zürich	044 252 64 60	www.okseefeld.ch	
zurich	hotel	N/A	http://yellow.local.ch/en/d/Zurich/8001/Travel-agency/Hotelplan-Ua1G6TKYfdDkKuoYQduEVQ?dwhat=hotel&dwhere=zurich	Hotelplan	Löwenstrasse 35	 8001 Zürich	044 213 15 15		
zurich	hotel	N/A	http://yellow.local.ch/en/d/Zurich/8005/Hotelplan-AG-R-hFbK-8TAx5EeihbDGLfw?dwhat=hotel&dwhere=zurich	Hotelplan AG	Limmatplatz, Limmatstrasse 152	 8005 Zürich	044 277 70 60		
zurich	hotel	N/A	http://yellow.local.ch/en/d/Zurich/8002/Arabella-Hotelbetriebe-AG-ArabellaSheraton-Neues-Schloss-Kmt5VZXVvXKvDOf3J0SAaA?dwhat=hotel&dwhere=zurich	Arabella Hotelbetriebe AG ArabellaSheraton Neues Schloss	Stockerstrasse 17	 8002 Zürich	044 201 03 37		
zurich	hotel	N/A	http://yellow.local.ch/en/d/Zurich/8008/Businga-Hoteltechnik-jjVW71Dch-jSHudjTOFRSQ?dwhat=hotel&dwhere=zurich	Businga Hoteltechnik	Seefeldstrasse 255A	 8008 Zürich	044 500 23 31		
zurich	hotel	N/A	http://yellow.local.ch/en/d/Zurich/8045/Hotelkredit-Schweiz-Gesellschaft-fur-SGH-xs75WXDS0tusPlg9WAClHA?dwhat=hotel&dwhere=zurich	Hotelkredit Schweiz. Gesellschaft für (SGH)	Uetlibergstrasse 134b	 8045 Zürich	044 209 16 16		
zurich	hotel	N/A	http://yellow.local.ch/en/d/Zurich/8001/Manz-Privacy-Hotels-Switzerland-yd1KEqghUZGQyHnH0mKRMg?dwhat=hotel&dwhere=zurich	Manz Privacy Hotels Switzerland	Lintheschergasse 21	 8001 Zürich	044 227 77 44		
zurich	hotel	N/A	http://yellow.local.ch/en/d/Zurich/8045/Switzerland/Schweizerische-Gesellschaft-fur-Hotelkredit-8t6Q8Y8OVliZ-8kMcNDDng?dwhat=hotel&dwhere=zurich	Schweizerische Gesellschaft für Hotelkredit	Uetlibergstrasse 134b	 8045 Zürich	044 209 16 16		
zurich	hotel	N/A	http://yellow.local.ch/en/d/Zurich/8038/Selective-Hotels-and-Residence-EHLUznuhKOA7pQOpTQCuiA?dwhat=hotel&dwhere=zurich	Selective Hotels and Residence	Etzelstrasse 42	 8038 Zürich	043 343 98 54		
zurich	hotel	N/A	http://yellow.local.ch/en/d/Zurich/8045/Sihlcity-Hotelbetriebs-AG-qqfb1BhhBTlIhxlFndI0rw?dwhat=hotel&dwhere=zurich	Sihlcity Hotelbetriebs AG	Kalandergasse 1	 8045 Zürich	044 554 00 00		
zurich	hotel	N/A	http://yellow.local.ch/en/d/Zurich/8047/Sorell-Hotels-Switzerland-zK-clXurmlJ1G2z39leTWQ?dwhat=hotel&dwhere=zurich	Sorell Hotels Switzerland	Flüelastrasse 51	 8047 Zürich	044 388 35 35		
zurich	hotel	N/A	http://yellow.local.ch/en/d/Zurich/8002/Starwood-Hotels-Resorts-Sales-u-Marketing-Switzerland-ddjuE2E30HmxuUWFEZaRpQ?dwhat=hotel&dwhere=zurich	Starwood Hotels & Resorts Sales u. Marketing Switzerland	Stockerstrasse 11	 8002 Zürich	043 344 33 00		
zurich	hotel	N/A	http://yellow.local.ch/en/d/Zurich/8052/Garage/Amsler-Rudolf-Pkn8Y-bgYfq0Ch4CeTUqfg?dwhat=hotel&dwhere=zurich	Amsler Rudolf	Glatttalstrasse 75	 8052 Zürich	044 301 17 22	www.vwaudigarage.ch	
zurich	hotel	N/A	http://yellow.local.ch/en/d/Zurich/8005/Mens-fashion/BW-Mode-GmbH-fYgph-3cAat0YmHroWVx6Q?dwhat=hotel&dwhere=zurich	BW Mode GmbH	Giessereistrasse 18	 8005 Zürich	043 534 89 86	www.bw-mode.ch	
zurich	hotel	N/A	http://yellow.local.ch/en/d/Zurich/8055/Carpets/Gruebler-Walter-AG-2sxy5l0_icQj53SDpbFSTg?dwhat=hotel&dwhere=zurich	Grüebler Walter AG	Goldbrunnenstrasse 159	 8055 Zürich	044 241 61 87	www.gruebler.ch	
zurich	hotel	N/A	http://yellow.local.ch/en/d/Zurich/8004/Real-Estate/GUSTAV-Apartments-Residenz-axWP92xw9yqWengQF4V2mw?dwhat=hotel&dwhere=zurich	GUSTAV Apartments & Residenz	Gustav-Gull-Platz 5	 8004 Zürich	044 250 65 00	www.gustav-zuerich.ch	
zurich	hotel	N/A	http://yellow.local.ch/en/d/Zurich/8032/Computer-services/plusquamch-pc-service-mnsBRSlECU0fqSA3mMCQtQ?dwhat=hotel&dwhere=zurich	plusquam.ch pc-service	Asylstrasse 119	 8032 Zürich	044 493 25 00	www.plusquam.ch	
zurich	hotel	N/A	http://yellow.local.ch/en/d/Zurich/8002/Restaurant/Restaurant-Ascot-sOWei_D2dMiGxtWaHXHB2A?dwhat=hotel&dwhere=zurich	Restaurant Ascot	Tessinerplatz 9	 8002 Zürich	044 208 14 14		
zurich	hotel	N/A	http://yellow.local.ch/en/d/Zurich/8057/Telephone-installation/Pfaffli-Walter-AG-_-g80zg5RLftglY2EvZUOw?dwhat=hotel&dwhere=zurich	Pfäffli Walter AG	Scheuchzerstrasse 164	 8057 Zürich	044 350 25 50		
zurich	hotel	N/A	http://yellow.local.ch/en/d/Zurich/8005/Restaurant/Restaurant-Subito-W5_kz0H_FobNPFn00EsMwA?dwhat=hotel&dwhere=zurich	Restaurant Subito	Konradstrasse 6	 8005 Zürich	044 271 50 90		
zurich	hotel	N/A	http://yellow.local.ch/en/d/Zurich/8004/Vocational-college/Akademie-der-Gastfreundschaft-und-Sommelier-Fachschule-cPGA-9DtTd1ytAf5KLQsDw?dwhat=hotel&dwhere=zurich	Akademie der Gastfreundschaft und Sommelier Fachschule	Werdstrasse 34	 8004 Zürich	044 241 80 60		
zurich	hotel	N/A	http://yellow.local.ch/en/d/Zurich/8032/Limousine-service/Astro-Limousine-Service-AG-HN79LVQ2uz9jOoGhmfCyWA?dwhat=hotel&dwhere=zurich	Astro Limousine Service AG		8032 Zürich	044 262 11 33		
zurich	hotel	N/A	http://yellow.local.ch/en/d/Zurich/8006/Interior-improvements/Die-Innenarchitektin-i6S2_lcROpHDc3YbUA-gnw?dwhat=hotel&dwhere=zurich	Die Innenarchitektin	Schaffhauserstrasse 2	 8006 Zürich	043 233 91 91		
zurich	hotel	N/A	http://yellow.local.ch/en/d/Zurich/8048/Fennobed-Schweiz-GmbH-Tb324YxuI_g3pD-nKPUDmg?dwhat=hotel&dwhere=zurich	Fennobed Schweiz GmbH	Albulastrasse 54	 8048 Zürich	043 811 77 70		
zurich	hotel	N/A	http://yellow.local.ch/en/d/Restaurant/friendlych-QvM-Pw5Dmso_Bf8002hXBA?dwhat=hotel&dwhere=zurich	friendly.ch	P.O. Box	 8000 Zürich	044 586 60 60		
zurich	hotel	N/A	http://yellow.local.ch/en/d/Zurich/8004/Private-school/Gastrologische-Company-G2tL4RdOqKA12gQlCR-Lng?dwhat=hotel&dwhere=zurich	Gastrologische-Company	Werdstrasse 34	 8004 Zürich	044 241 80 60		
zurich	hotel	N/A	http://yellow.local.ch/en/d/Zurich/8001/H-Krachts-Erben-AG-_m0zaNL9CSY4P7dMfqr1gg?dwhat=hotel&dwhere=zurich	H. Kracht's Erben AG	Börsenstrasse 27	 8001 Zürich	044 220 50 55		
zurich	hotel	N/A	http://yellow.local.ch/en/d/Zurich/8001/Hirzel-J-Handel-Import-KfdjUQrXF124ofN5WhAWsw?dwhat=hotel&dwhere=zurich	Hirzel J. Handel & Import	Stadelhoferstrasse 8	 8001 Zürich	044 252 26 37		
zurich	hotel	N/A	http://yellow.local.ch/en/d/Zurich/8001/Savoy-Club-nD0E36ASDu1suQXAQcMKBA?dwhat=hotel&dwhere=zurich	Savoy Club	Poststrasse 12	 8001 Zürich	044 215 25 25		
zurich	hotel	N/A	http://yellow.local.ch/en/d/Zurich/8005/Restaurant/Route-twenty-six-25bcNkO1kTv4ZmyFpBX3XQ?dwhat=hotel&dwhere=zurich	Route twenty-six	Pfingstweidstrasse 100	 8005 Zürich	044 285 40 41	www.routetwentysix.ch	
zurich	hotel	N/A	http://yellow.local.ch/en/d/Zurich/8001/Restaurant/Kings-Cave-nPbjtNWNFkb22yUbtN3vLQ?dwhat=hotel&dwhere=zurich	King's Cave	Central Plaza Hotel, Central 1	 8001 Zürich	044 256 55 55		
zurich	hotel	N/A	http://yellow.local.ch/en/d/Zurich/8008/Restaurant/Latino-jQAOKqd38Ky2MZb2Gmbq6g?dwhat=hotel&dwhere=zurich	Latino	Seegartenstrasse 14 /Ecke Dufourstr.	 8008 Zürich	044 388 37 77		
zurich	hotel	N/A	http://yellow.local.ch/en/d/Zurich/8001/Baur-au-Lac-Vins-Yss2mofhzUY-XdzjutTX0g?dwhat=hotel&dwhere=zurich	Baur au Lac Vins	Börsenstrasse 27	 8001 Zürich	044 220 50 55	www.bauraulacvins.ch	
zurich	hotel	N/A	http://yellow.local.ch/en/d/Zurich/8001/Bar/Hummer-Austernbar-W91yhXn3A7SsRr4_1MTqaA?dwhat=hotel&dwhere=zurich	Hummer Austernbar	Bahnhofstrasse 87	 8001 Zürich	044 227 76 21	www.hummerbar.ch	
zurich	hotel	N/A	http://yellow.local.ch/en/d/Zurich/8008/City-Stay-AG-HyYWwwqNz6ZIZyt6RhI0PA?dwhat=hotel&dwhere=zurich	City Stay AG	Kieselgasse 2	 8008 Zürich	044 554 41 41		
zurich	hotel	N/A	http://yellow.local.ch/en/d/Zurich/8008/Restaurant/JAPAN-RESTAURANT-SAKU-CA2WEyLEkCYdzo8LM0AnCw?dwhat=hotel&dwhere=zurich	JAPAN RESTAURANT SAKU	Seehofstrasse 11	 8008 Zürich	044 254 57 54	www.sakusaku.ch	
zurich	hotel	N/A	http://yellow.local.ch/en/d/Zurich/8001/Restaurant/Restaurant-La-Soupiere-_O0MTaYK-C4paHqtEIrVlg?dwhat=hotel&dwhere=zurich	Restaurant La Soupière	Bahnhofplatz 7	 8001 Zürich	044 218 88 40		
zurich	hotel	N/A	http://yellow.local.ch/en/d/Zurich/8005/Candrian-Catering-AG-6v5BYikAHWxtRf1Gd2vpqA?dwhat=hotel&dwhere=zurich	Candrian Catering AG	Konradstrasse 39	 8005 Zürich	043 366 60 00		
zurich	hotel	N/A	http://yellow.local.ch/en/d/Zurich/8001/Bar/Central-Bar-Nj00Jkn6QioXzsM3-MwQwA?dwhat=hotel&dwhere=zurich	Central Bar	Hotel Central Placa, Central 1	 8001 Zürich	044 256 56 56		
zurich	hotel	N/A	http://yellow.local.ch/en/d/Zurich/8001/Krachts-Erben-H-AG-tuuItfO84mjr58xaFTZTQQ?dwhat=hotel&dwhere=zurich	Kracht's Erben H. AG	Talstrasse 1	 8001 Zürich	044 201 08 21		
zurich	hotel	N/A	http://yellow.local.ch/en/d/Zurich/8005/Bar/Nuovo-VSCK0075sTjfKEyV1FgIGg?dwhat=hotel&dwhere=zurich	Nuovo	Pfingstweidstrasse 100	 8005 Zürich	044 285 40 42		
zurich	hotel	N/A	http://yellow.local.ch/en/d/Zurich/8001/Restaurant-Boucherie-AuGust-Zqmj-RippTLAbES4PgRY2w?dwhat=hotel&dwhere=zurich	Restaurant - Boucherie AuGust	Rennweg 1	 8001 Zürich	044 224 28 28		
zurich	hotel	N/A	http://yellow.local.ch/en/d/Zurich/8001/Bar/Schweizerhof-Bar-HK4AHxxudwXR43agoAPRUw?dwhat=hotel&dwhere=zurich	Schweizerhof Bar	Bahnhofplatz 7	 8001 Zürich	044 218 88 88		
zurich	hotel	N/A	http://yellow.local.ch/en/d/Zurich/8006/Sonnegg-AG-lETKlpK3i9QWW1RdAitoFQ?dwhat=hotel&dwhere=zurich	Sonnegg AG	Stampfenbachstrasse 34	 8006 Zürich	044 258 44 44		
zurich	hotel	N/A	http://yellow.local.ch/en/d/Zurich/8005/X-TRA-Production-AG-Om0d24flC7vdodD9p1myEQ?dwhat=hotel&dwhere=zurich	X-TRA Production AG	Limmatstrasse 118	 8005 Zürich	044 448 15 00		
zurich	hotel	N/A	http://yellow.local.ch/en/d/Winterthur/8404/Furniture-retail/Sedorama-AG-rPHhd8pvNiS7D5h2SqPouA?dwhat=hotel&dwhere=zurich	Sedorama AG	Rudolf-Diesel-Strasse 5	 8404 Winterthur	052 243 38 00	www.sedorama.ch	
zurich	hotel	N/A	http://yellow.local.ch/en/d/Egg-b-Zurich/8132/Electric-installations/Walter-Pfaffli-AG-E2TJ9UEYA7j2L4MO7tbiPw?dwhat=hotel&dwhere=zurich	Walter Pfäffli AG	Flurstrasse 11	 8132 Egg b. Zürich	044 984 12 16	www.pfaeffli-elektro.ch	
zurich	hotel	N/A	http://yellow.local.ch/en/d/Glattbrugg/8152/Movenpick-Hotel-Zurich-Airport-fBoSKyGvIVoYo0qIlb284w?dwhat=hotel&dwhere=zurich	Mövenpick Hotel Zürich-Airport	Walter Mittelholzerstrasse 8	 8152 Glattbrugg	044 808 88 88		
zurich	hotel	N/A	http://yellow.local.ch/en/d/Kloten/8302/Hotelplan-RdEW787W7WlBTAfwoofnsA?dwhat=hotel&dwhere=zurich	Hotelplan	Check-in 2	 8302 Kloten	043 816 29 47		
zurich	hotel	N/A	http://yellow.local.ch/en/d/Kloten/8302/Airport/Hotelplan-MTCH-AG-4d9xAbDf41mASkBOcPv22Q?dwhat=hotel&dwhere=zurich	Hotelplan, MTCH AG	Chec, Check-in 2	 8302 Kloten	043 816 29 47		
zurich	hotel	N/A	http://yellow.local.ch/en/d/Kloten/8302/Airport/Hotelplan-Suisse-MTCH-AG-UadBfE4i6PN-kNlo1GmzjQ?dwhat=hotel&dwhere=zurich	Hotelplan Suisse, MTCH AG	Check-in 2	 8302 Kloten	043 816 29 47		
zurich	hotel	N/A	http://yellow.local.ch/en/d/Kloten/8302/Airport/Hotelplan-MTCH-AG-Fta2YpLngf6uCta13kUyBw?dwhat=hotel&dwhere=zurich	Hotelplan, MTCH AG	Check-in 3	 8302 Kloten	043 816 30 82		
zurich	hotel	N/A	http://yellow.local.ch/en/d/Wallisellen/8304/Travel-agency/Reiseburo-Hotelplan-MTCH-AG-A2qRB4z3laip8vCtc1zSzg?dwhat=hotel&dwhere=zurich	Reisebüro Hotelplan, MTCH AG	Einkaufszentrum Glatt, Glattzentrum	 8304 Wallisellen	044 832 50 20		
zurich	hotel	N/A	http://yellow.local.ch/en/d/Glattbrugg/8152/Restaurant/Movenpick-bjnrXGJc0TfKscaRF-0muA?dwhat=hotel&dwhere=zurich	Mövenpick	Walter Mittelholzerstrasse 8	 8152 Glattbrugg	044 808 86 66		
zurich	hotel	N/A	http://yellow.local.ch/en/d/Glattbrugg/8152/Restaurant/Movenpick-W1bH18y2zjIzV89Y9f6F4g?dwhat=hotel&dwhere=zurich	Mövenpick	Walter Mittelholzerstrasse 8	 8152 Glattbrugg	044 808 89 99		
zurich	hotel	N/A	http://yellow.local.ch/en/d/Glattbrugg/8152/China-Restaurant-Dim-Sum-ntAPRMbjmz1xFNCPluUApA?dwhat=hotel&dwhere=zurich	China-Restaurant Dim Sum	Walter Mittelholzerstrasse 8	 8152 Glattbrugg	044 808 84 44		
zurich	hotel	N/A	http://yellow.local.ch/en/d/Glattbrugg/8152/Restaurant/Dim-Sum-China-Restaurant-eP3GqFUC2WgdwCG7mtAPgQ?dwhat=hotel&dwhere=zurich	Dim Sum China-Restaurant	Walter Mittelholzerstrasse 8	 8152 Glattbrugg	044 808 84 44		
zurich	hotel	N/A	http://yellow.local.ch/en/d/Rumlang/8153/Taxi/Taxi-7-Days--G62N3P2Y50Fb0luDfGhdQ?dwhat=hotel&dwhere=zurich	Taxi 7 Days	Steinfeldstrasse 15	 8153 Rümlang	076 394 00 59		
zurich	hotel	N/A	http://yellow.local.ch/en/d/Forch/8127/Interior-architecture/Atelier-Crivelli-edjpz5VuNmCABeHKdCGjAQ?dwhat=hotel&dwhere=zurich	Atelier Crivelli	Limberg 17	 8127 Forch	044 911 08 11	www.atelier-crivelli.ch	
zurich	hotel	N/A	http://yellow.local.ch/en/d/Zollikon/8702/Furniture-retail/Firth-Furniture-GmbH-t7U_4nksmG2FVIuUylDoAw?dwhat=hotel&dwhere=zurich	Firth-Furniture GmbH	Seestrasse 21	 8702 Zollikon	043 499 89 79	www.firth-furniture.ch	
zurich	hotel	N/A	http://yellow.local.ch/en/d/Glattbrugg/8152/Construction-company/Schmid-W-AG-Bau-und-Generalunternehmung-8mp-TsfgYUOVkeJWU3O0Mg?dwhat=hotel&dwhere=zurich	Schmid W. AG, Bau- und Generalunternehmung	Rohrstrasse 36	 8152 Glattbrugg	044 809 71 11	www.wschmidag.ch	
zurich	hotel	N/A	http://yellow.local.ch/en/d/Rumlang/8153/Safes/WALDIS-Tresore-AG-85HDclmGoH-juDtbh3icLQ?dwhat=hotel&dwhere=zurich	WALDIS Tresore AG	Hofwisenstrasse 20	 8153 Rümlang	043 211 12 00	www.tresore.ch	
zurich	hotel	N/A	http://yellow.local.ch/en/d/Forch/8127/Publicity/WBL-Dialog-AG-TrSYt0YVqbHFKzuectJowg?dwhat=hotel&dwhere=zurich	WBL Dialog AG	Aeschstrasse 1	 8127 Forch	043 366 22 66	www.wbl-dialog.ch	
zurich	hotel	N/A	http://yellow.local.ch/en/d/Oberhasli/8156/Kitchen-equipment/Lorenzi-AG-bCVLB3dHP71SEA13MnpLMg?dwhat=hotel&dwhere=zurich	Lorenzi AG	Breitenweg 4	 8156 Oberhasli	044 851 80 40	www.lorenzi.ch	
zurich	hotel	N/A	http://yellow.local.ch/en/d/Gossau-ZH/8625/Carpenter/Pendt-AG-rj9niyB-QcjmqptRrTOhUA?dwhat=hotel&dwhere=zurich	Pendt AG	Industriestrasse 5	 8625 Gossau ZH	044 936 51 00	www.pendt.ch	
zurich	hotel	N/A	http://yellow.local.ch/en/d/Illnau/8308/Textile-printing/Allwear-AG-Xwvw_Ezp6LSV1tjqaXjt_g?dwhat=hotel&dwhere=zurich	Allwear AG	Länggstrasse 21	 8308 Illnau	052 346 22 20	www.all-wear.ch	
zurich	hotel	N/A	http://yellow.local.ch/en/d/Zollikon/8702/Recruiters/Bonne-menagere-Lisa-Limburg-Bondy-JPazCN4keZlUFponRbBguQ?dwhat=hotel&dwhere=zurich	Bonne ménagère, Lisa Limburg- Bondy	Forchstrasse 432	 8702 Zollikon	044 396 22 96	www.hauspersonal.ch	
zurich	hotel	N/A	http://yellow.local.ch/en/d/Goldingen/8638/Sportbahnen-Atzmannig-AG--YHxIxrC1dndJwOARODhKQ?dwhat=hotel&dwhere=zurich	Sportbahnen Atzmännig AG		8638 Goldingen	055 284 64 44	www.atzmaennig.ch	
zurich	hotel	N/A	http://yellow.local.ch/en/d/Glattbrugg/8152/Restaurant/Restaurant-le-chalet-kK7iIofDWcw_6zTSYE7fUQ?dwhat=hotel&dwhere=zurich	Restaurant 'le chalet'	Walter Mittelholzerstrasse 8	 8152 Glattbrugg	044 808 85 55		
zurich	hotel	N/A	http://yellow.local.ch/en/d/Glattbrugg/8152/Restaurant/MOMENTS-Restaurant-Bar-5N1TEWWgWmK8qSsTZSSYKA?dwhat=hotel&dwhere=zurich	MOMENTS Restaurant & Bar	Schaffhauserstrasse 101	 8152 Glattbrugg	044 808 50 00		
