cityName	searchPhrase	resultNum	ypchsite	name	address1	address2	phone	website
zurich	catering	N/A	http://yellow.local.ch/en/d/Zurich/8001/Restaurant/Restaurant-Mohini-y3NVvrE8Gd0Ua1xQswyEkg?dwhat=catering&dwhere=zurich	Restaurant Mohini	Weinbergstrasse 15	 8001 Zürich	044 252 52 11	www.mohini.ch	
zurich	catering	N/A	http://yellow.local.ch/en/d/Zurich/8045/Catering-service/Shinsen-AG-YK-nkUw08kzHuVtUw_iPcw?dwhat=catering&dwhere=zurich	Shinsen AG	Staffelstrasse 10	 8045 Zürich	044 451 66 77	www.shinsen.ch	
zurich	catering	N/A	http://yellow.local.ch/en/d/Zurich/8001/Restaurant/SAIGON-jKzC1Qed4kQ5DZZzxZT9WA?dwhat=catering&dwhere=zurich	SAIGON	Sihlstrasse 97	 8001 Zürich	044 210 05 85	www.saigon.ch	
zurich	catering	N/A	http://yellow.local.ch/en/d/Zurich/8004/Restaurant/ZAATAR-pgqO7fOemFzKnGLypCkobA?dwhat=catering&dwhere=zurich	ZAATAR	Brauerstrasse 78	 8004 Zürich	043 243 80 33	www.zaatar.ch	
zurich	catering	N/A	http://yellow.local.ch/en/d/Zurich/8004/Restaurant/Keo-Inn-Thai-Restaurant-UZyJQlGJuEhyQTgL-hGosA?dwhat=catering&dwhere=zurich	Keo Inn Thai-Restaurant	Zwinglistrasse 39	 8004 Zürich	044 242 69 70	www.thai-restaurant-keo-inn.ch	
zurich	catering	N/A	http://yellow.local.ch/en/d/Zurich/8001/Catering/LaZoupa-zLmvFLCJ4u45LKt5B0nQow?dwhat=catering&dwhere=zurich	LaZoupa	Torgasse 5	 8001 Zürich	043 542 46 86	www.lazoupa.ch	
zurich	catering	N/A	http://yellow.local.ch/en/d/Zurich/8005/Restaurant/The-Lemon-Grass-Thai-Restaurant-6eJmCM4GkovHY5spX938_A?dwhat=catering&dwhere=zurich	The Lemon Grass Thai Restaurant	Limmatstrasse 199	 8005 Zürich	044 554 60 90	www.the-lemon-grass.ch	
zurich	catering	N/A	http://yellow.local.ch/en/d/Zurich/8006/Restaurant/Chetis-More-than-curry-cEnIOSYJUmdMW1pw7H5hyQ?dwhat=catering&dwhere=zurich	Cheti's - More than curry	Rigiplatz 1	 8006 Zürich	044 370 23 23	www.chetis.ch	
zurich	catering	N/A	http://yellow.local.ch/en/d/Zurich/8004/Restaurant/Don-Leone-vnVHV4n8grH1HnO_WI6Pow?dwhat=catering&dwhere=zurich	Don Leone	Bäckerstrasse 31	 8004 Zürich	044 241 01 01	www.donleone.ch	
zurich	catering	N/A	http://yellow.local.ch/en/d/Zurich/8003/Restaurant/FiveSpice-Thai-Restaurant-GCsfT-eoUU2G4FOiRmLAHg?dwhat=catering&dwhere=zurich	FiveSpice Thai Restaurant	Zweierstrasse 106	 8003 Zürich	044 450 13 85	www.fivespices.ch	
zurich	catering	N/A	http://yellow.local.ch/en/d/Zurich/8006/Takeout/The-Lemon-Grass-Thai-Take-Away-Catering-rZiYjmR-Y7GZ0bTV0A0g2g?dwhat=catering&dwhere=zurich	The Lemon Grass Thai Take Away & Catering	Universitätstrasse 31	 8006 Zürich	044 554 61 88	www.the-lemon-grass.ch	
zurich	catering	N/A	http://yellow.local.ch/en/d/Zurich/8047/Catering/Kochwerkstatt-GmbH-eJybJkIC_8YwaH5Jivt-kQ?dwhat=catering&dwhere=zurich	Kochwerkstatt GmbH	Langgrütstrasse 117	 8047 Zürich	044 493 05 33	www.kochwerkstatt.ch	
zurich	catering	N/A	http://yellow.local.ch/en/d/Zurich/8003/Grocery-store/Balasso-Betulius-GmbH-mDkQyJsiMdAt2c8F81GXNA?dwhat=catering&dwhere=zurich	Balasso & Betulius GmbH	Gertrudstrasse 68	 8003 Zürich	044 451 89 70	www.balasso-und-betulius.ch	
zurich	catering	N/A	http://yellow.local.ch/en/d/Zurich/8057/Catering-service/Catering-Zurich-Xb9LBiq1fRhXPxOq3dQCWQ?dwhat=catering&dwhere=zurich	Catering Zürich	Winterthurerstrasse 301	 8057 Zürich	043 810 09 12	www.sarys.ch	
zurich	catering	N/A	http://yellow.local.ch/en/d/Zurich/8003/Catering/Maiergrill-AG-EUHPfcGumrCOnbU2pQJzgw?dwhat=catering&dwhere=zurich	Maiergrill AG	Weststrasse 138	 8003 Zürich	0878 808 878	www.maiergrill.com	
zurich	catering	N/A	http://yellow.local.ch/en/d/Zurich/8004/Catering/HOP-Catering-0LTYowP8f2Ix9tVghIhPtQ?dwhat=catering&dwhere=zurich	HOP! Catering	Kanonengasse 20	 8004 Zürich	044 240 52 75	www.hopzueri.ch/de/gastronomie-hop-catering	
zurich	catering	N/A	http://yellow.local.ch/en/d/Zurich/8001/Restaurant/Conditorei-Peclard-im-Schober-Zurich-oHMqIqlKnXA80CEzayza_w?dwhat=catering&dwhere=zurich	Conditorei Péclard im Schober Zürich	Napfgasse 4 Niederdorf	 8001 Zürich	044 251 51 50	www.peclard-zurich.ch	
zurich	catering	N/A	http://yellow.local.ch/en/d/Zurich/8048/Catering-service/Viplunch-the-flying-7zblBPteLNUoDdx4EFalmw?dwhat=catering&dwhere=zurich	Viplunch the flying	Hohlstrasse 535	 8048 Zürich	044 400 40 40	www.viplunch.ch	
zurich	catering	N/A	http://yellow.local.ch/en/d/Zurich/8008/Restaurant/tibits-z-vjQywwKMCQWSXk1rJhkg?dwhat=catering&dwhere=zurich	tibits	Seefeldstrasse 2	 8008 Zürich	044 260 32 22		
zurich	catering	N/A	http://yellow.local.ch/en/d/Zurich/8004/Greek-cuisine/VP-Catering-ezQn9DJ3SigJX17Nwk1p7A?dwhat=catering&dwhere=zurich	VP. Catering	Ankerstrasse 16	 8004 Zürich	043 243 80 46	www.vp-catering.ch	
zurich	catering	N/A	http://yellow.local.ch/en/d/Zurich/8050/Restaurant/Malabar-Restaurant--Z4Fa8aRX1_K1ywRlytgRg?dwhat=catering&dwhere=zurich	Malabar Restaurant	Wallisellenstrasse 11	 8050 Zürich	044 311 31 17		
zurich	catering	N/A	http://yellow.local.ch/en/d/Zurich/8004/Wine-wine-trade/Buonvini-ppKAtN_vnqcT2DbsI-tuDw?dwhat=catering&dwhere=zurich	Buonvini	Zeughausstrasse 67	 8004 Zürich	043 444 74 74		
zurich	catering	N/A	http://yellow.local.ch/en/d/Zurich/8001/Restaurant/Nagasui-AG-kiY78SwOqmqPLQlfgKAyMA?dwhat=catering&dwhere=zurich	Nagasui AG	Selnaustrasse 16	 8001 Zürich	044 288 38 88		
zurich	catering	N/A	http://yellow.local.ch/en/d/Zurich/8055/Takeout/Le-Liban-Rdnw1ivNV4nxRbLtvWbu6Q?dwhat=catering&dwhere=zurich	Le Liban	Friesenbergstrasse 3	 8055 Zürich	044 310 73 11		
zurich	catering	N/A	http://yellow.local.ch/en/d/Zurich/8006/Catering-service/Mangosteen-Catering-i_84W2MzRo1noM8aQyHY2w?dwhat=catering&dwhere=zurich	Mangosteen Catering	Neumühlequai 42	 8006 Zürich	044 360 70 80		
zurich	catering	N/A	http://yellow.local.ch/en/d/Zurich/8006/Conference-facilities/Zurich-Marriott-Hotel-YuaXbhgd5tAd9OVB7bOJUA?dwhat=catering&dwhere=zurich	Zürich Marriott Hotel	Neumühlequai 42	 8006 Zürich	044 360 70 70		
zurich	catering	N/A	http://yellow.local.ch/en/d/Zurich/8050/Catering-service/Tasteria-Restaurant-und-Catering-vtJN1LTQZF8Av2kvM0bLrA?dwhat=catering&dwhere=zurich	Tasteria - Restaurant und Catering	Robert-Maillart-Strasse 14	 8050 Zürich	044 415 64 44		
zurich	catering	N/A	http://yellow.local.ch/en/d/Zurich/8003/Catering-service/AOZ-Paprika-Restaurant-und-Catering-Hg2lPa3O9qs-rNMLDFA1qw?dwhat=catering&dwhere=zurich	AOZ Paprika - Restaurant und Catering	Brahmsstrasse 22	 8003 Zürich	044 300 28 58		
zurich	catering	N/A	http://yellow.local.ch/en/d/Zurich/8048/Bakery-pastry-shop/Beck-Keller-AG-ZCzuxEgH4X4Dr9uYr7EyaA?dwhat=catering&dwhere=zurich	Beck Keller AG	Altstetterplatz 12	 8048 Zürich	043 343 08 39		
zurich	catering	N/A	http://yellow.local.ch/en/d/Zurich/8003/Catering/Christine-Neidhart-GmbH-HSIhAAQEQtmIyRfrehbevg?dwhat=catering&dwhere=zurich	Christine Neidhart GmbH	Weststrasse 17	 8003 Zürich	076 411 24 20		
zurich	catering	N/A	http://yellow.local.ch/en/d/Zurich/8047/Butcher/Metzgerei-Kunzli-AG-MM4L3i7AA_D8cKerDLIWAg?dwhat=catering&dwhere=zurich	Metzgerei Künzli AG	Letzigraben 149	 8047 Zürich	044 492 16 56	www.metzgereikuenzli.ch	
zurich	catering	N/A	http://yellow.local.ch/en/d/Zurich/8057/Restaurant/Ristorante-Pizzeria-Tramblu-0mY2oqm3pSf6gXctSk10Hg?dwhat=catering&dwhere=zurich	Ristorante Pizzeria Tramblu	Bucheggstrasse 103	 8057 Zürich	044 364 50 13	www.tramblu.ch	
zurich	catering	N/A	http://yellow.local.ch/en/d/Zurich/8057/Catering-service/Gnadinger-am-Schaffhauserplatz-AG-E1CsyggnjETd3xoyC48bAw?dwhat=catering&dwhere=zurich	Gnädinger am Schaffhauserplatz AG	Schaffhauserstrasse 57 /Schaffhauserplatz	 8057 Zürich	044 360 23 90	www.gnaedingerplatz.ch	
zurich	catering	N/A	http://yellow.local.ch/en/d/Zurich/8001/Takeout/SelnauWok-GmbH-cFZg46usP01St4pdWe4QVw?dwhat=catering&dwhere=zurich	SelnauWok GmbH	Selnaustrasse 5	 8001 Zürich	044 202 64 77	www.selnauwok.ch	
zurich	catering	N/A	http://yellow.local.ch/en/d/Zurich/8003/Bakery-pastry-shop/Maadan-Bakery-GmbH-nOQNjAtuErW6IuTNsx8rcw?dwhat=catering&dwhere=zurich	Ma'adan Bakery GmbH	Schimmelstrasse 1	 8003 Zürich	044 762 40 60	Go to website	
zurich	catering	N/A	http://yellow.local.ch/en/d/Zurich/8008/Horse-butchers-shop/Seefeld-Metzgerei--9Xv_amsPUaCb82eHugktw?dwhat=catering&dwhere=zurich	Seefeld Metzgerei	Seefeldstrasse 181	 8008 Zürich	044 422 33 56	www.seefeldmetzgerei.ch	
zurich	catering	N/A	http://yellow.local.ch/en/d/Zurich/8001/Restaurant/Churrasco-swz8pt6-7g8It4bn9EIx-g?dwhat=catering&dwhere=zurich	Churrasco	Glockengasse 9	 8001 Zürich	044 221 11 44		
zurich	catering	N/A	http://yellow.local.ch/en/d/Zurich/8048/Catering-service/Erlebnisrestaurant-Triibhuus-Gitano-SA-_n9WFTGA_XG6AL89_jMvtw?dwhat=catering&dwhere=zurich	Erlebnisrestaurant Triibhuus Gitano SA	Salzweg 50	 8048 Zürich	044 434 10 30		
zurich	catering	N/A	http://yellow.local.ch/en/d/Zurich/8001/Restaurant/Indisches-Restaurant-Kormasutra-goUBgR08jM_gXZLyqrZnfg?dwhat=catering&dwhere=zurich	Indisches Restaurant Kormasutra	Mühlegasse 5	 8001 Zürich	044 252 48 48		
zurich	catering	N/A	http://yellow.local.ch/en/d/Zurich/8048/Restaurant/Triibhuus-Erlebinsrestaurant-Gitano-SA-fkrlKvQOJ7kQZjYfofZ1zA?dwhat=catering&dwhere=zurich	Triibhuus Erlebinsrestaurant Gitano SA	Salzweg 50	 8048 Zürich	044 434 10 30		
zurich	catering	N/A	http://yellow.local.ch/en/d/Zurich/8001/Restaurant/Candrian-Catering-AG-UduS9hXB-hyG1AxU50BAXg?dwhat=catering&dwhere=zurich	Candrian Catering AG	Uraniastrasse 9	 8001 Zürich	043 888 66 66		
zurich	catering	N/A	http://yellow.local.ch/en/d/Zurich/8001/Restaurant/Candrian-Catering-AG-YbM6KkHfr9ota0g_xiRY7w?dwhat=catering&dwhere=zurich	Candrian Catering AG	Bahnhofplatz 15	 8001 Zürich	044 217 15 50		
zurich	catering	N/A	http://yellow.local.ch/en/d/Zurich/8001/Restaurant/Candrian-Catering-AG-ufS2llrQfC695x8Ybwq05g?dwhat=catering&dwhere=zurich	Candrian Catering AG	Bahnhofplatz 15	 8001 Zürich	044 217 15 70		
zurich	catering	N/A	http://yellow.local.ch/en/d/Zurich/8001/Restaurant/Candrian-Catering-AG-4OAg-DBiatyvpzZhXcQsQw?dwhat=catering&dwhere=zurich	Candrian Catering AG	Bahnhofplatz 15	 8001 Zürich	044 217 15 82		
zurich	catering	N/A	http://yellow.local.ch/en/d/Zurich/8001/Restaurant/Candrian-Catering-AG-ZUtvtTCiITzJXljr-PlmZA?dwhat=catering&dwhere=zurich	Candrian Catering AG	Bahnhofplatz 15	 8001 Zürich	044 217 15 55		
zurich	catering	N/A	http://yellow.local.ch/en/d/Zurich/8001/Cafes/Candrian-Catering-AG-Qo_wtHh4rv6ligdtupJSuA?dwhat=catering&dwhere=zurich	Candrian Catering AG	Bahnhofplatz 15	 8001 Zürich	044 217 15 15		
zurich	catering	N/A	http://yellow.local.ch/en/d/Zurich/8001/Restaurant/Candrian-Catering-AG-mxmdWMuNq2K_3nwID_NtDQ?dwhat=catering&dwhere=zurich	Candrian Catering AG	Bahnhofplatz 15	 8001 Zürich	044 217 15 66		
zurich	catering	N/A	http://yellow.local.ch/en/d/Zurich/8045/Candrian-Catering-AG-as-lp27d1vKw_Ed2NmiDYA?dwhat=catering&dwhere=zurich	Candrian Catering AG	Kalanderplatz 1	 8045 Zürich	044 201 24 04		
zurich	catering	N/A	http://yellow.local.ch/en/d/Zurich/8049/Restaurant/Maharani-Indian-qxw7pG8_qYL5jV6ZVty88g?dwhat=catering&dwhere=zurich	Maharani Indian	Wartauweg 18	 8049 Zürich	043 300 45 55		
zurich	catering	N/A	http://yellow.local.ch/en/d/Zurich/8037/Restaurant/Taj-Palace-8aD3pKofQlExm0RLdl3Drg?dwhat=catering&dwhere=zurich	Taj Palace	Hönggerstrasse 25	 8037 Zürich	044 271 67 20		
zurich	catering	N/A	http://yellow.local.ch/en/d/Zurich/8008/Takeout/Tiffins-Catering-Service-HCXHXqM7erqTa8QXksfiPQ?dwhat=catering&dwhere=zurich	Tiffins Catering Service	Seefeldstrasse 61	 8008 Zürich	044 382 18 88		
zurich	catering	N/A	http://yellow.local.ch/en/d/Zurich/8002/Appetitliches-von-Schneiders-Partyservice-Catering-Events-_87sXeqaYXBF8BfXkBt5GQ?dwhat=catering&dwhere=zurich	Appetitliches von Schneiders Partyservice Catering & Events	Gartenstrasse 11	 8002 Zürich	044 508 02 15	www.schneiders-partyservice.ch	
zurich	catering	N/A	http://yellow.local.ch/en/d/Zurich/8004/Catering-service/Wuerstli-Heinzch-4tFJIv-Jny0Pt6YoV_eXUg?dwhat=catering&dwhere=zurich	Wuerstli-Heinz.ch	Herdernstrasse 84	 8004 Zürich	043 311 02 05	www.wuerstli-heinz.ch	
zurich	catering	N/A	http://yellow.local.ch/en/d/Zurich/8001/Candrian-Catering-AG-kFnK_y5u26cfEwyMuBSvPQ?dwhat=catering&dwhere=zurich	Candrian Catering AG	Sechseläutenplatz 10	 8001 Zürich	044 222 20 30		
zurich	catering	N/A	http://yellow.local.ch/en/d/Zurich/8001/Restaurant/Candrian-Catering-AG-SC_isac170058-YNgkCsaQ?dwhat=catering&dwhere=zurich	Candrian Catering AG	Bahnhofplatz 15	 8001 Zürich	044 217 15 84		
zurich	catering	N/A	http://yellow.local.ch/en/d/Zurich/8001/Cafes/Candrian-Catering-AG-4LSAE4Hx6Z5EpSxNKxOoHw?dwhat=catering&dwhere=zurich	Candrian Catering AG	Bahnhofplatz 15	 8001 Zürich	044 217 15 15		
zurich	catering	N/A	http://yellow.local.ch/en/d/Zurich/8053/Restaurant/Crown-of-India-GmbH-hRwrRKx76ggVpIM6TCDHMg?dwhat=catering&dwhere=zurich	Crown of India GmbH	Witikonerstrasse 375	 8053 Zürich	043 499 02 02		
zurich	catering	N/A	http://yellow.local.ch/en/d/Zurich/8005/Restaurant/Restaurant-Himalaya-OY6WFwjn5uOCJyBjL6cm-w?dwhat=catering&dwhere=zurich	Restaurant Himalaya	Ackerstrasse 52	 8005 Zürich	044 550 44 00	www.himalaya-restaurant.ch	
zurich	catering	N/A	http://yellow.local.ch/en/d/Schlieren/8952/Catering/Fingerfood-Factory-7dWYXy58v66PDQs4irB0wQ?dwhat=catering&dwhere=zurich	Fingerfood Factory	Bühlackerstrasse 5D	 8952 Schlieren	044 731 33 33	www.fingerfood.ch	
zurich	catering	N/A	http://yellow.local.ch/en/d/Glattpark-Opfikon/8152/Seminar/ara-glatt-Seminarraume-und-Events-QOvJ72JrpN8BfP1CpZdptA?dwhat=catering&dwhere=zurich	ara glatt, Seminarräume und Events	Orion-Strasse 165	 8152 Glattpark (Opfikon)	044 645 67 67	www.araglatt.ch	
zurich	catering	N/A	http://yellow.local.ch/en/d/Kloten/8302/Catering/Options-Schweiz-AG-G-DyvFqWH8Q_XEDmr9U2nw?dwhat=catering&dwhere=zurich	Options (Schweiz) AG	Steinackerstrasse 55	 8302 Kloten	044 738 20 30	www.options.ch	
zurich	catering	N/A	http://yellow.local.ch/en/d/Zurich/8006/Recruiters/Adecco-Hotel-Catering-1YEyfD9wDwv_rDNfGO8u_A?dwhat=catering&dwhere=zurich	Adecco Hotel & Catering	Stampfenbachstrasse 138	 8006 Zürich	058 233 39 00		
zurich	catering	N/A	http://yellow.local.ch/en/d/Zurich/8006/Indian-cuisine/Bombay-Karachi-Take-Away-8k5w4m8bFkqaG0om03dXuA?dwhat=catering&dwhere=zurich	Bombay Karachi Take-Away	Stampfenbachstrasse 32	 8006 Zürich	044 262 65 00		
zurich	catering	N/A	http://yellow.local.ch/en/d/Zurich/8052/Catering-service/Calleri-Michele-_7cBw4Gv3gQM3XVRgQIpEw?dwhat=catering&dwhere=zurich	Calleri Michele	Bahnhaldenstrasse 17	 8052 Zürich	044 271 05 62		
zurich	catering	N/A	http://yellow.local.ch/en/d/Zurich/8001/Restaurant/Candrian-Catering-AG-VOS8DZ_knyvYLdpqRlAssQ?dwhat=catering&dwhere=zurich	Candrian Catering AG	Bahnhofplatz 15	 8001 Zürich	044 217 15 85		
zurich	catering	N/A	http://yellow.local.ch/en/d/Zurich/8001/Restaurant/Candrian-Catering-AG-U3AUG-dfqGHlXod1e2J4Qg?dwhat=catering&dwhere=zurich	Candrian Catering AG	Bahnhofplatz 15	 8001 Zürich	044 217 15 86		
zurich	catering	N/A	http://yellow.local.ch/en/d/Zurich/8001/Restaurant/Candrian-Catering-AG-u7jUayi4qkaQR3sbhDyC9w?dwhat=catering&dwhere=zurich	Candrian Catering AG	Bahnhofplatz 15	 8001 Zürich	044 217 15 10		
zurich	catering	N/A	http://yellow.local.ch/en/d/Zurich/8001/Takeout/Candrian-Catering-AG-f_gKLxDCn8XL3liWFPDHdQ?dwhat=catering&dwhere=zurich	Candrian Catering AG	Bahnhofplatz 15	 8001 Zürich	044 217 15 15		
zurich	catering	N/A	http://yellow.local.ch/en/d/Zurich/8001/Cafes/Candrian-Catering-AG-9J99yeNSgHrXWAyfWr0sVg?dwhat=catering&dwhere=zurich	Candrian Catering AG	Bahnhofplatz 15	 8001 Zürich	044 217 15 15		
zurich	catering	N/A	http://yellow.local.ch/en/d/Zurich/8001/Takeout/Candrian-Catering-AG-9SeAE12gIkye6XdPZ4lUfw?dwhat=catering&dwhere=zurich	Candrian Catering AG	Bahnhofplatz 15	 8001 Zürich	044 217 15 15		
zurich	catering	N/A	http://yellow.local.ch/en/d/Zurich/8004/Cassis-Catering-GmbH-OCb31e6Ftd0Cp8D0p1hXLg?dwhat=catering&dwhere=zurich	Cassis Catering GmbH	Wengistrasse 31	 8004 Zürich	043 243 31 00		
zurich	catering	N/A	http://yellow.local.ch/en/d/Zurich/8001/Catering-service/Churrasco-Steakhouse-Bar-ib6RKssr9YBBb_K5vcJ8kw?dwhat=catering&dwhere=zurich	Churrasco Steakhouse & Bar	Stampfenbachstrasse 6	 8001 Zürich	044 261 24 24		
zurich	catering	N/A	http://yellow.local.ch/en/d/Zurich/8001/Catering-service/Cuisiniera-GmbH-oRvGpYn_JNO37n-b-yaSWg?dwhat=catering&dwhere=zurich	Cuisiniera GmbH	Uraniastrasse 16	 8001 Zürich	079 263 27 77		
zurich	catering	N/A	http://yellow.local.ch/en/d/Zurich/8037/Home-delivery-service/Flying-Pizza-vuk_kmP1cyuUw09Yu70blA?dwhat=catering&dwhere=zurich	Flying Pizza	Nordstrasse 245	 8037 Zürich	044 440 32 32		
zurich	catering	N/A	http://yellow.local.ch/en/d/Zurich/8002/GAUCHO-Catering-GmbH-eIgTD9smxa6YjkRk8ij95Q?dwhat=catering&dwhere=zurich	GAUCHO Catering GmbH	Bederstrasse 77	 8002 Zürich	044 201 11 70		
zurich	catering	N/A	http://yellow.local.ch/en/d/Zurich/8004/Catering-service/Guets-Guggeli-vom-Eris-tpxydlmz7xevvkherKFd8g?dwhat=catering&dwhere=zurich	Guet's Güggeli vom Eris	Hohlstrasse 216	 8004 Zürich	079 634 81 43		
zurich	catering	N/A	http://yellow.local.ch/en/d/Zurich/8004/Guttmann-Catering-R1gKXUKR8vSOUlP-HyPIZA?dwhat=catering&dwhere=zurich	Guttmann-Catering,	St. Jakobstrasse 59	 8004 Zürich	044 242 37 55		
zurich	catering	N/A	http://yellow.local.ch/en/d/Zurich/8032/Catering-service/MAs-Chinese-Cooking-tRTh2I8YOeTfqg8Q29kwdw?dwhat=catering&dwhere=zurich	MA's Chinese Cooking	Hottingerstrasse 13	 8032 Zürich	079 341 04 17		
zurich	catering	N/A	http://yellow.local.ch/en/d/Zurich/8005/Catering-service/Migros-Catering-Services-B0AAYwo_g0FxVui74MJfpQ?dwhat=catering&dwhere=zurich	Migros Catering Services	Pfingstweidstrasse 101	 8005 Zürich	058 561 58 50		
zurich	catering	N/A	http://yellow.local.ch/en/d/Zurich/8048/Mischa-Seeholzer-Catering-DJMkVAswvZWUyGU8UJQ9IA?dwhat=catering&dwhere=zurich	Mischa Seeholzer Catering	Albulastrasse 47	 8048 Zürich	043 818 56 56		
zurich	catering	N/A	http://yellow.local.ch/en/d/Zurich/8001/Orient-Catering-GmbH-9ei204kiah1ZL--aIeMFbA?dwhat=catering&dwhere=zurich	Orient Catering GmbH	Weinbergfussweg 4	 8001 Zürich	044 201 46 47		
zurich	catering	N/A	http://yellow.local.ch/en/d/Zurich/8055/Catering-service/Palu-Goldbrunnen-GmbH-8ZO6H9Sl_DZIEdFUG6xmVg?dwhat=catering&dwhere=zurich	Palu Goldbrunnen GmbH	Goldbrunnenstrasse 57	 8055 Zürich	044 461 39 80		
zurich	catering	N/A	http://yellow.local.ch/en/d/Zurich/8003/Takeout/Pizzacasa-GmbH-7yNKrJc5xaO9kde30JWUFg?dwhat=catering&dwhere=zurich	Pizzacasa GmbH	Badenerstrasse 281	 8003 Zürich	0 433 110 433		
zurich	catering	N/A	http://yellow.local.ch/en/d/Zurich/8055/Schopfer-Catering-AG-fgnR8bn6o5hOdq5W3d9cng?dwhat=catering&dwhere=zurich	Schöpfer Catering AG	Friesenbergstrasse 75	 8055 Zürich	043 333 10 77		
zurich	catering	N/A	http://yellow.local.ch/en/d/Zurich/8001/Restaurant-equipment-rental/tempSTAFF-AG-xlgTTL-3HcO3AOj8TQKt1A?dwhat=catering&dwhere=zurich	tempSTAFF AG	Untere Zäune 11	 8001 Zürich	044 251 09 17		
zurich	catering	N/A	http://yellow.local.ch/en/d/Zurich/8032/Caterer/Vier-Linden-UB8dUiEKXIkkV-1kYI1XOw?dwhat=catering&dwhere=zurich	Vier Linden	Gemeindestrasse 51	 8032 Zürich	044 268 88 14		
zurich	catering	N/A	http://yellow.local.ch/en/d/Herrliberg/8704/Catering/Baldellis-Catering-und-Events-NV8vbCPPkomroCepB-KB8Q?dwhat=catering&dwhere=zurich	Baldelli's Catering und Events	Aryanastrasse 21	 8704 Herrliberg	076 386 04 94	www.baldellis-catering.ch	
zurich	catering	N/A	http://yellow.local.ch/en/d/Hochfelden/8182/Catering-service/Partyservice-Muller-AG-ZQ2ajJdsiTjUGHbLpBcTuQ?dwhat=catering&dwhere=zurich	Partyservice Müller AG	Dorfstrasse 6	 8182 Hochfelden	044 860 56 64	www.partyservice-mueller.ch	
zurich	catering	N/A	http://yellow.local.ch/en/d/Zollikon/8702/Catering/Tietzes-MWsEf4C8hPDt41PcUQnz0Q?dwhat=catering&dwhere=zurich	Tietze's	Seestrasse 11	 8702 Zollikon	043 499 75 20	www.tietzes.ch	
zurich	catering	N/A	http://yellow.local.ch/en/d/Meilen/8706/Catering/Fink-Traiteur-Catering-RC68hKL1lB2IvsbC0Jd5-Q?dwhat=catering&dwhere=zurich	Fink Traiteur Catering	Seestrasse 842-844	 8706 Meilen	044 923 63 93		
zurich	catering	N/A	http://yellow.local.ch/en/d/Urdorf/8902/Catering-service/DineShine-SV-Schweiz-AG-pi5HipBNoRh2_A81Yy8blw?dwhat=catering&dwhere=zurich	Dine&Shine SV (Schweiz) AG	Steinackerstrasse 43	 8902 Urdorf	044 405 78 78		
zurich	catering	N/A	http://yellow.local.ch/en/d/Furstenau/7414/Catering/acasa-Catering-YNq70-zmZyk8_op5yafD3w?dwhat=catering&dwhere=zurich	acasa Catering	Schlossgass	 7414 Fürstenau	079 632 02 02		
zurich	catering	N/A	http://yellow.local.ch/en/d/Glattbrugg/8152/Catering/Artichoque-Catering-AG-exqBaqwZkKClEwquZz6XXg?dwhat=catering&dwhere=zurich	Artichoque Catering AG	Giebeleichstrasse 92	 8152 Glattbrugg	044 242 53 59		
zurich	catering	N/A	http://yellow.local.ch/en/d/Kloten/8302/Catering/Bijoux-Catering-Zurich-WAnP66iH0PCHEel1ZbvX_A?dwhat=catering&dwhere=zurich	Bijoux Catering Zürich	Bimenzältenstrasse 34	 8302 Kloten	043 553 12 07		
zurich	catering	N/A	http://yellow.local.ch/en/d/Hinwil/8340/Catering/Brunoldi-Catering-GmbH-oTKNcr_h8yt92HRgWFEOhA?dwhat=catering&dwhere=zurich	Brunoldi Catering GmbH	In der Mühle 2	 8340 Hinwil	044 937 51 55		
zurich	catering	N/A	http://yellow.local.ch/en/d/Kleinandelfingen/8451/Catering/East2west-catering-GmbH-gsm8CZztyB5PmkPSW4yW8Q?dwhat=catering&dwhere=zurich	East2west catering GmbH	Einfangstrasse 12	 8451 Kleinandelfingen	079 468 43 83		
zurich	catering	N/A	http://yellow.local.ch/en/d/Winterthur/8404/Catering-service/Ethno-Catering-AG-mHGKVP3R9VCEoZ8gmoD4zQ?dwhat=catering&dwhere=zurich	Ethno Catering AG	Industriepark Oberwinterthur, Sulzerallee 32	 8404 Winterthur	052 214 15 45		
zurich	catering	N/A	http://yellow.local.ch/en/d/Dietikon/8953/Catering/Frapolli-Catering-Service-F3nVyZKtnpVyBk1mrRJbGg?dwhat=catering&dwhere=zurich	Frapolli Catering Service	Elisenstrasse 10	 8953 Dietikon	044 745 44 00		
zurich	catering	N/A	http://yellow.local.ch/en/d/Winterthur/8406/Takeout/Koreana-Food-Delivery-kuRGF-udq-tSCq_jK7B3cw?dwhat=catering&dwhere=zurich	Koreana Food Delivery	Tössfeldstrasse 37	 8406 Winterthur	052 233 37 37		
zurich	catering	N/A	http://yellow.local.ch/en/d/Stafa/8712/Catering-service/Passe-Vite-GmbH-BKMnYXntx2LXbk2UBCvYiw?dwhat=catering&dwhere=zurich	Passe-Vite GmbH	Bergstrasse 7	 8712 Stäfa	043 477 06 40		
zurich	catering	N/A	http://yellow.local.ch/en/d/Adliswil/8134/Catering/Segantini-Catering-Ltd-RkR-q4NHFGy6gFL4rCvKkg?dwhat=catering&dwhere=zurich	Segantini Catering Ltd.	Soodring 34	 8134 Adliswil	044 771 11 33		
zurich	catering	N/A	http://yellow.local.ch/en/d/Rorbas/8427/Catering/The-Catering-Delivering-Emotions-GmbH-KDnpl0TTRv_WYCFP67-8DQ?dwhat=catering&dwhere=zurich	The Catering-Delivering Emotions GmbH	Zilacherstrasse 5	 8427 Rorbas	043 540 76 83		
zurich	catering	N/A	http://yellow.local.ch/en/d/Bruttisellen/8306/Restaurant-equipment-rental/your-catering-GmbH-5lMcoRzCmU0ZTHKcvc9cog?dwhat=catering&dwhere=zurich	your catering GmbH	Ruchstuckstrasse 14	 8306 Brüttisellen	043 495 56 50		
zurich	catering	N/A	http://yellow.local.ch/en/d/Zurich/8008/Restaurant/Cafe-Black-_49f4gzptafku1dgX1-fqA?dwhat=catering&dwhere=zurich	Café Black	Färberstrasse 6	 8008 Zürich	044 252 45 10	www.cafeblack.ch	
zurich	catering	N/A	http://yellow.local.ch/en/d/Zurich/8002/Restaurant/Don-Leone-jBzM5Rapde2uAbBO4pOqOQ?dwhat=catering&dwhere=zurich	Don Leone	Waffenplatzstrasse 15	 8002 Zürich	044 281 94 30	www.donleone.ch	
zurich	catering	N/A	http://yellow.local.ch/en/d/Zurich/8008/Restaurant/Tres-Kilos-MKmpGp8ZFInsdKeNStRk7A?dwhat=catering&dwhere=zurich	Tres Kilos	Dufourstrasse 175	 8008 Zürich	044 422 02 33	www.treskilos.ch	
zurich	catering	N/A	http://yellow.local.ch/en/d/Zurich/8048/Restaurant/Pizza-Zuri-5A-dhdQR4Tw_1vw1eXv0iw?dwhat=catering&dwhere=zurich	Pizza Züri	Badenerstrasse 558	 8048 Zürich	044 492 82 82	www.pizzazueri.ch	
zurich	catering	N/A	http://yellow.local.ch/en/d/Zurich/8004/Restaurant/thach-restaurant-dfysDArSTMraD6d-UNBSTw?dwhat=catering&dwhere=zurich	thach restaurant	Militärstrasse 84	 8004 Zürich	043 243 37 27	www.thach-gastro.ch	
zurich	catering	N/A	http://yellow.local.ch/en/d/Zurich/8004/Restaurant/Caduffs-Wine-Loft-d3Gm9JrlAcJtJhzcWkHPkw?dwhat=catering&dwhere=zurich	Caduff's Wine Loft	Kanzleistrasse 126	 8004 Zürich	044 240 22 55	www.wineloft.ch	
zurich	catering	N/A	http://yellow.local.ch/en/d/Zurich/8001/Restaurant/Commihalle-cSfn_ZAcycAebg_c6m4yLg?dwhat=catering&dwhere=zurich	Commihalle	Stampfenbachstrasse 8	 8001 Zürich	044 250 59 60	www.commercio.ch/commihalle	
zurich	catering	N/A	http://yellow.local.ch/en/d/Zurich/8008/Restaurant/Blaue-Ente-N-cXLa7bitDFMl6bsrv6AQ?dwhat=catering&dwhere=zurich	Blaue Ente	Mühle Tiefenbrunnen, Seefeldstrasse 223	 8008 Zürich	044 388 68 40	www.blaue-ente.ch	
zurich	catering	N/A	http://yellow.local.ch/en/d/Zurich/8002/Restaurant/Restaurant-San-Marco-q2IinPRtSNyqwF1H_p65jA?dwhat=catering&dwhere=zurich	Restaurant San Marco	General-Wille-Strasse 21	 8002 Zürich	044 201 71 66	www.san-marco.ch	
zurich	catering	N/A	http://yellow.local.ch/en/d/Zurich/8001/Restaurant/Zunfthaus-zur-Waag-UuNFCVXVJ8xrFlIXKoMfEw?dwhat=catering&dwhere=zurich	Zunfthaus zur Waag	Münsterhof 8	 8001 Zürich	044 216 99 66	www.zunfthaus-zur-waag.ch	
zurich	catering	N/A	http://yellow.local.ch/en/d/Zurich/8002/Restaurant/Belvoirpark-Restaurant-Tibq2KtHTc0Ti1iiNjpAFA?dwhat=catering&dwhere=zurich	Belvoirpark Restaurant	Seestrasse 125	 8002 Zürich	044 286 88 44	www.belvoirpark.ch	
zurich	catering	N/A	http://yellow.local.ch/en/d/Zurich/8004/Caduff-Beat-eD3-f_3TP1cLMRhzGhcuZA?dwhat=catering&dwhere=zurich	Caduff Beat	Kanzleistrasse 126	 8004 Zürich	044 240 22 55	www.wineloft.ch	
zurich	catering	N/A	http://yellow.local.ch/en/d/Zurich/8003/La-Favorita--3IUdcUH-RgtyoHNNSR5nw?dwhat=catering&dwhere=zurich	La Favorita	Birmensdorferstrasse 169	 8003 Zürich	044 450 15 15	www.lafavorita.ch	
zurich	catering	N/A	http://yellow.local.ch/en/d/Zurich/8001/Sporting-goods/Och-Sport-AG-93RXHCeEKFqCFLJH4hLQiw?dwhat=catering&dwhere=zurich	Och Sport AG	Bahnhofstrasse 56	 8001 Zürich	044 215 21 21	www.ochsport.ch	
zurich	catering	N/A	http://yellow.local.ch/en/d/Zurich/8002/Sauna/Sauna-am-See-CyrFYCxasDO1GvGlrMka4g?dwhat=catering&dwhere=zurich	Sauna am See	Mythenquai 9	 8002 Zürich	044 201 38 89	www.tonttu.ch	
zurich	catering	N/A	http://yellow.local.ch/en/d/Zurich/8048/Restaurant-equipment-rental/Sodexo-Suisse-SA-wrQCCCfTOx8m1KtBHF2QPw?dwhat=catering&dwhere=zurich	Sodexo (Suisse) SA	Hohlstrasse 614	 8048 Zürich	044 305 80 60	www.sodexo.ch	
zurich	catering	N/A	http://yellow.local.ch/en/d/Zurich/8001/Casinos/Swiss-Casinos-Zurich-AG-vxuvLJYnKHcAkQ_NLSDNYg?dwhat=catering&dwhere=zurich	Swiss Casinos Zürich AG	Gessnerallee 3- 5	 8001 Zürich	043 330 30 30	www.swisscasinos.ch	
zurich	catering	N/A	http://yellow.local.ch/en/d/Zurich/8001/Japanese-cuisine/Takano-City-crORKanLMxXtanFeK8MakA?dwhat=catering&dwhere=zurich	Takano City	Löwenstrasse 29	 8001 Zürich	044 463 22 28	www.takano.ch	
zurich	catering	N/A	http://yellow.local.ch/en/d/Zurich/8004/Real-Estate/GUSTAV-Apartments-Residenz-axWP92xw9yqWengQF4V2mw?dwhat=catering&dwhere=zurich	GUSTAV Apartments & Residenz	Gustav-Gull-Platz 5	 8004 Zürich	044 250 65 00	www.gustav-zuerich.ch	
zurich	catering	N/A	http://yellow.local.ch/en/d/Zurich/8051/MPTechnic-AG-SQhXGI1jdDHCHZ6RgEIAAA?dwhat=catering&dwhere=zurich	MPTechnic AG	Hirzenbachstrasse 102	 8051 Zürich	044 320 10 80	www.mptechnic.ch	
zurich	catering	N/A	http://yellow.local.ch/en/d/Zurich/8004/Vietnamese-cuisine/PHO-50-bq_RXbV68P6MRPuaKJwuSw?dwhat=catering&dwhere=zurich	PHO 50	Zypressenstrasse 50	 8004 Zürich	043 317 92 43	www.pho50.ch	
zurich	catering	N/A	http://yellow.local.ch/en/d/Zurich/8003/Restaurant/Restaurant-Mesob-s2DtnBPMcl75npBt6KUrMA?dwhat=catering&dwhere=zurich	Restaurant Mesob	Rotachstrasse 33	 8003 Zürich	043 960 02 51	www.mesob-restaurant.ch	
zurich	catering	N/A	http://yellow.local.ch/en/d/Zurich/8045/Restaurant/Restaurant-Rampe-Sud-ktcHVtUaA2IGi5_CYbYAZg?dwhat=catering&dwhere=zurich	Restaurant Rampe Süd	Kalandergasse 1	 8045 Zürich	044 554 00 00	www.fourpointszurich.com	
zurich	catering	N/A	http://yellow.local.ch/en/d/Zurich/8045/Restaurant-Rusterei-_tWvnkEBwuHK0Wtk0aOUdw?dwhat=catering&dwhere=zurich	Restaurant Rüsterei	Kalanderplatz 6	 8045 Zürich	044 317 19 19	www.ruesterei.ch	
zurich	catering	N/A	http://yellow.local.ch/en/d/Zurich/8045/Restaurant/Ristorante-Verona-cyg9urHUdepq3Gp8Id0GNg?dwhat=catering&dwhere=zurich	Ristorante Verona	Uetlibergstrasse 30	 8045 Zürich	044 451 47 57	www.restaurantverona.ch	
zurich	catering	N/A	http://yellow.local.ch/en/d/Zurich/8045/Restaurant/Schutzenhaus-Albisgutli-5GBj0ilLYS2VFIC3ylpNIg?dwhat=catering&dwhere=zurich	Schützenhaus Albisgütli	Uetlibergstrasse 341	 8045 Zürich	043 333 30 00	www.albisguetli.ch	
zurich	catering	N/A	http://yellow.local.ch/en/d/Zurich/8032/sintegrA-zurich-Geschaftsstelle-Ta1UxL0Nv3mrD6OxGbJ1Xw?dwhat=catering&dwhere=zurich	sintegrA zürich Geschäftsstelle	Hofackerstrasse 36	 8032 Zürich	044 269 69 00	www.sintegra-zh.ch	
zurich	catering	N/A	http://yellow.local.ch/en/d/Zurich/8047/Bakery-pastry-shop/St-Jakob-Beck-7P3LtqSgFgBckdjnOzd7Dg?dwhat=catering&dwhere=zurich	St. Jakob Beck	Püntstrasse 12	 8047 Zürich	044 492 28 38	www.st-jakob.ch	
zurich	catering	N/A	http://yellow.local.ch/en/d/Zurich/8001/Organisation-development/Winizki-Eva-FqevVZroPtsjm_mtnFdfow?dwhat=catering&dwhere=zurich	Winizki Eva	Sihlstrasse 99	 8001 Zürich	044 251 04 51	www.evawinizki.ch	
zurich	catering	N/A	http://yellow.local.ch/en/d/Zurich/8004/Ice-cream-parlors/Yoomoo-fat-free-frozen-yogurt-Simply-Soup-GmbH-g9d93eKjWdq3KQzcelghDQ?dwhat=catering&dwhere=zurich	Yoomoo fat free frozen yogurt / Simply Soup GmbH	Hallwylstrasse 24	 8004 Zürich	043 497 22 32	www.yoomoo.com/ch	
zurich	catering	N/A	http://yellow.local.ch/en/d/Zurich/8005/Restaurant/Yoshino-o0LkRGA7e1Z2zSgvoHtYZQ?dwhat=catering&dwhere=zurich	Yoshino	Hafnerstrasse 9	 8005 Zürich	044 271 22 22	www.yoshino.ch	
zurich	catering	N/A	http://yellow.local.ch/en/d/Zurich/8001/Restaurant/Ban-Song-Thai-e-OyP8BuRHWa_uFZnWx10Q?dwhat=catering&dwhere=zurich	Ban Song Thai	Kirchgasse 6	 8001 Zürich	044 252 33 31		
zurich	catering	N/A	http://yellow.local.ch/en/d/Zurich/8050/Restaurant/Cheyenne-NU-rSFZW6o1iJ20pABoSHA?dwhat=catering&dwhere=zurich	Cheyenne	Querstrasse 3	 8050 Zürich	044 313 90 90		
zurich	catering	N/A	http://yellow.local.ch/en/d/Zurich/8002/Restaurant/Juan-Costa-Restaurant-am-Bleicherweg-Old-Inn-ibKa_fcjaiWSFWVVWPdd0Q?dwhat=catering&dwhere=zurich	Juan Costa Restaurant am Bleicherweg Old Inn	Bleicherweg 47	 8002 Zürich	044 286 51 15		
zurich	catering	N/A	http://yellow.local.ch/en/d/Zurich/8005/Restaurant/La-Contrada-iyBhMdjRd6jPrT7C3FWD2w?dwhat=catering&dwhere=zurich	La Contrada	Heinrichstrasse 83	 8005 Zürich	044 272 50 90		
zurich	catering	N/A	http://yellow.local.ch/en/d/Zurich/8002/Restaurant/Orangerie-Restaurant-jVcPxH46m4BqV5bkGKlG-Q?dwhat=catering&dwhere=zurich	Orangerie Restaurant	Engimattstrasse 14	 8002 Zürich	044 284 16 16		
zurich	catering	N/A	http://yellow.local.ch/en/d/Zurich/8001/Restaurant/Positano-pJTUt9EzT4xi2vDdiznBww?dwhat=catering&dwhere=zurich	Positano	Stampfenbachstrasse 6	 8001 Zürich	043 243 76 10		
zurich	catering	N/A	http://yellow.local.ch/en/d/Zurich/8001/Restaurant/Turm-ORT2kKZYouzGhJMz0gaZfA?dwhat=catering&dwhere=zurich	Turm	Obere Zäune 19	 8001 Zürich	043 268 39 40		
zurich	catering	N/A	http://yellow.local.ch/en/d/Zurich/8046/Restaurant/Wirtschaft-Unterdorf-olHa7K1clmCWqaHk-ywYOQ?dwhat=catering&dwhere=zurich	Wirtschaft Unterdorf	Katzenseestrasse 15	 8046 Zürich	044 371 63 11		
zurich	catering	N/A	http://yellow.local.ch/en/d/Zurich/8057/Restaurant/Bad-Allenmoos-5JjnmozzXuY1R7jHP6gjmA?dwhat=catering&dwhere=zurich	Bad Allenmoos	Ringstrasse 79	 8057 Zürich	044 310 27 70		
zurich	catering	N/A	http://yellow.local.ch/en/d/Zurich/8001/Restaurant/BARADOX-rHMNSf83nrncw9VvRKcPhg?dwhat=catering&dwhere=zurich	BARADOX	Sihlstrasse 73	 8001 Zürich	044 221 06 26		
zurich	catering	N/A	http://yellow.local.ch/en/d/Zurich/8002/Restaurant/Bederhof-cAJ9muHxJGSr4f6aW-Truw?dwhat=catering&dwhere=zurich	Bederhof	Brandschenkestrasse 177	 8002 Zürich	044 285 15 00		
zurich	catering	N/A	http://yellow.local.ch/en/d/Zurich/8048/Bioproducts/Bioladen-Altstetten-GKbGwcQCI8k8kYegQKtRvQ?dwhat=catering&dwhere=zurich	Bioladen Altstetten	Altstetterstrasse 128	 8048 Zürich	044 432 64 42		
zurich	catering	N/A	http://yellow.local.ch/en/d/Zurich/8048/Restaurant/Cafe-Glattli-aianc5HIA-lbqQE_wAoWZg?dwhat=catering&dwhere=zurich	Café Glättli	Glättlistrasse 40	 8048 Zürich	044 439 34 33		
zurich	catering	N/A	http://yellow.local.ch/en/d/Zurich/8005/Restaurant/CAFFETTERIA-am-Limmatplatz-RISTORANTE-PKYi93BGWtQ7JZ6-lFF5Dg?dwhat=catering&dwhere=zurich	CAFFETTERIA 'am Limmatplatz' RISTORANTE	Kornhausbrücke 2	 8005 Zürich	044 271 61 60		
zurich	catering	N/A	http://yellow.local.ch/en/d/Zurich/8005/Restaurant/Don-Weber-S2l5Pss1Dn5BwbnPRejOTA?dwhat=catering&dwhere=zurich	Don Weber	Heinrichstrasse 213	 8005 Zürich	044 272 05 40		
zurich	catering	N/A	http://yellow.local.ch/en/d/Zurich/8053/Restaurant/Elefantino-Bistro-lWoKDhYQCUEoFQ_Dj6U2NQ?dwhat=catering&dwhere=zurich	Elefantino Bistro	Witikonerstrasse 279	 8053 Zürich	044 381 02 00		
zurich	catering	N/A	http://yellow.local.ch/en/d/Zurich/8004/Restaurant/Fein-und-Schein-4XXX9RX9y_etvLg7BLFK7w?dwhat=catering&dwhere=zurich	Fein und Schein	Schöntalstrasse 14 /Hallwylstr.	 8004 Zürich	044 241 30 40		
zurich	catering	N/A	http://yellow.local.ch/en/d/Zurich/8004/Bar/Forum-DaMAe8PHAMy3Bmwjs-CArQ?dwhat=catering&dwhere=zurich	Forum	Badenerstrasse 120	 8004 Zürich	043 243 88 88		
zurich	catering	N/A	http://yellow.local.ch/en/d/Zurich/8001/Restaurant/Goethe-Stubli-xyVCmZgFVWHdRDOUpVJIrQ?dwhat=catering&dwhere=zurich	Goethe-Stübli	Glockengasse 7	 8001 Zürich	044 221 21 20		
zurich	catering	N/A	http://yellow.local.ch/en/d/Zurich/8004/Restaurant/Hooters-Zurich-GmbH-BzaNogswQNm3tw6k3LOLKA?dwhat=catering&dwhere=zurich	Hooters Zürich GmbH	Stauffacherstrasse 96	 8004 Zürich	043 243 80 55		
zurich	catering	N/A	http://yellow.local.ch/en/d/Zurich/8004/Restaurant/Hotel-Crowne-Plaza-Zurich-6lQ_wbYGw5h_WoiihqVocw?dwhat=catering&dwhere=zurich	Hotel Crowne Plaza Zurich	Badenerstrasse 420	 8004 Zürich	044 404 44 44		
zurich	catering	N/A	http://yellow.local.ch/en/d/Zurich/8004/Restaurant/HUUSMAA-e8yzOlF9umsHs00I8yjxYw?dwhat=catering&dwhere=zurich	HUUSMAA	Badenerstrasse 138	 8004 Zürich	044 241 11 18		
zurich	catering	N/A	http://yellow.local.ch/en/d/Zurich/8002/Restaurant/Le-Jardin-ZnwJMgWfiZhaTsuUJ-zeIA?dwhat=catering&dwhere=zurich	Le Jardin	Stockerstrasse 17	 8002 Zürich	044 286 94 00		
zurich	catering	N/A	http://yellow.local.ch/en/d/Zurich/8032/Restaurant/Lemon-Grass-JPTJp5NLW4xhObrgfssKdg?dwhat=catering&dwhere=zurich	Lemon Grass	Neptunstrasse 57	 8032 Zürich	044 383 47 91		
zurich	catering	N/A	http://yellow.local.ch/en/d/Zurich/8005/Restaurant/Libanon-II-Achdar-Jl9oTbgxl3P6VhlS5joEvA?dwhat=catering&dwhere=zurich	Libanon II Achdar	Hafnerstrasse 13	 8005 Zürich	044 272 08 10		
zurich	catering	N/A	http://yellow.local.ch/en/d/Zurich/8001/Restaurant/NEUMARKT-e3F-0T3Xi13i3wbcwaW1gg?dwhat=catering&dwhere=zurich	NEUMARKT	Neumarkt 5	 8001 Zürich	044 252 79 39		
zurich	catering	N/A	http://yellow.local.ch/en/d/Zurich/8008/Restaurant/Pumpstation-0bVORdLQ8dU6lyrsptXLhA?dwhat=catering&dwhere=zurich	Pumpstation	Utoquai 10	 8008 Zürich	044 260 96 69		
zurich	catering	N/A	http://yellow.local.ch/en/d/Zurich/8048/Restaurant/Restaurant-8048-GQZtd69tqdnhrc0_GYJdpA?dwhat=catering&dwhere=zurich	Restaurant 8048	Lindenplatz 5	 8048 Zürich	044 438 15 15		
zurich	catering	N/A	http://yellow.local.ch/en/d/Zurich/8050/Restaurant/restaurant-aux-carres-FJVv8EVny8TF8GpY-rn_Lg?dwhat=catering&dwhere=zurich	restaurant aux carrés	Aux Carrées, Leutschenbachstrasse 71	 8050 Zürich	043 443 94 84		
zurich	catering	N/A	http://yellow.local.ch/en/d/Zurich/8008/Restaurant/Restaurant-Burgwies-rBItADCQPzNsvCVrwYdWtw?dwhat=catering&dwhere=zurich	Restaurant Burgwies	Forchstrasse 271	 8008 Zürich	044 380 63 20		
zurich	catering	N/A	http://yellow.local.ch/en/d/Zurich/8049/Restaurant/Restaurant-Grunwald-15xDm2BA-0qaCB3QH7_gBA?dwhat=catering&dwhere=zurich	Restaurant Grünwald	Regensdorferstrasse 237	 8049 Zürich	044 341 71 07		
zurich	catering	N/A	http://yellow.local.ch/en/d/Zurich/8001/Restaurant/Restaurant-St-Peter-TyTB2P9wFq0FU9UoaQVRnA?dwhat=catering&dwhere=zurich	Restaurant St. Peter	In Gassen 10	 8001 Zürich	044 215 18 40		
zurich	catering	N/A	http://yellow.local.ch/en/d/Zurich/8050/Restaurant/Restaurant-The-Traders-Gx-AMKwnuSEVVsosegeRsA?dwhat=catering&dwhere=zurich	Restaurant The Traders	Leutschenbachstrasse 95	 8050 Zürich	044 303 04 00		
zurich	catering	N/A	http://yellow.local.ch/en/d/Zurich/8048/Restaurant/Roter-Stein-pKwcxe9w4eTbHzbM1p9i1g?dwhat=catering&dwhere=zurich	Roter Stein	Herrligstrasse 39	 8048 Zürich	044 431 37 40		
zurich	catering	N/A	http://yellow.local.ch/en/d/Zurich/8001/Restaurant/Skebe-Dm2QRk6Vsd3G-DjO-yLEWg?dwhat=catering&dwhere=zurich	Skebe	St. Urbangasse 4	 8001 Zürich	044 260 41 31		
zurich	catering	N/A	http://yellow.local.ch/en/d/Zurich/8044/Hotel/Sorell-Hotel-Rigiblick-b8_Zm_BXOmzb2cOHV2IqdA?dwhat=catering&dwhere=zurich	Sorell Hotel Rigiblick	Germaniastrasse 99	 8044 Zürich	043 255 15 70		
zurich	catering	N/A	http://yellow.local.ch/en/d/Zurich/8004/Restaurant/Take-Away-GoF_C4hs5dF0M3T7kwEGnQ?dwhat=catering&dwhere=zurich	Take Away	Zwinglistrasse 3	 8004 Zürich	044 241 80 11		
zurich	catering	N/A	http://yellow.local.ch/en/d/Zurich/8038/Restaurant/Ziegel-au-Lac-0KmRSgdrBqna7VFbhDWuxQ?dwhat=catering&dwhere=zurich	Ziegel au Lac	Seestrasse 407	 8038 Zürich	044 481 62 42		
zurich	catering	N/A	http://yellow.local.ch/en/d/Zurich/8052/ENTERPRISES-Co-LTD-2l-U-G-X94C6G2x8mNJ5-w?dwhat=catering&dwhere=zurich	ENTERPRISES Co. LTD	Katzenbachstrasse 98	 8052 Zürich	044 991 73 00		
zurich	catering	N/A	http://yellow.local.ch/en/d/Zurich/8002/Juan-Costa-GmbH-H1Fb4fLwu5WKmPjY7c_8gQ?dwhat=catering&dwhere=zurich	Juan Costa GmbH	Bleicherweg 47	 8002 Zürich	044 286 51 11		
zurich	catering	N/A	http://yellow.local.ch/en/d/Zurich/8001/Juice-Market-jcmRh1wCo42E71CApCPRcQ?dwhat=catering&dwhere=zurich	Juice Market	Augustinergasse 42	 8001 Zürich	044 211 69 33		
zurich	catering	N/A	http://yellow.local.ch/en/d/Zurich/8008/Prima-La-Cucina-0l3hMMNbhmZPQgpI8x7pYw?dwhat=catering&dwhere=zurich	Prima La Cucina	Münchhaldenstrasse 30	 8008 Zürich	079 790 11 89		
zurich	catering	N/A	http://yellow.local.ch/en/d/Zurich/8006/Restaurant/Restaurant-African-Queen-1OnS5-b_57z8Hs2vezfAEg?dwhat=catering&dwhere=zurich	Restaurant African Queen	Stampfenbachstrasse 70	 8006 Zürich	043 255 01 03		
zurich	catering	N/A	http://yellow.local.ch/en/d/Zurich/8038/Seerestaurant-Badi-Wollishofen-sdKK4aYfa5vaW82Vo5mS4Q?dwhat=catering&dwhere=zurich	Seerestaurant Badi Wollishofen	Seestrasse 451	 8038 Zürich	044 480 02 02		
zurich	catering	N/A	http://yellow.local.ch/en/d/Geneve/1201/Restaurant/Restaurant-Cho-Lon-MIGpPqp9BxITfjqoFzfTAw?dwhat=catering&dwhere=zurich	Restaurant Cho Lon	rue de Zurich 43	 1201 Genève	022 731 13 18		
zurich	catering	N/A	http://yellow.local.ch/en/d/Wadenswil/8820/Catering-service/GMT-Party-Team-AG-jfyiIKHPC_BohF-vJLzydw?dwhat=catering&dwhere=zurich	GMT Party Team AG	Einsiedlerstrasse 33	 8820 Wädenswil	044 780 97 83	www.gmtparty.ch	
zurich	catering	N/A	http://yellow.local.ch/en/d/Schlieren/8952/Events/Catering-Event-Services-GmbH-P5ACgMf2u4Tq5JpG7HHfaw?dwhat=catering&dwhere=zurich	Catering & Event Services GmbH	Unterrohrstrasse 3	 8952 Schlieren	044 730 70 70		
zurich	catering	N/A	http://yellow.local.ch/en/d/Bassersdorf/8303/Travel-agency/EUROBUS-welti-furrer-AG-vCutHWv9A_26B8Q7NSpI4Q?dwhat=catering&dwhere=zurich	EUROBUS welti furrer AG	Grindelstrasse 8	 8303 Bassersdorf	044 444 12 12	www.eurobus.ch	
zurich	catering	N/A	http://yellow.local.ch/en/d/Thalwil/8800/Restaurant/Restaurant-Golden-Thai-Food-UVbvKupaVW9_R4wP560z-Q?dwhat=catering&dwhere=zurich	Restaurant Golden Thai Food	Zürcherstrasse 59	 8800 Thalwil	044 720 08 28	www.golden-thai-food.ch	
zurich	catering	N/A	http://yellow.local.ch/en/d/Horgen/8810/Water-treatment/BRITA-Wasser-Filter-Systeme-AG-8ax3Isjy-auQSoIvUNdi1Q?dwhat=catering&dwhere=zurich	BRITA Wasser-Filter-Systeme AG	Tödistrasse 53	 8810 Horgen	044 783 86 55	www.brita.ch	
zurich	catering	N/A	http://yellow.local.ch/en/d/Stallikon/8143/Wine-wine-trade/Comvino-Comestibles-und-Wein-Import-GmbH-0FeGTpuHkbsKlGV5QlXUEg?dwhat=catering&dwhere=zurich	Comvino Comestibles und Wein-Import GmbH	Sellenbüren 2	 8143 Stallikon	044 777 85 85	www.comvino.com	
zurich	catering	N/A	http://yellow.local.ch/en/d/Zollikerberg/8125/flow60-GmbH-swoW_t1hWNeySWczXtNJkw?dwhat=catering&dwhere=zurich	flow60 GmbH	Trichtenhauser Strasse 57	 8125 Zollikerberg	043 333 12 12	www.flow60.ch	
zurich	catering	N/A	http://yellow.local.ch/en/d/Kloten/8302/Security-contractors/ACE-Security-GmbH-h_RsxdmncYhxNtO7-9fjxA?dwhat=catering&dwhere=zurich	ACE Security GmbH	Balz-Zimmermannstrasse 34	 8302 Kloten	044 836 32 39	www.acesecurity.ch	
